{
  "type": "FeatureCollection",
  "name": "CLADIRI_SOL_ANCPI",
  "crs": {
    "type": "name",
    "properties": {
      "name": "urn:ogc:def:crs:EPSG::3844"
    }
  },
  "features": [
    {
      "type": "Feature",
      "properties": {
        "id": 1,
        "layer": "CLADIRI_SOL_ANCPI",
        "area_m2": 359.41
      },
      "geometry": {
        "type": "Polygon",
        "coordinates": [
          [
            [
              391106.2731580325,
              585551.399998
            ],
            [
              391126.2244665752,
              585551.399998
            ],
            [
              391127.010263761,
              585550.6142008143
            ],
            [
              391127.2128190065,
              585548.9937588496
            ],
            [
              391128.44666226837,
              585547.9655561314
            ],
            [
              391128.98362420686,
              585546.3546703157
            ],
            [
              391128.77327602985,
              585544.2511885454
            ],
            [
              391130.0091169163,
              585543.0153476589
            ],
            [
              391130.41585169605,
              585539.5581020309
            ],
            [
              391131.85215779603,
              585538.696318371
            ],
            [
              391132.9558374251,
              585539.799998
            ],
            [
              391133.12390749436,
              585539.799998
            ],
            [
              391132.7681001664,
              585537.4872503686
            ],
            [
              391133.1450067337,
              585537.0161171594
            ],
            [
              391102.7039340099,
              585537.5941122111
            ],
            [
              391102.3991320241,
              585538.8133201544
            ],
            [
              391103.1756145991,
              585543.0839743167
            ],
            [
              391104.3901520001,
              585545.9178949192
            ],
            [
              391104.3901520001,
              585547.599998
            ],
            [
              391105.1270402042,
              585548.152664153
            ],
            [
              391106.2731580325,
              585551.399998
            ]
          ]
        ]
      }
    }
  ]
}