{
  "type": "FeatureCollection",
  "name": "REGULARIZED_FOOTPRINTS",
  "crs": {
    "type": "name",
    "properties": {
      "name": "urn:ogc:def:crs:EPSG::3844"
    }
  },
  "features": [
    {
      "type": "Feature",
      "properties": {
        "id": 1,
        "vertices": 20,
        "area_m2": 394.08
      },
      "geometry": {
        "type": "Polygon",
        "coordinates": [
          [
            [
              391105.9901520001,
              585551.799998
            ],
            [
              391104.79015200015,
              585548.399998
            ],
            [
              391103.9901520001,
              585547.799998
            ],
            [
              391103.9901520001,
              585545.999998
            ],
            [
              391102.79015200015,
              585543.199998
            ],
            [
              391101.9901520001,
              585538.799998
            ],
            [
              391102.3901520001,
              585537.199998
            ],
            [
              391133.9901520001,
              585536.5999980001
            ],
            [
              391133.1901520001,
              585537.5999980001
            ],
            [
              391133.59015200014,
              585540.199998
            ],
            [
              391132.79015200015,
              585540.199998
            ],
            [
              391131.79015200015,
              585539.199998
            ],
            [
              391130.79015200015,
              585539.799998
            ],
            [
              391130.3901520001,
              585543.199998
            ],
            [
              391129.1901520001,
              585544.399998
            ],
            [
              391129.3901520001,
              585546.399998
            ],
            [
              391128.79015200015,
              585548.199998
            ],
            [
              391127.59015200014,
              585549.199998
            ],
            [
              391127.3901520001,
              585550.799998
            ],
            [
              391126.3901520001,
              585551.799998
            ],
            [
              391105.9901520001,
              585551.799998
            ]
          ]
        ]
      }
    }
  ]
}