{
"type": "FeatureCollection",
"name": "tier2_extended_gt",
"crs": { "type": "name", "properties": { "name": "urn:ogc:def:crs:EPSG::3844" } },
"features": [
{ "type": "Feature", "properties": { "bldg_id": "GT_TIER1_001", "source": "ANCPI_CAMPUS", "cadastral_status": "OFFICIAL_REGISTERED", "area_m2": 294.55 }, "geometry": { "type": "Polygon", "coordinates": [ [ [ 390800.0479662741418, 585396.991373524302617 ], [ 390801.526449592784047, 585389.414146516239271 ], [ 390840.891067951568402, 585399.024288087384775 ], [ 390838.488532558782026, 585405.677463021245785 ], [ 390800.0479662741418, 585396.991373524302617 ], [ 390800.0479662741418, 585396.991373524302617 ] ] ] } },
{ "type": "Feature", "properties": { "bldg_id": "GT_TIER1_002", "source": "ANCPI_CAMPUS", "cadastral_status": "OFFICIAL_REGISTERED", "area_m2": 1257.26 }, "geometry": { "type": "Polygon", "coordinates": [ [ [ 390800.972018348285928, 585431.366110682720318 ], [ 390808.857262714358512, 585412.145827540429309 ], [ 390868.85904406249756, 585435.431939808884636 ], [ 390862.329076071851887, 585451.079221597872674 ], [ 390838.426929087145254, 585441.961907799588516 ], [ 390836.08599716599565, 585446.027736925869249 ], [ 390800.972018348285928, 585431.366110682720318 ], [ 390800.972018348285928, 585431.366110682720318 ] ] ] } },
{ "type": "Feature", "properties": { "bldg_id": "GT_TIER1_003", "source": "ANCPI_CAMPUS", "cadastral_status": "OFFICIAL_REGISTERED", "area_m2": 1568.98 }, "geometry": { "type": "Polygon", "coordinates": [ [ [ 390783.56903761846479, 585496.126760212820955 ], [ 390789.667781307827681, 585481.34192702639848 ], [ 390796.505766656599008, 585483.744462419184856 ], [ 390797.799439560389146, 585482.081168685806915 ], [ 390802.05007910146378, 585483.929272834095173 ], [ 390801.126027027319651, 585486.331808226881549 ], [ 390812.584272746811621, 585489.843206108664162 ], [ 390811.845031087519601, 585491.136879012454301 ], [ 390888.171732412418351, 585520.891355800093152 ], [ 390884.845144945487846, 585526.805289074662142 ], [ 390885.769197019631974, 585528.283772393362597 ], [ 390883.551472041639499, 585534.867643421632238 ], [ 390829.586830911226571, 585513.060014471644536 ], [ 390829.032399666728452, 585511.581531153060496 ], [ 390814.801997724804096, 585506.776460367487743 ], [ 390813.50832482095575, 585508.254943686071783 ], [ 390783.56903761846479, 585496.126760212820955 ], [ 390783.56903761846479, 585496.126760212820955 ] ] ] } },
{ "type": "Feature", "properties": { "bldg_id": "GT_TIER1_004", "source": "ANCPI_CAMPUS", "cadastral_status": "OFFICIAL_REGISTERED", "area_m2": 1790.82 }, "geometry": { "type": "Polygon", "coordinates": [ [ [ 390818.313395606528502, 585489.589091788278893 ], [ 390817.276204762572888, 585493.254116207826883 ], [ 390835.633225091907661, 585500.410242776852101 ], [ 390841.229887045512442, 585487.925798054784536 ], [ 390846.034957831085194, 585489.034660543780774 ], [ 390845.295716171793174, 585490.697954277158715 ], [ 390857.123582720931154, 585494.394162573851645 ], [ 390871.908415907353628, 585458.171321267029271 ], [ 390856.569151476433035, 585453.366250481456518 ], [ 390857.631546297634486, 585449.287380343768746 ], [ 390838.426929087145254, 585441.961907799588516 ], [ 390818.313395606528502, 585489.589091788278893 ], [ 390818.313395606528502, 585489.589091788278893 ] ] ] } },
{ "type": "Feature", "properties": { "bldg_id": "GT_TIER1_005", "source": "ANCPI_CAMPUS", "cadastral_status": "OFFICIAL_REGISTERED", "area_m2": 1442.69 }, "geometry": { "type": "Polygon", "coordinates": [ [ [ 390888.910974071768578, 585595.138939958182164 ], [ 390894.824907346337568, 585579.06043386796955 ], [ 390876.713486692926381, 585571.113586030201986 ], [ 390884.660334530635737, 585552.447734132409096 ], [ 390902.586944769194815, 585558.916098651476204 ], [ 390909.794550947553944, 585542.283161316649057 ], [ 390923.470521645038389, 585548.197094591218047 ], [ 390917.556588370469399, 585567.97180897812359 ], [ 390923.840142474684399, 585571.113586030201986 ], [ 390919.219882103905547, 585584.419935898040421 ], [ 390911.642655095900409, 585581.27815884584561 ], [ 390902.771755184046924, 585601.792114892043173 ], [ 390888.910974071768578, 585595.138939958182164 ], [ 390888.910974071768578, 585595.138939958182164 ] ] ] } },
{ "type": "Feature", "properties": { "bldg_id": "GT_TIER1_006", "source": "ANCPI_CAMPUS", "cadastral_status": "OFFICIAL_REGISTERED", "area_m2": 1126.79 }, "geometry": { "type": "Polygon", "coordinates": [ [ [ 390948.134503574110568, 585548.400300683453679 ], [ 390954.787678508553654, 585531.21293210296426 ], [ 391010.508018584048841, 585552.5585350174224 ], [ 391003.300412405107636, 585570.577550464658998 ], [ 390994.271738808194641, 585566.947932938230224 ], [ 390948.358710655069444, 585548.490434183273464 ], [ 390954.312501848500688, 585550.883918080129661 ], [ 390948.134503574110568, 585548.400300683453679 ] ] ] } },
{ "type": "Feature", "properties": { "bldg_id": "GT_TIER1_007", "source": "ANCPI_CAMPUS", "cadastral_status": "OFFICIAL_REGISTERED", "area_m2": 818.34 }, "geometry": { "type": "Polygon", "coordinates": [ [ [ 390735.197906149725895, 585405.334152007475495 ], [ 390736.950182675558608, 585400.515391561551951 ], [ 390738.921493767062202, 585401.172495258739218 ], [ 390742.535564101533964, 585392.192078064079396 ], [ 390752.446878200571518, 585396.244217529892921 ], [ 390752.063567710574716, 585397.503666282864287 ], [ 390777.088266844628379, 585407.853049513301812 ], [ 390778.950060653267428, 585404.184220537426881 ], [ 390782.837924194929656, 585405.717462497530505 ], [ 390782.235579139145557, 585408.181601361953653 ], [ 390798.882206134207081, 585415.00817866018042 ], [ 390794.528894140385091, 585427.147865250706673 ], [ 390780.154750764661003, 585421.89103567332495 ], [ 390781.222544272604864, 585419.591172733227722 ], [ 390766.109159237588756, 585413.020135761587881 ], [ 390764.384262032515835, 585416.962757944595069 ], [ 390744.260461306548677, 585409.200720521737821 ], [ 390741.96059836645145, 585413.882584364153445 ], [ 390738.921493767003994, 585412.814790856209584 ], [ 390740.482115047809202, 585407.804375165258534 ], [ 390735.197906149725895, 585405.334152007475495 ], [ 390735.197906149725895, 585405.334152007475495 ] ] ] } },
{ "type": "Feature", "properties": { "bldg_id": "GT_TIER1_008", "source": "ANCPI_CAMPUS", "cadastral_status": "OFFICIAL_REGISTERED", "area_m2": 448.55 }, "geometry": { "type": "Polygon", "coordinates": [ [ [ 390672.872304955730215, 585424.026622689212672 ], [ 390674.432926236535423, 585420.166138468310237 ], [ 390677.143478987389244, 585421.233931976254098 ], [ 390678.704100268136244, 585416.305654247407801 ], [ 390682.56458448903868, 585417.701999603887089 ], [ 390682.810998375469353, 585417.044895906699821 ], [ 390702.11341947998153, 585424.68372638639994 ], [ 390703.181212987867184, 585424.68372638639994 ], [ 390702.934799101436511, 585425.42296804569196 ], [ 390703.427626874356065, 585425.58724397001788 ], [ 390704.906110192998312, 585422.055311597650871 ], [ 390709.998663846054114, 585423.369518992025405 ], [ 390707.94521479238756, 585428.626348569407128 ], [ 390710.902181429672055, 585430.022693925886415 ], [ 390707.534524981689174, 585437.825800329796039 ], [ 390699.567142653453629, 585435.279523503268138 ], [ 390698.663625069835689, 585436.593730897642672 ], [ 390674.679340122966096, 585428.215658758650534 ], [ 390675.418581782258116, 585425.176554159261286 ], [ 390672.872304955730215, 585424.026622689212672 ], [ 390672.872304955730215, 585424.026622689212672 ] ] ] } },
{ "type": "Feature", "properties": { "bldg_id": "GT_TIER1_009", "source": "ANCPI_CAMPUS", "cadastral_status": "OFFICIAL_REGISTERED", "area_m2": 148.54 }, "geometry": { "type": "Polygon", "coordinates": [ [ [ 391221.527237676666118, 585606.151481475331821 ], [ 391224.885767684609164, 585602.09934200916905 ], [ 391224.411192792234942, 585601.113686463329941 ], [ 391229.631516608933453, 585596.769500909605995 ], [ 391234.377265533199534, 585601.296215268201195 ], [ 391233.939196401741356, 585601.734284399659373 ], [ 391237.918324345955625, 585606.260998758138157 ], [ 391228.353814975474961, 585614.132553464383818 ], [ 391221.527237676666118, 585606.151481475331821 ], [ 391221.527237676666118, 585606.151481475331821 ] ] ] } },
{ "type": "Feature", "properties": { "bldg_id": "GT_TIER1_010", "source": "ANCPI_CAMPUS", "cadastral_status": "OFFICIAL_REGISTERED", "area_m2": 114.69 }, "geometry": { "type": "Polygon", "coordinates": [ [ [ 391237.188209126878064, 585594.474201189586893 ], [ 391245.80356871249387, 585586.734979866887443 ], [ 391250.330283071030863, 585592.356867054128088 ], [ 391248.870052632759325, 585593.853603253257461 ], [ 391250.914375246327836, 585596.518523803097196 ], [ 391243.941774903738406, 585602.541974360821769 ], [ 391237.188209126878064, 585594.474201189586893 ], [ 391237.188209126878064, 585594.474201189586893 ] ] ] } },
{ "type": "Feature", "properties": { "bldg_id": "GT_TIER1_011", "source": "ANCPI_CAMPUS", "cadastral_status": "OFFICIAL_REGISTERED", "area_m2": 143.12 }, "geometry": { "type": "Polygon", "coordinates": [ [ [ 391249.989562635484617, 585582.591575998230837 ], [ 391257.728783958184067, 585591.718016237253323 ], [ 391266.928235719096847, 585583.978794914553873 ], [ 391259.189014396397397, 585574.939055857830681 ], [ 391249.989562635484617, 585582.591575998230837 ], [ 391249.989562635484617, 585582.591575998230837 ] ] ] } },
{ "type": "Feature", "properties": { "bldg_id": "GT_TIER1_012", "source": "ANCPI_CAMPUS", "cadastral_status": "OFFICIAL_REGISTERED", "area_m2": 192.82 }, "geometry": { "type": "Polygon", "coordinates": [ [ [ 391272.98819203779567, 585553.920863987295888 ], [ 391281.311505535733886, 585545.488033206551336 ], [ 391294.179786272754427, 585556.549278776161373 ], [ 391288.211094356433023, 585564.105971294105984 ], [ 391282.242402440111618, 585559.232452206430025 ], [ 391280.654401838546619, 585560.765694166650064 ], [ 391272.98819203779567, 585553.920863987295888 ], [ 391272.98819203779567, 585553.920863987295888 ] ] ] } },
{ "type": "Feature", "properties": { "bldg_id": "GT_TIER1_013", "source": "ANCPI_CAMPUS", "cadastral_status": "OFFICIAL_REGISTERED", "area_m2": 92.18 }, "geometry": { "type": "Polygon", "coordinates": [ [ [ 391292.299739583395422, 585531.278165754512884 ], [ 391295.503120107285213, 585527.417681533494033 ], [ 391307.248848694958724, 585536.370719407917932 ], [ 391302.48484689014731, 585541.791824909858406 ], [ 391296.160223804530688, 585536.124305521487258 ], [ 391296.406637690961361, 585535.467201824299991 ], [ 391292.299739583395422, 585531.278165754512884 ], [ 391292.299739583395422, 585531.278165754512884 ] ] ] } },
{ "type": "Feature", "properties": { "bldg_id": "GT_TIER1_014", "source": "ANCPI_CAMPUS", "cadastral_status": "OFFICIAL_REGISTERED", "area_m2": 443.91 }, "geometry": { "type": "Polygon", "coordinates": [ [ [ 390753.382873059774283, 585446.786152423592284 ], [ 390764.225084063888062, 585451.139464417705312 ], [ 390778.084888982819393, 585418.22697478113696 ], [ 390766.109159237588756, 585413.020135761587881 ], [ 390753.382873059774283, 585446.786152423592284 ], [ 390753.382873059774283, 585446.786152423592284 ] ] ] } },
{ "type": "Feature", "properties": { "bldg_id": "GT_TIER1_015", "source": "ANCPI_CAMPUS", "cadastral_status": "OFFICIAL_REGISTERED", "area_m2": 37.15 }, "geometry": { "type": "Polygon", "coordinates": [ [ [ 391147.38396004459355, 585767.405253513948992 ], [ 391155.171855721040629, 585769.092630910570733 ], [ 391154.490414849366061, 585773.651794837787747 ], [ 391147.351510479289573, 585772.597183964913711 ], [ 391147.838253959082067, 585769.465800911653787 ], [ 391146.572720911644865, 585768.897933518630452 ], [ 391146.945890912844334, 585767.45392786199227 ], [ 391147.38396004459355, 585767.405253513948992 ] ] ] } },
{ "type": "Feature", "properties": { "bldg_id": "GT_TIER1_016", "source": "ANCPI_CAMPUS", "cadastral_status": "OFFICIAL_REGISTERED", "area_m2": 30.94 }, "geometry": { "type": "Polygon", "coordinates": [ [ [ 391112.838859139650594, 585797.060411898535676 ], [ 391114.035243183781859, 585797.529886348405853 ], [ 391114.872962218825705, 585796.072983678779565 ], [ 391115.604990906198509, 585796.288690474815667 ], [ 391117.279200107266661, 585792.47149349632673 ], [ 391111.567724154097959, 585789.763792722951621 ], [ 391109.362505777389742, 585793.692218224750832 ], [ 391113.414566677354742, 585795.428815753431991 ], [ 391112.838859139650594, 585797.060411898535676 ] ], [ [ 391113.547147638804745, 585795.053071870468557 ], [ 391113.414918774389662, 585795.428966652136296 ], [ 391113.414566677354742, 585795.428815753431991 ], [ 391113.547147638804745, 585795.053071870468557 ] ], [ [ 391113.451151007902808, 585795.444494752213359 ], [ 391112.869077712821309, 585796.980661189649254 ], [ 391113.414918774389662, 585795.428966652136296 ], [ 391113.451151007902808, 585795.444494752213359 ] ] ] } },
{ "type": "Feature", "properties": { "bldg_id": "GT_TIER1_017", "source": "ANCPI_CAMPUS", "cadastral_status": "OFFICIAL_REGISTERED", "area_m2": 1484.51 }, "geometry": { "type": "Polygon", "coordinates": [ [ [ 390600.127593945304397, 585513.091997528565116 ], [ 390608.074441790347919, 585497.383112253504805 ], [ 390624.892189555568621, 585508.286926738568582 ], [ 390624.522568725515157, 585509.950220473576337 ], [ 390631.914985325594898, 585514.940101678599603 ], [ 390626.925104120571632, 585519.92998288362287 ], [ 390634.132710305624641, 585522.702139108674601 ], [ 390638.752970680652652, 585513.276807943591848 ], [ 390640.231454000691883, 585513.646428773645312 ], [ 390643.742851885734126, 585506.623633003560826 ], [ 390655.20109761581989, 585511.059082963620313 ], [ 390634.871951965615153, 585552.641426338930614 ], [ 390613.433943825424649, 585543.400905588874593 ], [ 390614.91242714546388, 585540.443938948912546 ], [ 390606.411148055340163, 585533.975574423791841 ], [ 390610.107356355409138, 585523.626191183691844 ], [ 390614.727616730437148, 585520.669224543729797 ], [ 390600.127593945304397, 585513.091997528565116 ], [ 390600.127593945304397, 585513.091997528565116 ] ] ] } },
{ "type": "Feature", "properties": { "bldg_id": "GT_TIER1_018", "source": "ANCPI_CAMPUS", "cadastral_status": "OFFICIAL_REGISTERED", "area_m2": 286.05 }, "geometry": { "type": "Polygon", "coordinates": [ [ [ 390656.125149690895341, 585485.093219655798748 ], [ 390662.778324630926363, 585470.185179512365721 ], [ 390684.709160544502083, 585480.164941922412254 ], [ 390680.643331414437853, 585488.050186295877211 ], [ 390668.692257911025081, 585482.382666902500205 ], [ 390665.119256554287858, 585489.282255729194731 ], [ 390656.125149690895341, 585485.093219655798748 ] ] ] } },
{ "type": "Feature", "properties": { "bldg_id": "GT_TIER1_019", "source": "ANCPI_CAMPUS", "cadastral_status": "OFFICIAL_REGISTERED", "area_m2": 172.33 }, "geometry": { "type": "Polygon", "coordinates": [ [ [ 390755.646532602841035, 585630.405381648568437 ], [ 390757.80037250125315, 585624.381931085255928 ], [ 390762.217569581058342, 585626.170713373692706 ], [ 390766.433984975446947, 585614.794605604954995 ], [ 390773.908539538213518, 585617.340882434044033 ], [ 390769.144537728978321, 585628.758059183834121 ], [ 390767.583916446601506, 585628.347369372611865 ], [ 390765.366191466455348, 585632.70068137079943 ], [ 390761.177155392826535, 585630.893646201700903 ], [ 390759.123706337122712, 585635.493372086551972 ], [ 390753.949014716723468, 585634.507716539781541 ], [ 390755.646532602841035, 585630.405381648568437 ], [ 390755.646532602841035, 585630.405381648568437 ] ] ] } },
{ "type": "Feature", "properties": { "bldg_id": "GT_TIER1_020", "source": "ANCPI_CAMPUS", "cadastral_status": "OFFICIAL_REGISTERED", "area_m2": 1450.3 }, "geometry": { "type": "Polygon", "coordinates": [ [ [ 390708.906806477694772, 585593.922740788431838 ], [ 390722.952398005058058, 585558.623951555113308 ], [ 390757.327135164116044, 585571.375870178686455 ], [ 390743.096733221958857, 585607.229090656386688 ], [ 390736.073937458277214, 585605.565796922892332 ], [ 390735.334695798926987, 585608.153142730589025 ], [ 390727.387847961043008, 585605.011365678394213 ], [ 390728.127089620393235, 585602.608830285607837 ], [ 390708.906806477694772, 585593.922740788431838 ], [ 390708.906806477694772, 585593.922740788431838 ] ] ] } },
{ "type": "Feature", "properties": { "bldg_id": "GT_TIER1_021", "source": "ANCPI_CAMPUS", "cadastral_status": "OFFICIAL_REGISTERED", "area_m2": 307.59 }, "geometry": { "type": "Polygon", "coordinates": [ [ [ 390752.106240944936872, 585602.388084512203932 ], [ 390755.186414525494911, 585595.118874862091616 ], [ 390791.902083605993539, 585610.88936359458603 ], [ 390788.945116968650836, 585617.788952415110543 ], [ 390752.106240944936872, 585602.388084512203932 ], [ 390752.106240944936872, 585602.388084512203932 ] ] ] } },
{ "type": "Feature", "properties": { "bldg_id": "GT_TIER1_022", "source": "ANCPI_CAMPUS", "cadastral_status": "OFFICIAL_REGISTERED", "area_m2": 104.57 }, "geometry": { "type": "Polygon", "coordinates": [ [ [ 390819.664714812242892, 585628.733835871331394 ], [ 390822.293129600991961, 585624.462661839555949 ], [ 390841.75982663029572, 585631.444388622301631 ], [ 390839.542101652245037, 585636.044114502612501 ], [ 390819.664714812242892, 585628.733835871331394 ], [ 390819.664714812242892, 585628.733835871331394 ] ] ] } },
{ "type": "Feature", "properties": { "bldg_id": "GT_TIER1_023", "source": "ANCPI_CAMPUS", "cadastral_status": "OFFICIAL_REGISTERED", "area_m2": 819.82 }, "geometry": { "type": "Polygon", "coordinates": [ [ [ 390677.593419614073355, 585510.284049621783197 ], [ 390685.601870923652314, 585495.499216434895061 ], [ 390728.72430105204694, 585517.922880101599731 ], [ 390720.839056685683317, 585532.830920231761411 ], [ 390677.593419614073355, 585510.284049621783197 ], [ 390677.593419614073355, 585510.284049621783197 ] ] ] } },
{ "type": "Feature", "properties": { "bldg_id": "GT_TIER1_024", "source": "ANCPI_CAMPUS", "cadastral_status": "OFFICIAL_REGISTERED", "area_m2": 2992.55 }, "geometry": { "type": "Polygon", "coordinates": [ [ [ 390960.458213309699204, 585281.605355834588408 ], [ 390964.33923202130245, 585272.549645507475361 ], [ 390933.66070315806428, 585261.461020617047325 ], [ 390939.389826018072199, 585250.742016556439921 ], [ 390952.880986301286612, 585253.883793608751148 ], [ 390970.807596540660597, 585210.453346121590585 ], [ 390975.98228815611219, 585210.453346121590585 ], [ 390970.43797571095638, 585225.422989723505452 ], [ 390980.787358941975981, 585229.488818850019015 ], [ 390981.3417901864741, 585238.729339591925964 ], [ 391013.129181538766716, 585250.187585311941803 ], [ 391010.726646145863924, 585261.830641446751542 ], [ 391026.805152236833237, 585267.559764306759462 ], [ 391018.673493983922526, 585288.443341183592565 ], [ 390980.048117282567546, 585274.952180900378153 ], [ 390973.210131933563389, 585286.780047449981794 ], [ 390960.458213309699204, 585281.605355834588408 ], [ 390960.458213309699204, 585281.605355834588408 ] ] ] } },
{ "type": "Feature", "properties": { "bldg_id": "GT_TIER1_025", "source": "ANCPI_CAMPUS", "cadastral_status": "OFFICIAL_REGISTERED", "area_m2": 1460.09 }, "geometry": { "type": "Polygon", "coordinates": [ [ [ 390567.600019965029787, 585578.084404063411057 ], [ 390576.101299047935754, 585555.907154281972907 ], [ 390580.90636983391596, 585543.34004607249517 ], [ 390588.298786427709274, 585535.578008649055846 ], [ 390601.789946711389348, 585541.861562753794715 ], [ 390595.32158219179837, 585552.765377229661681 ], [ 390591.440563480020501, 585552.395756399957463 ], [ 390587.37473435344873, 585560.527414653101005 ], [ 390582.939284397172742, 585568.843883321154863 ], [ 390587.559544768300839, 585572.170470788376406 ], [ 390597.724117584759369, 585578.454024892998859 ], [ 390603.453240444941912, 585581.965422775130719 ], [ 390623.227954833360855, 585590.466701857978478 ], [ 390626.18492147087818, 585586.031251901644282 ], [ 390635.979873457690701, 585587.509735220461152 ], [ 390632.838096405321267, 585604.697103801066987 ], [ 390587.37473435344873, 585592.499616421293467 ], [ 390588.853217672207393, 585588.618597709573805 ], [ 390567.600019965029787, 585578.084404063411057 ], [ 390567.600019965029787, 585578.084404063411057 ] ] ] } },
{ "type": "Feature", "properties": { "bldg_id": "GT_TIER1_026", "source": "ANCPI_CAMPUS", "cadastral_status": "OFFICIAL_REGISTERED", "area_m2": 2841.1 }, "geometry": { "type": "Polygon", "coordinates": [ [ [ 390554.453995891206432, 585594.881846040021628 ], [ 390549.024407525488641, 585601.819547889521345 ], [ 390647.538555206672754, 585642.485969128436409 ], [ 390640.856904537242372, 585612.615060253301635 ], [ 390659.761636151408311, 585596.677377492305823 ], [ 390635.783412157092243, 585588.584494100185111 ], [ 390632.838096405321267, 585604.697103801066987 ], [ 390587.37473435344873, 585592.499616421293467 ], [ 390588.853217672207393, 585588.618597709573805 ], [ 390566.440349877695553, 585579.566182196140289 ], [ 390554.453995891206432, 585594.881846040021628 ], [ 390554.453995891206432, 585594.881846040021628 ] ] ] } },
{ "type": "Feature", "properties": { "bldg_id": "GT_TIER1_027", "source": "ANCPI_CAMPUS", "cadastral_status": "OFFICIAL_REGISTERED", "area_m2": 2669.74 }, "geometry": { "type": "Polygon", "coordinates": [ [ [ 390744.062923767662141, 585718.328076136182062 ], [ 390746.750375216885004, 585723.39881189330481 ], [ 390765.354623644670937, 585726.232571587665007 ], [ 390767.202727793133818, 585727.957468792796135 ], [ 390776.689662421878893, 585725.585735135595314 ], [ 390795.170703906449489, 585732.793341314652935 ], [ 390797.942860129114706, 585729.466753847431391 ], [ 390809.21629543468589, 585735.935118366964161 ], [ 390805.704897552612238, 585740.370568323298357 ], [ 390814.575797465222422, 585746.099691183539107 ], [ 390824.185939037182834, 585738.892085004481487 ], [ 390860.778401176561601, 585770.494665943086147 ], [ 390867.431576111004688, 585774.375684654805809 ], [ 390869.649301089171786, 585769.200993039179593 ], [ 390868.265719141054433, 585763.156372192781419 ], [ 390855.902101376559585, 585761.807613891200162 ], [ 390835.318841423140839, 585723.447902159765363 ], [ 390837.070249599637464, 585711.504033788805827 ], [ 390774.903161744994577, 585693.378670132020488 ], [ 390770.259800072060898, 585723.317957337014377 ], [ 390744.062923767662141, 585718.328076136182062 ], [ 390744.062923767662141, 585718.328076136182062 ] ] ] } },
{ "type": "Feature", "properties": { "bldg_id": "GT_TIER1_028", "source": "ANCPI_CAMPUS", "cadastral_status": "OFFICIAL_REGISTERED", "area_m2": 820.85 }, "geometry": { "type": "Polygon", "coordinates": [ [ [ 390900.168647191778291, 585766.636691616498865 ], [ 390902.591757535526995, 585784.135984688880853 ], [ 390943.134542292275, 585813.65944846032653 ], [ 390963.925713962409645, 585823.3619952397421 ], [ 390963.496414769499097, 585816.072571950266138 ], [ 390963.022185792098753, 585815.661573503166437 ], [ 390900.168647191778291, 585766.636691616498865 ] ] ] } },
{ "type": "Feature", "properties": { "bldg_id": "GT_TIER1_029", "source": "ANCPI_CAMPUS", "cadastral_status": "OFFICIAL_REGISTERED", "area_m2": 974.21 }, "geometry": { "type": "Polygon", "coordinates": [ [ [ 391047.828171731147449, 585781.088163621956483 ], [ 391066.100846961664502, 585784.807847551186569 ], [ 391067.972052411991172, 585759.234706396935508 ], [ 391039.903970657323953, 585746.760003394796513 ], [ 391021.631295427039731, 585714.348502561450005 ], [ 391026.475525274057873, 585757.145488738897257 ], [ 391064.045285633706953, 585771.73213637038134 ], [ 391046.048597240122035, 585780.309599782107398 ], [ 391046.048597240122035, 585780.309599782107398 ], [ 391047.828171731147449, 585781.088163621956483 ] ] ] } },
{ "type": "Feature", "properties": { "bldg_id": "GT_RESIDENTIAL_030", "source": "OSM_VERIFIED_RESIDENTIAL", "cadastral_status": "UNREGISTERED_IN_TIER1_BUT_PHYSICALLY_REAL", "area_m2": 382.97 }, "geometry": { "type": "Polygon", "coordinates": [ [ [ 390691.551590403309092, 585340.435034521506168 ], [ 390692.266848375322297, 585337.742892833077349 ], [ 390685.403690994950011, 585335.921690382878296 ], [ 390687.16359597351402, 585329.319691058131866 ], [ 390692.360764372977428, 585330.693029831629246 ], [ 390692.968704869970679, 585328.403042537625879 ], [ 390719.545625577564351, 585335.425860532326624 ], [ 390721.023335580946878, 585338.556332665262744 ], [ 390720.532604495063424, 585343.523386163520627 ], [ 390718.19274452002719, 585345.522328837658279 ], [ 390714.935163823072799, 585346.626293318695389 ], [ 390691.551590403309092, 585340.435034521506168 ] ] ] } },
{ "type": "Feature", "properties": { "bldg_id": "GT_RESIDENTIAL_031", "source": "OSM_VERIFIED_RESIDENTIAL", "cadastral_status": "UNREGISTERED_IN_TIER1_BUT_PHYSICALLY_REAL", "area_m2": 202.26 }, "geometry": { "type": "Polygon", "coordinates": [ [ [ 390565.710605696309358, 585632.379036546335556 ], [ 390560.578456897463184, 585655.228556720074266 ], [ 390566.336699058825616, 585656.380387220880948 ], [ 390570.447064773412421, 585637.429224356659688 ], [ 390571.47870140633313, 585637.866320088040084 ], [ 390573.788175750523806, 585638.836102106026374 ], [ 390580.078078843303956, 585641.501336279674433 ], [ 390581.569528328196611, 585636.53835897683166 ], [ 390566.659918843244668, 585629.960557269398123 ], [ 390565.710605696309358, 585632.379036546335556 ] ] ] } },
{ "type": "Feature", "properties": { "bldg_id": "GT_RESIDENTIAL_032", "source": "OSM_VERIFIED_RESIDENTIAL", "cadastral_status": "UNREGISTERED_IN_TIER1_BUT_PHYSICALLY_REAL", "area_m2": 50.05 }, "geometry": { "type": "Polygon", "coordinates": [ [ [ 390593.304740310064517, 585650.066261456697248 ], [ 390588.570494277810212, 585649.351642330526374 ], [ 390590.039052971522324, 585639.753297271672636 ], [ 390596.125161793781444, 585642.555645433603786 ], [ 390593.304740310064517, 585650.066261456697248 ] ] ] } },
{ "type": "Feature", "properties": { "bldg_id": "GT_RESIDENTIAL_033", "source": "OSM_VERIFIED_RESIDENTIAL", "cadastral_status": "UNREGISTERED_IN_TIER1_BUT_PHYSICALLY_REAL", "area_m2": 77.88 }, "geometry": { "type": "Polygon", "coordinates": [ [ [ 390607.714487554330844, 585564.982502057449892 ], [ 390613.671805412566755, 585566.997896845336072 ], [ 390617.546288949495647, 585555.25485700124409 ], [ 390611.588558338698931, 585553.217231698567048 ], [ 390607.714487554330844, 585564.982502057449892 ] ] ] } },
{ "type": "Feature", "properties": { "bldg_id": "GT_RESIDENTIAL_034", "source": "OSM_VERIFIED_RESIDENTIAL", "cadastral_status": "UNREGISTERED_IN_TIER1_BUT_PHYSICALLY_REAL", "area_m2": 69.66 }, "geometry": { "type": "Polygon", "coordinates": [ [ [ 390613.940331670455635, 585567.482178552774712 ], [ 390619.878343161719386, 585569.275589461321943 ], [ 390623.421055342652835, 585558.616912553086877 ], [ 390617.467961552436464, 585556.8348882420687 ], [ 390613.940331670455635, 585567.482178552774712 ] ] ] } },
{ "type": "Feature", "properties": { "bldg_id": "GT_RESIDENTIAL_035", "source": "OSM_VERIFIED_RESIDENTIAL", "cadastral_status": "UNREGISTERED_IN_TIER1_BUT_PHYSICALLY_REAL", "area_m2": 28.52 }, "geometry": { "type": "Polygon", "coordinates": [ [ [ 390624.163055872661062, 585575.95708379149437 ], [ 390626.010503247845918, 585571.24336030264385 ], [ 390631.300954039266799, 585573.137450682697818 ], [ 390629.453905920614488, 585577.873399226693437 ], [ 390624.163055872661062, 585575.95708379149437 ] ] ] } },
{ "type": "Feature", "properties": { "bldg_id": "GT_RESIDENTIAL_036", "source": "OSM_VERIFIED_RESIDENTIAL", "cadastral_status": "UNREGISTERED_IN_TIER1_BUT_PHYSICALLY_REAL", "area_m2": 224.17 }, "geometry": { "type": "Polygon", "coordinates": [ [ [ 390572.399243172374554, 585511.216015719459392 ], [ 390580.747256804257631, 585497.179584681522101 ], [ 390592.312431799713522, 585503.840272062690929 ], [ 390583.186438844888471, 585518.791263536899351 ], [ 390572.399243172374554, 585511.216015719459392 ] ] ] } },
{ "type": "Feature", "properties": { "bldg_id": "GT_RESIDENTIAL_037", "source": "OSM_VERIFIED_RESIDENTIAL", "cadastral_status": "UNREGISTERED_IN_TIER1_BUT_PHYSICALLY_REAL", "area_m2": 1263.27 }, "geometry": { "type": "Polygon", "coordinates": [ [ [ 390974.907956795941573, 585797.065614257822745 ], [ 390962.921703086351044, 585791.567987080197781 ], [ 390973.620358897198457, 585768.918453640770167 ], [ 391016.152249453880358, 585788.972511255647987 ], [ 391008.341009262425359, 585805.266507475171238 ], [ 391007.067378262872808, 585807.924227025359869 ], [ 391014.957198717922438, 585812.061808851547539 ], [ 391012.762874677428044, 585816.192473829956725 ], [ 391009.127503520343453, 585823.439677767455578 ], [ 390985.407190967700444, 585811.172424779972062 ], [ 390988.669325699156616, 585804.409976497059688 ], [ 390994.140468033670913, 585793.060796633944847 ], [ 390981.283422303851694, 585787.145296189468354 ], [ 390974.907956795941573, 585797.065614257822745 ] ] ] } },
{ "type": "Feature", "properties": { "bldg_id": "GT_RESIDENTIAL_038", "source": "OSM_VERIFIED_RESIDENTIAL", "cadastral_status": "UNREGISTERED_IN_TIER1_BUT_PHYSICALLY_REAL", "area_m2": 1268.67 }, "geometry": { "type": "Polygon", "coordinates": [ [ [ 390847.927087777177803, 585672.526755441096611 ], [ 390854.187159263063222, 585654.115020326222293 ], [ 390872.050536690978333, 585660.139859656454064 ], [ 390878.825209064758383, 585640.184707498294301 ], [ 390899.917082535859663, 585647.307435714872554 ], [ 390886.882176621817052, 585685.674258672283031 ], [ 390847.927087777177803, 585672.526755441096611 ] ] ] } },
{ "type": "Feature", "properties": { "bldg_id": "GT_RESIDENTIAL_039", "source": "OSM_VERIFIED_RESIDENTIAL", "cadastral_status": "UNREGISTERED_IN_TIER1_BUT_PHYSICALLY_REAL", "area_m2": 189.54 }, "geometry": { "type": "Polygon", "coordinates": [ [ [ 390757.982339610985946, 585651.20832978701219 ], [ 390763.828398201381788, 585636.950621823547408 ], [ 390775.219036968715955, 585641.591517067630775 ], [ 390769.372956793406047, 585655.849214006797411 ], [ 390757.982339610985946, 585651.20832978701219 ] ] ] } },
{ "type": "Feature", "properties": { "bldg_id": "GT_RESIDENTIAL_040", "source": "OSM_VERIFIED_RESIDENTIAL", "cadastral_status": "UNREGISTERED_IN_TIER1_BUT_PHYSICALLY_REAL", "area_m2": 1287.73 }, "geometry": { "type": "Polygon", "coordinates": [ [ [ 390935.797010457899887, 585711.393225426552817 ], [ 390955.362469155574217, 585673.364336613100022 ], [ 390996.836635987798218, 585727.45531461876817 ], [ 390960.145252224931028, 585713.988299984484911 ], [ 390957.227163651143201, 585720.766780695179477 ], [ 390935.797010457899887, 585711.393225426552817 ] ] ] } },
{ "type": "Feature", "properties": { "bldg_id": "GT_RESIDENTIAL_041", "source": "OSM_VERIFIED_RESIDENTIAL", "cadastral_status": "UNREGISTERED_IN_TIER1_BUT_PHYSICALLY_REAL", "area_m2": 1794.73 }, "geometry": { "type": "Polygon", "coordinates": [ [ [ 391076.124265276943333, 585610.018557817093097 ], [ 391081.987021030567121, 585594.949339847429655 ], [ 391112.160185358836316, 585606.611436776351184 ], [ 391106.238876679446548, 585621.826201071031392 ], [ 391132.58814112941036, 585632.001001029158942 ], [ 391137.28277745709056, 585619.932251370628364 ], [ 391153.392411593580619, 585626.156297565205023 ], [ 391142.513672296830919, 585654.122636180953123 ], [ 391085.322103167884052, 585632.019830890581943 ], [ 391091.55690978304483, 585615.976732775103301 ], [ 391076.124265276943333, 585610.018557817093097 ] ] ] } },
{ "type": "Feature", "properties": { "bldg_id": "GT_RESIDENTIAL_042", "source": "OSM_VERIFIED_RESIDENTIAL", "cadastral_status": "UNREGISTERED_IN_TIER1_BUT_PHYSICALLY_REAL", "area_m2": 584.59 }, "geometry": { "type": "Polygon", "coordinates": [ [ [ 390676.48566587571986, 585623.523832130478695 ], [ 390684.36468125396641, 585601.725263645290397 ], [ 390705.749770723748952, 585609.408979841275141 ], [ 390697.710319459147286, 585631.63286948390305 ], [ 390694.219309424806852, 585630.384275946067646 ], [ 390693.157209397759289, 585633.327274397597648 ], [ 390690.742845630447846, 585632.470516396686435 ], [ 390689.389751118491404, 585636.219207697198726 ], [ 390683.545676024572458, 585634.123870801180601 ], [ 390686.128468880080618, 585626.984463840490207 ], [ 390676.48566587571986, 585623.523832130478695 ] ] ] } },
{ "type": "Feature", "properties": { "bldg_id": "GT_RESIDENTIAL_043", "source": "OSM_VERIFIED_RESIDENTIAL", "cadastral_status": "UNREGISTERED_IN_TIER1_BUT_PHYSICALLY_REAL", "area_m2": 479.96 }, "geometry": { "type": "Polygon", "coordinates": [ [ [ 390714.124977055820636, 585437.766814706730656 ], [ 390718.866180513636209, 585425.352259496692568 ], [ 390752.645184747816529, 585438.181309927604161 ], [ 390747.903722773771733, 585450.584725245134905 ], [ 390714.124977055820636, 585437.766814706730656 ] ] ] } },
{ "type": "Feature", "properties": { "bldg_id": "GT_RESIDENTIAL_044", "source": "OSM_VERIFIED_RESIDENTIAL", "cadastral_status": "UNREGISTERED_IN_TIER1_BUT_PHYSICALLY_REAL", "area_m2": 186.97 }, "geometry": { "type": "Polygon", "coordinates": [ [ [ 390653.606960478704423, 585324.591239335713908 ], [ 390656.276899109827355, 585317.617004382191226 ], [ 390658.584868744132109, 585318.49791221646592 ], [ 390661.116344611276872, 585311.893047730554827 ], [ 390671.94810471625533, 585316.010269472491927 ], [ 390666.754305432375986, 585329.58922022941988 ], [ 390653.606960478704423, 585324.591239335713908 ] ] ] } },
{ "type": "Feature", "properties": { "bldg_id": "GT_RESIDENTIAL_045", "source": "OSM_VERIFIED_RESIDENTIAL", "cadastral_status": "UNREGISTERED_IN_TIER1_BUT_PHYSICALLY_REAL", "area_m2": 106.37 }, "geometry": { "type": "Polygon", "coordinates": [ [ [ 390802.777318067848682, 585327.894417688366957 ], [ 390810.391339893802069, 585333.637579439207911 ], [ 390817.137483077531215, 585324.76651434681844 ], [ 390809.523256088607013, 585319.01223085692618 ], [ 390802.777318067848682, 585327.894417688366957 ] ] ] } },
{ "type": "Feature", "properties": { "bldg_id": "GT_RESIDENTIAL_046", "source": "OSM_VERIFIED_RESIDENTIAL", "cadastral_status": "UNREGISTERED_IN_TIER1_BUT_PHYSICALLY_REAL", "area_m2": 1262.67 }, "geometry": { "type": "Polygon", "coordinates": [ [ [ 390646.709007517551072, 585578.127771525178105 ], [ 390652.648721633886453, 585563.145653391606174 ], [ 390680.226049336022697, 585573.996632757014595 ], [ 390678.640620492980815, 585577.994106698432006 ], [ 390685.711947122414131, 585580.778703543823212 ], [ 390701.200807837652974, 585541.711098201805726 ], [ 390713.781484076404013, 585546.663845843635499 ], [ 390696.576290571596473, 585590.098117445362732 ], [ 390692.236511592986062, 585588.386862496496178 ], [ 390689.613887460785918, 585595.015605475986376 ], [ 390646.709007517551072, 585578.127771525178105 ] ] ] } },
{ "type": "Feature", "properties": { "bldg_id": "GT_RESIDENTIAL_047", "source": "OSM_VERIFIED_RESIDENTIAL", "cadastral_status": "UNREGISTERED_IN_TIER1_BUT_PHYSICALLY_REAL", "area_m2": 590.67 }, "geometry": { "type": "Polygon", "coordinates": [ [ [ 391163.362526726501528, 585799.478999750455841 ], [ 391179.930765625671484, 585743.873392253066413 ], [ 391189.678210376761854, 585746.810431819525547 ], [ 391173.109891815111041, 585802.416012367699295 ], [ 391163.362526726501528, 585799.478999750455841 ] ] ] } },
{ "type": "Feature", "properties": { "bldg_id": "GT_RESIDENTIAL_048", "source": "OSM_VERIFIED_RESIDENTIAL", "cadastral_status": "UNREGISTERED_IN_TIER1_BUT_PHYSICALLY_REAL", "area_m2": 1037.37 }, "geometry": { "type": "Polygon", "coordinates": [ [ [ 390793.125259764841758, 585137.679818953038193 ], [ 390809.968154358793981, 585128.592778817517683 ], [ 390800.402209844440222, 585109.566795774851926 ], [ 390796.750136212736834, 585111.678373793605715 ], [ 390793.554101229761727, 585104.788081226754002 ], [ 390779.54216489661485, 585111.989651792100631 ], [ 390777.421247010701336, 585107.936977784847841 ], [ 390773.650958384969272, 585103.513933184091002 ], [ 390758.019230495789088, 585111.556397415581159 ], [ 390770.092726950766519, 585133.193903998704627 ], [ 390777.591795736690983, 585128.767084934748709 ], [ 390780.556082981696818, 585133.827262802864425 ], [ 390789.299516237922944, 585130.189485803130083 ], [ 390793.125259764841758, 585137.679818953038193 ] ] ] } },
{ "type": "Feature", "properties": { "bldg_id": "GT_RESIDENTIAL_049", "source": "OSM_VERIFIED_RESIDENTIAL", "cadastral_status": "UNREGISTERED_IN_TIER1_BUT_PHYSICALLY_REAL", "area_m2": 260.74 }, "geometry": { "type": "Polygon", "coordinates": [ [ [ 390874.697404317033943, 585361.957049774006009 ], [ 390866.753474125056528, 585354.441058093914762 ], [ 390864.871620422520209, 585356.42054648604244 ], [ 390860.946176192781422, 585352.70062401983887 ], [ 390858.929259802971501, 585354.815959604340605 ], [ 390843.072474467218854, 585339.816815560334362 ], [ 390839.248678553733043, 585343.832479069242254 ], [ 390859.909011928248219, 585363.36942981777247 ], [ 390861.918288179207593, 585361.254232566920109 ], [ 390868.991751326830126, 585367.952180641819723 ], [ 390874.697404317033943, 585361.957049774006009 ] ] ] } },
{ "type": "Feature", "properties": { "bldg_id": "GT_RESIDENTIAL_050", "source": "OSM_VERIFIED_RESIDENTIAL", "cadastral_status": "UNREGISTERED_IN_TIER1_BUT_PHYSICALLY_REAL", "area_m2": 82.23 }, "geometry": { "type": "Polygon", "coordinates": [ [ [ 390683.07607398473192, 585460.529575974331237 ], [ 390689.98291364510078, 585462.661257203901187 ], [ 390693.353772452857811, 585451.78340134199243 ], [ 390686.454760445514694, 585449.662691276054829 ], [ 390683.07607398473192, 585460.529575974331237 ] ] ] } },
{ "type": "Feature", "properties": { "bldg_id": "GT_RESIDENTIAL_051", "source": "OSM_VERIFIED_RESIDENTIAL", "cadastral_status": "UNREGISTERED_IN_TIER1_BUT_PHYSICALLY_REAL", "area_m2": 246.97 }, "geometry": { "type": "Polygon", "coordinates": [ [ [ 390819.846393873507623, 585329.653457847540267 ], [ 390826.41025604394963, 585322.953509120852686 ], [ 390836.178032147523481, 585332.459758460987359 ], [ 390839.021010177093558, 585329.551290949108079 ], [ 390846.339134448789991, 585336.678351455251686 ], [ 390843.072474467218854, 585339.816815560334362 ], [ 390839.248678553733043, 585343.832479069242254 ], [ 390835.67755029827822, 585340.272920414688997 ], [ 390833.277153864095453, 585342.728707892703824 ], [ 390819.846393873507623, 585329.653457847540267 ] ] ] } },
{ "type": "Feature", "properties": { "bldg_id": "GT_RESIDENTIAL_052", "source": "OSM_VERIFIED_RESIDENTIAL", "cadastral_status": "UNREGISTERED_IN_TIER1_BUT_PHYSICALLY_REAL", "area_m2": 177.47 }, "geometry": { "type": "Polygon", "coordinates": [ [ [ 390661.297272708732635, 585451.385617878637277 ], [ 390666.21122093941085, 585439.657141905976459 ], [ 390674.468742030672729, 585443.387423373293132 ], [ 390672.889889004, 585446.484302152413875 ], [ 390680.742615621362347, 585450.221922631491907 ], [ 390679.23017320362851, 585456.986200549872592 ], [ 390661.297272708732635, 585451.385617878637277 ] ] ] } },
{ "type": "Feature", "properties": { "bldg_id": "GT_RESIDENTIAL_053", "source": "OSM_VERIFIED_RESIDENTIAL", "cadastral_status": "UNREGISTERED_IN_TIER1_BUT_PHYSICALLY_REAL", "area_m2": 106.76 }, "geometry": { "type": "Polygon", "coordinates": [ [ [ 390669.478194929193705, 585309.140239156666212 ], [ 390672.499275951005984, 585301.726091212593019 ], [ 390684.85978332470404, 585306.727244084700942 ], [ 390681.846327637613285, 585314.141247543971986 ], [ 390669.478194929193705, 585309.140239156666212 ] ] ] } },
{ "type": "Feature", "properties": { "bldg_id": "GT_RESIDENTIAL_054", "source": "OSM_VERIFIED_RESIDENTIAL", "cadastral_status": "UNREGISTERED_IN_TIER1_BUT_PHYSICALLY_REAL", "area_m2": 101.76 }, "geometry": { "type": "Polygon", "coordinates": [ [ [ 391125.18673543195473, 585812.518386230920441 ], [ 391116.340879663475789, 585810.43231281125918 ], [ 391119.224139051977545, 585803.40996564598754 ], [ 391123.820887643436436, 585804.98348233953584 ], [ 391126.736390314763412, 585796.359714083955623 ], [ 391130.866888297256082, 585797.919411636539735 ], [ 391125.18673543195473, 585812.518386230920441 ] ] ] } },
{ "type": "Feature", "properties": { "bldg_id": "GT_RESIDENTIAL_055", "source": "OSM_VERIFIED_RESIDENTIAL", "cadastral_status": "UNREGISTERED_IN_TIER1_BUT_PHYSICALLY_REAL", "area_m2": 62.52 }, "geometry": { "type": "Polygon", "coordinates": [ [ [ 390717.600069925189018, 585663.489789653802291 ], [ 390719.346837283985224, 585657.010316924657673 ], [ 390710.334386614907999, 585654.605452019255608 ], [ 390708.595063938642852, 585661.073675773455761 ], [ 390717.600069925189018, 585663.489789653802291 ] ] ] } },
{ "type": "Feature", "properties": { "bldg_id": "GT_RESIDENTIAL_056", "source": "OSM_VERIFIED_RESIDENTIAL", "cadastral_status": "UNREGISTERED_IN_TIER1_BUT_PHYSICALLY_REAL", "area_m2": 39.2 }, "geometry": { "type": "Polygon", "coordinates": [ [ [ 390832.812072557513602, 585663.017138461931609 ], [ 390833.547446167271119, 585659.74656510411296 ], [ 390844.976979547995143, 585662.319128190516494 ], [ 390844.233762111049145, 585665.578724881168455 ], [ 390832.812072557513602, 585663.017138461931609 ] ] ] } },
{ "type": "Feature", "properties": { "bldg_id": "GT_RESIDENTIAL_057", "source": "OSM_VERIFIED_RESIDENTIAL", "cadastral_status": "UNREGISTERED_IN_TIER1_BUT_PHYSICALLY_REAL", "area_m2": 156.33 }, "geometry": { "type": "Polygon", "coordinates": [ [ [ 391138.662623875716235, 585793.031871542334557 ], [ 391139.030018205521628, 585784.598584196064621 ], [ 391148.253005388309248, 585785.14374928525649 ], [ 391148.546763180987909, 585778.557207455858588 ], [ 391152.944448232243303, 585778.41120619373396 ], [ 391150.848373221291695, 585792.656486614490859 ], [ 391147.132846800144762, 585799.704942409647629 ], [ 391143.337714429828338, 585799.3731695440365 ], [ 391145.800757086952217, 585792.769741961266845 ], [ 391143.472292234248016, 585792.856199421570636 ], [ 391142.04458542104112, 585792.90417986898683 ], [ 391138.662623875716235, 585793.031871542334557 ] ] ] } },
{ "type": "Feature", "properties": { "bldg_id": "GT_RESIDENTIAL_058", "source": "OSM_VERIFIED_RESIDENTIAL", "cadastral_status": "UNREGISTERED_IN_TIER1_BUT_PHYSICALLY_REAL", "area_m2": 123.06 }, "geometry": { "type": "Polygon", "coordinates": [ [ [ 390703.101110510819126, 585658.482834451948293 ], [ 390708.595063938642852, 585661.073675773455761 ], [ 390710.334386614907999, 585654.605452019255608 ], [ 390712.941404676646926, 585641.629201539326459 ], [ 390706.380274847324472, 585640.436183163896203 ], [ 390703.101110510819126, 585658.482834451948293 ] ] ] } },
{ "type": "Feature", "properties": { "bldg_id": "GT_RESIDENTIAL_059", "source": "OSM_VERIFIED_RESIDENTIAL", "cadastral_status": "UNREGISTERED_IN_TIER1_BUT_PHYSICALLY_REAL", "area_m2": 66.21 }, "geometry": { "type": "Polygon", "coordinates": [ [ [ 390823.80112402420491, 585685.191720426781103 ], [ 390828.29895317950286, 585674.949456079513766 ], [ 390832.156890519778244, 585676.636169285513461 ], [ 390829.742568484682124, 585682.116034177248366 ], [ 390833.123183390882332, 585683.600157589185983 ], [ 390831.031831072992645, 585688.351577783818357 ], [ 390823.80112402420491, 585685.191720426781103 ] ] ] } },
{ "type": "Feature", "properties": { "bldg_id": "GT_RESIDENTIAL_060", "source": "OSM_VERIFIED_RESIDENTIAL", "cadastral_status": "UNREGISTERED_IN_TIER1_BUT_PHYSICALLY_REAL", "area_m2": 123.82 }, "geometry": { "type": "Polygon", "coordinates": [ [ [ 390657.120380917447619, 585607.565947912517004 ], [ 390665.173872012703214, 585610.588421093765646 ], [ 390670.518138524726965, 585612.50380404049065 ], [ 390672.949950479785912, 585603.777397290337831 ], [ 390659.458137982990593, 585599.552726062713191 ], [ 390657.120380917447619, 585607.565947912517004 ] ] ] } },
{ "type": "Feature", "properties": { "bldg_id": "GT_RESIDENTIAL_061", "source": "OSM_VERIFIED_RESIDENTIAL", "cadastral_status": "UNREGISTERED_IN_TIER1_BUT_PHYSICALLY_REAL", "area_m2": 265.18 }, "geometry": { "type": "Polygon", "coordinates": [ [ [ 390704.923916843021289, 585636.793945921468548 ], [ 390706.913878580846358, 585631.088255706126802 ], [ 390712.948876508511603, 585633.180158592178486 ], [ 390717.771075016353279, 585619.34115174296312 ], [ 390730.033217482909095, 585623.588209229055792 ], [ 390724.375775125809014, 585639.821359773399308 ], [ 390713.043992060585879, 585635.90209763625171 ], [ 390711.889240749995224, 585639.213630447513424 ], [ 390704.923916843021289, 585636.793945921468548 ] ] ] } },
{ "type": "Feature", "properties": { "bldg_id": "GT_RESIDENTIAL_062", "source": "OSM_VERIFIED_RESIDENTIAL", "cadastral_status": "UNREGISTERED_IN_TIER1_BUT_PHYSICALLY_REAL", "area_m2": 486.93 }, "geometry": { "type": "Polygon", "coordinates": [ [ [ 390901.311925961752422, 585713.072491110186093 ], [ 390904.423121643834747, 585703.878108151606284 ], [ 390916.313757056021132, 585707.876560070202686 ], [ 390920.098457441781648, 585697.90294410136994 ], [ 390916.429471995274071, 585696.524036552174948 ], [ 390921.31476566917263, 585683.617886205902323 ], [ 390928.845080359838903, 585686.45005314971786 ], [ 390927.780267893511336, 585689.248536456143484 ], [ 390933.36453938356135, 585691.3488001372898 ], [ 390922.12578204536112, 585719.62223275389988 ], [ 390901.311925961752422, 585713.072491110186093 ] ] ] } },
{ "type": "Feature", "properties": { "bldg_id": "GT_RESIDENTIAL_063", "source": "OSM_VERIFIED_RESIDENTIAL", "cadastral_status": "UNREGISTERED_IN_TIER1_BUT_PHYSICALLY_REAL", "area_m2": 170.96 }, "geometry": { "type": "Polygon", "coordinates": [ [ [ 390793.036933377152309, 585681.412570250686258 ], [ 390804.166445617098361, 585653.463255326962098 ], [ 390809.452746965107508, 585655.557679339777678 ], [ 390798.323013801360503, 585683.495871169958264 ], [ 390793.036933377152309, 585681.412570250686258 ] ] ] } },
{ "type": "Feature", "properties": { "bldg_id": "GT_RESIDENTIAL_064", "source": "OSM_VERIFIED_RESIDENTIAL", "cadastral_status": "UNREGISTERED_IN_TIER1_BUT_PHYSICALLY_REAL", "area_m2": 334.22 }, "geometry": { "type": "Polygon", "coordinates": [ [ [ 390731.401148563832976, 585664.551765124197118 ], [ 390738.657104652549606, 585645.043528138194233 ], [ 390747.278868548630271, 585648.233694779453799 ], [ 390748.823320324532688, 585644.081342622521333 ], [ 390754.130148115102202, 585646.041943664895371 ], [ 390745.337336742901243, 585669.702376458561048 ], [ 390731.401148563832976, 585664.551765124197118 ] ] ] } },
{ "type": "Feature", "properties": { "bldg_id": "GT_RESIDENTIAL_065", "source": "OSM_VERIFIED_RESIDENTIAL", "cadastral_status": "UNREGISTERED_IN_TIER1_BUT_PHYSICALLY_REAL", "area_m2": 243.41 }, "geometry": { "type": "Polygon", "coordinates": [ [ [ 390885.057220060843974, 585697.135498185758479 ], [ 390894.268275199923664, 585701.660373282851651 ], [ 390902.390068225504365, 585685.227213504374959 ], [ 390899.34550373343518, 585683.736978295259178 ], [ 390902.905068183841649, 585676.524430825375021 ], [ 390896.738554152194411, 585673.489774977671914 ], [ 390885.057220060843974, 585697.135498185758479 ] ] ] } },
{ "type": "Feature", "properties": { "bldg_id": "GT_RESIDENTIAL_066", "source": "OSM_VERIFIED_RESIDENTIAL", "cadastral_status": "UNREGISTERED_IN_TIER1_BUT_PHYSICALLY_REAL", "area_m2": 442.59 }, "geometry": { "type": "Polygon", "coordinates": [ [ [ 390954.734781912644394, 585735.886421259958297 ], [ 390960.333768613170832, 585723.578843651339412 ], [ 390990.157615360338241, 585737.069818862830289 ], [ 390984.55858241498936, 585749.37736889522057 ], [ 390954.734781912644394, 585735.886421259958297 ] ] ] } },
{ "type": "Feature", "properties": { "bldg_id": "GT_RESIDENTIAL_067", "source": "OSM_VERIFIED_RESIDENTIAL", "cadastral_status": "UNREGISTERED_IN_TIER1_BUT_PHYSICALLY_REAL", "area_m2": 73.15 }, "geometry": { "type": "Polygon", "coordinates": [ [ [ 390772.639848316670395, 585636.69112794555258 ], [ 390775.554942704970017, 585627.644745529512875 ], [ 390782.380375287903007, 585631.200973832397722 ], [ 390779.877476996625774, 585640.228778030257672 ], [ 390772.639848316670395, 585636.69112794555258 ] ] ] } },
{ "type": "Feature", "properties": { "bldg_id": "GT_RESIDENTIAL_068", "source": "OSM_VERIFIED_RESIDENTIAL", "cadastral_status": "UNREGISTERED_IN_TIER1_BUT_PHYSICALLY_REAL", "area_m2": 235.76 }, "geometry": { "type": "Polygon", "coordinates": [ [ [ 390848.902966550551355, 585696.499549956643023 ], [ 390851.13341054529883, 585689.722331037046388 ], [ 390882.549226417555474, 585699.971193779609166 ], [ 390880.326388869900256, 585706.748262982699089 ], [ 390848.902966550551355, 585696.499549956643023 ] ] ] } },
{ "type": "Feature", "properties": { "bldg_id": "GT_RESIDENTIAL_069", "source": "OSM_VERIFIED_RESIDENTIAL", "cadastral_status": "UNREGISTERED_IN_TIER1_BUT_PHYSICALLY_REAL", "area_m2": 25.11 }, "geometry": { "type": "Polygon", "coordinates": [ [ [ 390833.52855275379261, 585669.26304064434953 ], [ 390834.528209982905537, 585665.398488146136515 ], [ 390840.630253490584437, 585666.977923136088066 ], [ 390839.622754635638557, 585670.831499373307452 ], [ 390833.52855275379261, 585669.26304064434953 ] ] ] } },
{ "type": "Feature", "properties": { "bldg_id": "GT_RESIDENTIAL_070", "source": "OSM_VERIFIED_RESIDENTIAL", "cadastral_status": "UNREGISTERED_IN_TIER1_BUT_PHYSICALLY_REAL", "area_m2": 271.06 }, "geometry": { "type": "Polygon", "coordinates": [ [ [ 390810.168940430216026, 585685.860729667940177 ], [ 390815.182033391029108, 585670.317452410236001 ], [ 390818.309427362983115, 585671.317000695155002 ], [ 390820.783429650997277, 585663.646006903727539 ], [ 390829.266648092656396, 585666.360764435725287 ], [ 390821.787355434324127, 585689.585997518151999 ], [ 390810.168940430216026, 585685.860729667940177 ] ] ] } },
{ "type": "Feature", "properties": { "bldg_id": "GT_RESIDENTIAL_071", "source": "OSM_VERIFIED_RESIDENTIAL", "cadastral_status": "UNREGISTERED_IN_TIER1_BUT_PHYSICALLY_REAL", "area_m2": 93.67 }, "geometry": { "type": "Polygon", "coordinates": [ [ [ 390777.11879898206098, 585677.342706827446818 ], [ 390781.745558049529791, 585664.096488418872468 ], [ 390788.049603835155722, 585666.283649949822575 ], [ 390783.430470062652603, 585679.529725334607065 ], [ 390777.11879898206098, 585677.342706827446818 ] ] ] } },
{ "type": "Feature", "properties": { "bldg_id": "GT_RESIDENTIAL_072", "source": "OSM_VERIFIED_RESIDENTIAL", "cadastral_status": "UNREGISTERED_IN_TIER1_BUT_PHYSICALLY_REAL", "area_m2": 168.31 }, "geometry": { "type": "Polygon", "coordinates": [ [ [ 390722.151971589890309, 585662.573613347951323 ], [ 390728.494548527989537, 585636.50064398359973 ], [ 390738.001621550181881, 585638.796530938241631 ], [ 390736.337636389536783, 585645.630242388229817 ], [ 390731.718359063612297, 585644.513219230342656 ], [ 390727.039742993132677, 585663.752470641979016 ], [ 390722.151971589890309, 585662.573613347951323 ] ] ] } },
{ "type": "Feature", "properties": { "bldg_id": "GT_RESIDENTIAL_073", "source": "OSM_VERIFIED_RESIDENTIAL", "cadastral_status": "UNREGISTERED_IN_TIER1_BUT_PHYSICALLY_REAL", "area_m2": 189.3 }, "geometry": { "type": "Polygon", "coordinates": [ [ [ 390751.750712467648555, 585671.176034734817222 ], [ 390756.804073554347269, 585656.176709476509131 ], [ 390762.179023734584916, 585658.525178881362081 ], [ 390760.205888476164546, 585663.052145589026622 ], [ 390765.348888667300344, 585663.981841371278279 ], [ 390764.892242810106836, 585661.544368501752615 ], [ 390769.877102418860886, 585665.133888432872482 ], [ 390766.538568963413127, 585673.154058046173304 ], [ 390759.798242585733533, 585674.2987917275168 ], [ 390751.750712467648555, 585671.176034734817222 ] ] ] } },
{ "type": "Feature", "properties": { "bldg_id": "GT_RESIDENTIAL_074", "source": "OSM_VERIFIED_RESIDENTIAL", "cadastral_status": "UNREGISTERED_IN_TIER1_BUT_PHYSICALLY_REAL", "area_m2": 212.44 }, "geometry": { "type": "Polygon", "coordinates": [ [ [ 391013.347852336824872, 585707.691371023305692 ], [ 391016.521268645126838, 585700.241291479207575 ], [ 391040.663252721715253, 585710.455538765876554 ], [ 391037.482376497995574, 585717.9168568381574 ], [ 391013.347852336824872, 585707.691371023305692 ] ] ] } },
{ "type": "Feature", "properties": { "bldg_id": "GT_RESIDENTIAL_075", "source": "OSM_VERIFIED_RESIDENTIAL", "cadastral_status": "UNREGISTERED_IN_TIER1_BUT_PHYSICALLY_REAL", "area_m2": 1000.89 }, "geometry": { "type": "Polygon", "coordinates": [ [ [ 390953.20550586131867, 585812.776821666979231 ], [ 390962.921703086351044, 585791.567987080197781 ], [ 390974.907956795941573, 585797.065614257822745 ], [ 390988.669325699156616, 585804.409976497059688 ], [ 390985.407190967700444, 585811.172424779972062 ], [ 391009.127503520343453, 585823.439677767455578 ], [ 391003.368569760583341, 585834.927445258130319 ], [ 390979.499746330548078, 585823.741244277684018 ], [ 390966.23054810235044, 585818.266782506601885 ], [ 390953.20550586131867, 585812.776821666979231 ] ] ] } },
{ "type": "Feature", "properties": { "bldg_id": "GT_RESIDENTIAL_076", "source": "OSM_VERIFIED_RESIDENTIAL", "cadastral_status": "UNREGISTERED_IN_TIER1_BUT_PHYSICALLY_REAL", "area_m2": 107.8 }, "geometry": { "type": "Polygon", "coordinates": [ [ [ 391170.356397821800783, 585725.536251598154195 ], [ 391172.007786073372699, 585722.215858105919324 ], [ 391174.921629984746687, 585723.664117245119996 ], [ 391176.610004339599982, 585720.276356545742601 ], [ 391178.228606207063422, 585721.069832655834034 ], [ 391179.865327006089501, 585717.783056801417843 ], [ 391181.376209267007653, 585718.534007766633295 ], [ 391182.681285954604391, 585715.920229054521769 ], [ 391186.712917155993637, 585717.926426236168481 ], [ 391180.431146464950871, 585730.52401454502251 ], [ 391170.356397821800783, 585725.536251598154195 ] ] ] } },
{ "type": "Feature", "properties": { "bldg_id": "GT_RESIDENTIAL_077", "source": "OSM_VERIFIED_RESIDENTIAL", "cadastral_status": "UNREGISTERED_IN_TIER1_BUT_PHYSICALLY_REAL", "area_m2": 232.34 }, "geometry": { "type": "Polygon", "coordinates": [ [ [ 391227.116466450039297, 585688.994521399494261 ], [ 391241.823233994888142, 585697.934380080550909 ], [ 391235.233070360787679, 585709.959381529712118 ], [ 391230.521408681874163, 585707.098282512626611 ], [ 391227.949506615754217, 585710.635350938071497 ], [ 391223.477502612338867, 585706.235798254143447 ], [ 391227.135121936793439, 585701.900976897217333 ], [ 391224.235608252871316, 585699.551960652810521 ], [ 391226.385817997273989, 585696.77844271925278 ], [ 391223.16972327278927, 585695.09103219746612 ], [ 391227.116466450039297, 585688.994521399494261 ] ] ] } },
{ "type": "Feature", "properties": { "bldg_id": "GT_RESIDENTIAL_078", "source": "OSM_VERIFIED_RESIDENTIAL", "cadastral_status": "UNREGISTERED_IN_TIER1_BUT_PHYSICALLY_REAL", "area_m2": 68.84 }, "geometry": { "type": "Polygon", "coordinates": [ [ [ 391158.468184824043419, 585717.846429204568267 ], [ 391160.731825304101221, 585712.891916546039283 ], [ 391172.231498974957503, 585718.098548148525879 ], [ 391169.96805168670835, 585723.064169860444963 ], [ 391158.468184824043419, 585717.846429204568267 ] ] ] } },
{ "type": "Feature", "properties": { "bldg_id": "GT_RESIDENTIAL_079", "source": "OSM_VERIFIED_RESIDENTIAL", "cadastral_status": "UNREGISTERED_IN_TIER1_BUT_PHYSICALLY_REAL", "area_m2": 160.02 }, "geometry": { "type": "Polygon", "coordinates": [ [ [ 391276.321901118499227, 585600.717686286196113 ], [ 391290.039650252088904, 585590.365325701888651 ], [ 391295.673711966199335, 585597.778930168482475 ], [ 391281.955970902985428, 585608.131278220680542 ], [ 391276.321901118499227, 585600.717686286196113 ] ] ] } },
{ "type": "Feature", "properties": { "bldg_id": "GT_RESIDENTIAL_080", "source": "OSM_VERIFIED_RESIDENTIAL", "cadastral_status": "UNREGISTERED_IN_TIER1_BUT_PHYSICALLY_REAL", "area_m2": 211.72 }, "geometry": { "type": "Polygon", "coordinates": [ [ [ 391328.196142315398902, 585552.392057036631741 ], [ 391338.583318882680032, 585541.19929694198072 ], [ 391348.775616610131692, 585550.587538814404979 ], [ 391338.396275806706399, 585561.791257521370426 ], [ 391328.196142315398902, 585552.392057036631741 ] ] ] } },
{ "type": "Feature", "properties": { "bldg_id": "GT_RESIDENTIAL_081", "source": "OSM_VERIFIED_RESIDENTIAL", "cadastral_status": "UNREGISTERED_IN_TIER1_BUT_PHYSICALLY_REAL", "area_m2": 102.72 }, "geometry": { "type": "Polygon", "coordinates": [ [ [ 391180.754103534156457, 585706.060872158850543 ], [ 391184.075608975370415, 585699.186298474669456 ], [ 391171.67899195663631, 585693.384381217765622 ], [ 391167.989762730780058, 585699.354000492137857 ], [ 391180.754103534156457, 585706.060872158850543 ] ] ] } },
{ "type": "Feature", "properties": { "bldg_id": "GT_RESIDENTIAL_082", "source": "OSM_VERIFIED_RESIDENTIAL", "cadastral_status": "UNREGISTERED_IN_TIER1_BUT_PHYSICALLY_REAL", "area_m2": 116.25 }, "geometry": { "type": "Polygon", "coordinates": [ [ [ 391153.292549288831651, 585735.860299221938476 ], [ 391155.947180694027338, 585728.864329453092068 ], [ 391170.476696282625198, 585734.327601845492609 ], [ 391167.822251281701028, 585741.334678567829542 ], [ 391153.292549288831651, 585735.860299221938476 ] ] ] } },
{ "type": "Feature", "properties": { "bldg_id": "GT_RESIDENTIAL_083", "source": "OSM_VERIFIED_RESIDENTIAL", "cadastral_status": "UNREGISTERED_IN_TIER1_BUT_PHYSICALLY_REAL", "area_m2": 282.01 }, "geometry": { "type": "Polygon", "coordinates": [ [ [ 391340.496092341549229, 585467.503958117915317 ], [ 391345.635720506310463, 585459.329428920755163 ], [ 391370.400424247956835, 585474.836572299944237 ], [ 391365.252939959289506, 585483.000104687060229 ], [ 391340.496092341549229, 585467.503958117915317 ] ] ] } },
{ "type": "Feature", "properties": { "bldg_id": "GT_RESIDENTIAL_084", "source": "OSM_VERIFIED_RESIDENTIAL", "cadastral_status": "UNREGISTERED_IN_TIER1_BUT_PHYSICALLY_REAL", "area_m2": 307.55 }, "geometry": { "type": "Polygon", "coordinates": [ [ [ 391294.430419242300559, 585502.006531689199619 ], [ 391299.858905779139604, 585494.604945560917258 ], [ 391326.945579085848294, 585514.327894347021356 ], [ 391321.517078816425055, 585521.729456404689699 ], [ 391294.430419242300559, 585502.006531689199619 ] ] ] } },
{ "type": "Feature", "properties": { "bldg_id": "GT_RESIDENTIAL_085", "source": "OSM_VERIFIED_RESIDENTIAL", "cadastral_status": "UNREGISTERED_IN_TIER1_BUT_PHYSICALLY_REAL", "area_m2": 110.33 }, "geometry": { "type": "Polygon", "coordinates": [ [ [ 391228.120464370353147, 585650.167122622486204 ], [ 391240.595196197624318, 585636.557538329157978 ], [ 391245.014606518554501, 585640.580074790748768 ], [ 391232.539873684523627, 585654.189650092390366 ], [ 391228.120464370353147, 585650.167122622486204 ] ] ] } },
{ "type": "Feature", "properties": { "bldg_id": "GT_RESIDENTIAL_086", "source": "OSM_VERIFIED_RESIDENTIAL", "cadastral_status": "UNREGISTERED_IN_TIER1_BUT_PHYSICALLY_REAL", "area_m2": 88.28 }, "geometry": { "type": "Polygon", "coordinates": [ [ [ 391336.209852153609972, 585482.766861652606167 ], [ 391346.608674334536772, 585489.61671917384956 ], [ 391342.688822455122136, 585495.523670037859119 ], [ 391332.290005514514633, 585488.673819199786521 ], [ 391336.209852153609972, 585482.766861652606167 ] ] ] } },
{ "type": "Feature", "properties": { "bldg_id": "GT_RESIDENTIAL_087", "source": "OSM_VERIFIED_RESIDENTIAL", "cadastral_status": "UNREGISTERED_IN_TIER1_BUT_PHYSICALLY_REAL", "area_m2": 138.35 }, "geometry": { "type": "Polygon", "coordinates": [ [ [ 391331.304652851191349, 585475.951532227452844 ], [ 391336.173281615425367, 585468.42665556317661 ], [ 391349.158438601414673, 585476.775219959323294 ], [ 391344.297438466222957, 585484.299948791507632 ], [ 391331.304652851191349, 585475.951532227452844 ] ] ] } },
{ "type": "Feature", "properties": { "bldg_id": "GT_RESIDENTIAL_088", "source": "OSM_VERIFIED_RESIDENTIAL", "cadastral_status": "UNREGISTERED_IN_TIER1_BUT_PHYSICALLY_REAL", "area_m2": 586.74 }, "geometry": { "type": "Polygon", "coordinates": [ [ [ 391115.627778661786579, 585507.029845667188056 ], [ 391132.235908120812383, 585486.653083459241316 ], [ 391138.26773026783485, 585491.535823851125315 ], [ 391129.933700482419226, 585501.758081794017926 ], [ 391152.634580405778252, 585520.147506792796776 ], [ 391144.352826953982003, 585530.302101710345596 ], [ 391115.627778661786579, 585507.029845667188056 ] ] ] } },
{ "type": "Feature", "properties": { "bldg_id": "GT_RESIDENTIAL_089", "source": "OSM_VERIFIED_RESIDENTIAL", "cadastral_status": "UNREGISTERED_IN_TIER1_BUT_PHYSICALLY_REAL", "area_m2": 161.37 }, "geometry": { "type": "Polygon", "coordinates": [ [ [ 391245.538082282873802, 585682.781737420940772 ], [ 391250.915665437933058, 585687.409565095324069 ], [ 391265.801326307817362, 585670.232522396021523 ], [ 391260.423540012794547, 585665.593568297335878 ], [ 391245.538082282873802, 585682.781737420940772 ] ] ] } },
{ "type": "Feature", "properties": { "bldg_id": "GT_RESIDENTIAL_090", "source": "OSM_VERIFIED_RESIDENTIAL", "cadastral_status": "UNREGISTERED_IN_TIER1_BUT_PHYSICALLY_REAL", "area_m2": 124.5 }, "geometry": { "type": "Polygon", "coordinates": [ [ [ 391213.699047670757864, 585626.9702101649018 ], [ 391222.741586847230792, 585621.304366460535675 ], [ 391216.520756412064657, 585611.433436662890017 ], [ 391207.478207649488468, 585617.099289454054087 ], [ 391213.699047670757864, 585626.9702101649018 ] ] ] } },
{ "type": "Feature", "properties": { "bldg_id": "GT_RESIDENTIAL_091", "source": "OSM_VERIFIED_RESIDENTIAL", "cadastral_status": "UNREGISTERED_IN_TIER1_BUT_PHYSICALLY_REAL", "area_m2": 88.75 }, "geometry": { "type": "Polygon", "coordinates": [ [ [ 391222.445623122970574, 585666.778064414393157 ], [ 391226.309546927455813, 585670.499322146293707 ], [ 391237.814604974293616, 585658.619214597390965 ], [ 391233.94304406514857, 585654.898087220150046 ], [ 391222.445623122970574, 585666.778064414393157 ] ] ] } },
{ "type": "Feature", "properties": { "bldg_id": "GT_RESIDENTIAL_092", "source": "OSM_VERIFIED_RESIDENTIAL", "cadastral_status": "UNREGISTERED_IN_TIER1_BUT_PHYSICALLY_REAL", "area_m2": 308.39 }, "geometry": { "type": "Polygon", "coordinates": [ [ [ 391231.491105742228683, 585673.574290842632763 ], [ 391242.123965396429412, 585681.976124226348475 ], [ 391256.295391285093501, 585664.167142519610934 ], [ 391245.670158876571804, 585655.765146908466704 ], [ 391231.491105742228683, 585673.574290842632763 ] ] ] } },
{ "type": "Feature", "properties": { "bldg_id": "GT_RESIDENTIAL_093", "source": "OSM_VERIFIED_RESIDENTIAL", "cadastral_status": "UNREGISTERED_IN_TIER1_BUT_PHYSICALLY_REAL", "area_m2": 113.86 }, "geometry": { "type": "Polygon", "coordinates": [ [ [ 391196.708209567295853, 585637.126053250976838 ], [ 391188.939138507470489, 585628.672676237067208 ], [ 391196.251901460054796, 585621.981860644533299 ], [ 391204.02880766580347, 585630.446222604019567 ], [ 391196.708209567295853, 585637.126053250976838 ] ] ] } },
{ "type": "Feature", "properties": { "bldg_id": "GT_RESIDENTIAL_094", "source": "OSM_VERIFIED_RESIDENTIAL", "cadastral_status": "UNREGISTERED_IN_TIER1_BUT_PHYSICALLY_REAL", "area_m2": 47.35 }, "geometry": { "type": "Polygon", "coordinates": [ [ [ 391228.516346639255062, 585641.611047573736869 ], [ 391225.061207252962049, 585637.682317030383274 ], [ 391231.890799277578481, 585631.733970758272335 ], [ 391235.338300213916227, 585635.662842729827389 ], [ 391228.516346639255062, 585641.611047573736869 ] ] ] } },
{ "type": "Feature", "properties": { "bldg_id": "GT_RESIDENTIAL_095", "source": "OSM_VERIFIED_RESIDENTIAL", "cadastral_status": "UNREGISTERED_IN_TIER1_BUT_PHYSICALLY_REAL", "area_m2": 504.29 }, "geometry": { "type": "Polygon", "coordinates": [ [ [ 391184.70070839964319, 585546.961603251635097 ], [ 391192.277097150799818, 585536.241696063312702 ], [ 391223.715210831782315, 585558.320372659945861 ], [ 391216.138796796905808, 585569.040240835747682 ], [ 391184.70070839964319, 585546.961603251635097 ] ] ] } },
{ "type": "Feature", "properties": { "bldg_id": "GT_RESIDENTIAL_096", "source": "OSM_VERIFIED_RESIDENTIAL", "cadastral_status": "UNREGISTERED_IN_TIER1_BUT_PHYSICALLY_REAL", "area_m2": 134.9 }, "geometry": { "type": "Polygon", "coordinates": [ [ [ 391163.566655437578447, 585645.127380241989158 ], [ 391172.095902408647817, 585638.114443616592325 ], [ 391179.889651807548944, 585647.512296385131776 ], [ 391171.36061017983593, 585654.536335566896014 ], [ 391163.566655437578447, 585645.127380241989158 ] ] ] } },
{ "type": "Feature", "properties": { "bldg_id": "GT_RESIDENTIAL_097", "source": "OSM_VERIFIED_RESIDENTIAL", "cadastral_status": "UNREGISTERED_IN_TIER1_BUT_PHYSICALLY_REAL", "area_m2": 81.14 }, "geometry": { "type": "Polygon", "coordinates": [ [ [ 391308.98396900924854, 585569.035393457743339 ], [ 391312.75729443365708, 585564.754130712710321 ], [ 391323.453451361740008, 585574.122141904663295 ], [ 391319.680124681268353, 585578.403398058842868 ], [ 391308.98396900924854, 585569.035393457743339 ] ] ] } },
{ "type": "Feature", "properties": { "bldg_id": "GT_RESIDENTIAL_098", "source": "OSM_VERIFIED_RESIDENTIAL", "cadastral_status": "UNREGISTERED_IN_TIER1_BUT_PHYSICALLY_REAL", "area_m2": 123.09 }, "geometry": { "type": "Polygon", "coordinates": [ [ [ 391316.74677107471507, 585559.323932879720815 ], [ 391323.029462145175785, 585553.541178991436027 ], [ 391332.83055994741153, 585564.114833945524879 ], [ 391326.555508425459266, 585569.897440328262746 ], [ 391316.74677107471507, 585559.323932879720815 ] ] ] } },
{ "type": "Feature", "properties": { "bldg_id": "GT_RESIDENTIAL_099", "source": "OSM_VERIFIED_RESIDENTIAL", "cadastral_status": "UNREGISTERED_IN_TIER1_BUT_PHYSICALLY_REAL", "area_m2": 101.39 }, "geometry": { "type": "Polygon", "coordinates": [ [ [ 391273.837552956014406, 585703.28301243763417 ], [ 391270.378582423552871, 585700.410437137121335 ], [ 391283.758601622364949, 585685.317195479059592 ], [ 391288.16533940716181, 585688.63962222088594 ], [ 391273.837552956014406, 585703.28301243763417 ] ] ] } },
{ "type": "Feature", "properties": { "bldg_id": "GT_RESIDENTIAL_100", "source": "OSM_VERIFIED_RESIDENTIAL", "cadastral_status": "UNREGISTERED_IN_TIER1_BUT_PHYSICALLY_REAL", "area_m2": 177.13 }, "geometry": { "type": "Polygon", "coordinates": [ [ [ 391199.734274606336839, 585704.140141318668611 ], [ 391213.701631755975541, 585684.767240656539798 ], [ 391219.730819356103893, 585689.094257506891154 ], [ 391205.763253577635624, 585708.456031026435085 ], [ 391199.734274606336839, 585704.140141318668611 ] ] ] } },
{ "type": "Feature", "properties": { "bldg_id": "GT_RESIDENTIAL_101", "source": "OSM_VERIFIED_RESIDENTIAL", "cadastral_status": "UNREGISTERED_IN_TIER1_BUT_PHYSICALLY_REAL", "area_m2": 216.05 }, "geometry": { "type": "Polygon", "coordinates": [ [ [ 391301.147169263742398, 585595.001184279331937 ], [ 391294.403149275458418, 585587.04059766093269 ], [ 391310.244540526880883, 585573.704051258973777 ], [ 391316.988553291768767, 585581.664655226515606 ], [ 391301.147169263742398, 585595.001184279331937 ] ] ] } },
{ "type": "Feature", "properties": { "bldg_id": "GT_RESIDENTIAL_102", "source": "OSM_VERIFIED_RESIDENTIAL", "cadastral_status": "UNREGISTERED_IN_TIER1_BUT_PHYSICALLY_REAL", "area_m2": 140.02 }, "geometry": { "type": "Polygon", "coordinates": [ [ [ 391286.256989893561695, 585614.912981526576914 ], [ 391299.258494159032125, 585603.817586975637823 ], [ 391304.595782984804828, 585610.02479528170079 ], [ 391291.594483209424652, 585621.131291911005974 ], [ 391286.256989893561695, 585614.912981526576914 ] ] ] } },
{ "type": "Feature", "properties": { "bldg_id": "GT_RESIDENTIAL_103", "source": "OSM_VERIFIED_RESIDENTIAL", "cadastral_status": "UNREGISTERED_IN_TIER1_BUT_PHYSICALLY_REAL", "area_m2": 133.29 }, "geometry": { "type": "Polygon", "coordinates": [ [ [ 391241.823233994888142, 585697.934380080550909 ], [ 391248.751386861607898, 585701.700497799087316 ], [ 391240.637841164541896, 585716.521061322069727 ], [ 391233.709699567058124, 585712.75495285121724 ], [ 391235.233070360787679, 585709.959381529712118 ], [ 391241.823233994888142, 585697.934380080550909 ] ] ] } },
{ "type": "Feature", "properties": { "bldg_id": "GT_RESIDENTIAL_104", "source": "OSM_VERIFIED_RESIDENTIAL", "cadastral_status": "UNREGISTERED_IN_TIER1_BUT_PHYSICALLY_REAL", "area_m2": 156.29 }, "geometry": { "type": "Polygon", "coordinates": [ [ [ 391164.908900187117979, 585705.168133235536516 ], [ 391167.989762730780058, 585699.354000492137857 ], [ 391180.754103534156457, 585706.060872158850543 ], [ 391189.0143132036319, 585710.403225671732798 ], [ 391185.933436832332518, 585716.217347747529857 ], [ 391164.908900187117979, 585705.168133235536516 ] ] ] } },
{ "type": "Feature", "properties": { "bldg_id": "GT_RESIDENTIAL_105", "source": "OSM_VERIFIED_RESIDENTIAL", "cadastral_status": "UNREGISTERED_IN_TIER1_BUT_PHYSICALLY_REAL", "area_m2": 102.1 }, "geometry": { "type": "Polygon", "coordinates": [ [ [ 391315.147660180809908, 585628.355654472485185 ], [ 391322.790522955940105, 585622.170432243263349 ], [ 391326.095063589746132, 585626.224214671645314 ], [ 391322.375332189258188, 585629.23717289546039 ], [ 391328.726575127860997, 585637.026988939382136 ], [ 391324.811084933229722, 585640.199107313877903 ], [ 391315.147660180809908, 585628.355654472485185 ] ] ] } },
{ "type": "Feature", "properties": { "bldg_id": "GT_RESIDENTIAL_106", "source": "OSM_VERIFIED_RESIDENTIAL", "cadastral_status": "UNREGISTERED_IN_TIER1_BUT_PHYSICALLY_REAL", "area_m2": 129.0 }, "geometry": { "type": "Polygon", "coordinates": [ [ [ 391251.190351559431292, 585702.657085412647575 ], [ 391259.882302192680072, 585708.492546190856956 ], [ 391257.353285297285765, 585713.562969654565677 ], [ 391253.144651772861835, 585711.059651400893927 ], [ 391247.498442059499212, 585720.355096102459356 ], [ 391242.323766889108811, 585717.235522695700638 ], [ 391251.190351559431292, 585702.657085412647575 ] ] ] } },
{ "type": "Feature", "properties": { "bldg_id": "GT_RESIDENTIAL_107", "source": "OSM_VERIFIED_RESIDENTIAL", "cadastral_status": "UNREGISTERED_IN_TIER1_BUT_PHYSICALLY_REAL", "area_m2": 87.71 }, "geometry": { "type": "Polygon", "coordinates": [ [ [ 391154.344322308083065, 585761.143548929365352 ], [ 391166.062624918762594, 585765.34569811145775 ], [ 391169.050934433354996, 585753.552305408054963 ], [ 391164.804837548581418, 585752.36152550461702 ], [ 391162.62931084993761, 585759.660128583782353 ], [ 391155.234041328541934, 585757.103164300555363 ], [ 391154.344322308083065, 585761.143548929365352 ] ] ] } },
{ "type": "Feature", "properties": { "bldg_id": "GT_RESIDENTIAL_108", "source": "OSM_VERIFIED_RESIDENTIAL", "cadastral_status": "UNREGISTERED_IN_TIER1_BUT_PHYSICALLY_REAL", "area_m2": 149.48 }, "geometry": { "type": "Polygon", "coordinates": [ [ [ 391284.302659218665212, 585545.84518660325557 ], [ 391290.344073895248584, 585538.543721077730879 ], [ 391300.46358146663988, 585546.854849886964075 ], [ 391298.773783887736499, 585548.897445659851655 ], [ 391301.642988436971791, 585551.258160507539287 ], [ 391297.291367486352101, 585556.517018225160427 ], [ 391284.302659218665212, 585545.84518660325557 ] ] ] } },
{ "type": "Feature", "properties": { "bldg_id": "GT_RESIDENTIAL_109", "source": "OSM_VERIFIED_RESIDENTIAL", "cadastral_status": "UNREGISTERED_IN_TIER1_BUT_PHYSICALLY_REAL", "area_m2": 154.47 }, "geometry": { "type": "Polygon", "coordinates": [ [ [ 391262.371491386555135, 585571.431204857071862 ], [ 391266.893200243124738, 585567.558876510243863 ], [ 391269.538466078171041, 585570.635095051373355 ], [ 391273.977571662457194, 585566.842078640707768 ], [ 391281.187478867010213, 585575.21669712732546 ], [ 391272.226669193361886, 585582.882029452361166 ], [ 391262.371491386555135, 585571.431204857071862 ] ] ] } },
{ "type": "Feature", "properties": { "bldg_id": "GT_RESIDENTIAL_110", "source": "OSM_VERIFIED_RESIDENTIAL", "cadastral_status": "UNREGISTERED_IN_TIER1_BUT_PHYSICALLY_REAL", "area_m2": 149.92 }, "geometry": { "type": "Polygon", "coordinates": [ [ [ 391256.634543861960992, 585728.795035891816951 ], [ 391247.900914165191352, 585724.461120729101822 ], [ 391251.159756903827656, 585717.92122298956383 ], [ 391254.389504005259369, 585719.519466354744509 ], [ 391257.353285297285765, 585713.562969654565677 ], [ 391259.882302192680072, 585708.492546190856956 ], [ 391265.655697208072525, 585711.345659797312692 ], [ 391256.634543861960992, 585728.795035891816951 ] ] ] } },
{ "type": "Feature", "properties": { "bldg_id": "GT_RESIDENTIAL_111", "source": "OSM_VERIFIED_RESIDENTIAL", "cadastral_status": "UNREGISTERED_IN_TIER1_BUT_PHYSICALLY_REAL", "area_m2": 185.83 }, "geometry": { "type": "Polygon", "coordinates": [ [ [ 391202.912105867057107, 585654.534568100119941 ], [ 391216.076505682547577, 585638.077676868648268 ], [ 391224.842667621152941, 585645.056799037731253 ], [ 391219.045029057073407, 585652.309476163587533 ], [ 391216.30887276888825, 585650.124274001223966 ], [ 391211.67660220246762, 585655.910753162112087 ], [ 391210.056812609371264, 585654.628143037785776 ], [ 391207.329953269101679, 585658.045725499629043 ], [ 391202.912105867057107, 585654.534568100119941 ] ] ] } },
{ "type": "Feature", "properties": { "bldg_id": "GT_RESIDENTIAL_112", "source": "OSM_VERIFIED_RESIDENTIAL", "cadastral_status": "UNREGISTERED_IN_TIER1_BUT_PHYSICALLY_REAL", "area_m2": 102.18 }, "geometry": { "type": "Polygon", "coordinates": [ [ [ 391347.869204398768488, 585524.845878647407517 ], [ 391355.110133046458941, 585517.967569599044509 ], [ 391360.949695363058709, 585524.065734647563659 ], [ 391358.974291922233533, 585525.946698373416439 ], [ 391361.987516081077047, 585529.094152932637371 ], [ 391359.441081738565117, 585531.507889537955634 ], [ 391356.895093909231946, 585528.852290133130737 ], [ 391354.17600444535492, 585531.435890516033396 ], [ 391347.869204398768488, 585524.845878647407517 ] ] ] } },
{ "type": "Feature", "properties": { "bldg_id": "GT_RESIDENTIAL_113", "source": "OSM_VERIFIED_RESIDENTIAL", "cadastral_status": "UNREGISTERED_IN_TIER1_BUT_PHYSICALLY_REAL", "area_m2": 106.39 }, "geometry": { "type": "Polygon", "coordinates": [ [ [ 391301.623966640327126, 585524.744570962153375 ], [ 391304.264930481731426, 585521.217412268626504 ], [ 391316.887167263892479, 585530.628551793168299 ], [ 391313.261291684349999, 585535.463003820972517 ], [ 391308.591991906636395, 585531.989647703245282 ], [ 391307.144578757986892, 585533.91670724877622 ], [ 391301.708378740004264, 585529.856849101837724 ], [ 391304.140699254465289, 585526.62248784408439 ], [ 391301.623966640327126, 585524.744570962153375 ] ] ] } },
{ "type": "Feature", "properties": { "bldg_id": "GT_RESIDENTIAL_114", "source": "OSM_VERIFIED_RESIDENTIAL", "cadastral_status": "UNREGISTERED_IN_TIER1_BUT_PHYSICALLY_REAL", "area_m2": 280.13 }, "geometry": { "type": "Polygon", "coordinates": [ [ [ 391306.092532810638659, 585601.50449190963991 ], [ 391309.133131531358231, 585598.959547070786357 ], [ 391306.884598183445632, 585596.276378799462691 ], [ 391320.929110176977701, 585584.550821291515604 ], [ 391323.154129481350537, 585587.201067107263952 ], [ 391328.821714036166668, 585582.474385379697196 ], [ 391333.529173983202782, 585588.070407307008281 ], [ 391310.769051345181651, 585607.078819782473147 ], [ 391306.092532810638659, 585601.50449190963991 ] ] ] } },
{ "type": "Feature", "properties": { "bldg_id": "GT_RESIDENTIAL_115", "source": "OSM_VERIFIED_RESIDENTIAL", "cadastral_status": "UNREGISTERED_IN_TIER1_BUT_PHYSICALLY_REAL", "area_m2": 151.38 }, "geometry": { "type": "Polygon", "coordinates": [ [ [ 391339.345858858432621, 585538.573087819153443 ], [ 391347.896679716417566, 585530.192637145286426 ], [ 391355.71754130080808, 585538.133901838911697 ], [ 391353.743144292500801, 585540.070434142253362 ], [ 391355.633999172830954, 585541.981870105722919 ], [ 391350.821726770431269, 585546.693130708183162 ], [ 391348.891885398188606, 585544.737930112401955 ], [ 391347.127735271584243, 585546.470575521234423 ], [ 391339.345858858432621, 585538.573087819153443 ] ] ] } },
{ "type": "Feature", "properties": { "bldg_id": "GT_RESIDENTIAL_116", "source": "OSM_VERIFIED_RESIDENTIAL", "cadastral_status": "UNREGISTERED_IN_TIER1_BUT_PHYSICALLY_REAL", "area_m2": 247.52 }, "geometry": { "type": "Polygon", "coordinates": [ [ [ 391253.413871515775099, 585689.109922754461877 ], [ 391259.966923767002299, 585682.65520824957639 ], [ 391264.384887232095934, 585686.599965509492904 ], [ 391274.742328855325468, 585675.896764418226667 ], [ 391279.482383280643262, 585680.75843880395405 ], [ 391269.585198342858348, 585691.14206688827835 ], [ 391272.746328917623032, 585694.020006358274259 ], [ 391268.193614373973105, 585699.982880804454908 ], [ 391253.413871515775099, 585689.109922754461877 ] ] ] } },
{ "type": "Feature", "properties": { "bldg_id": "GT_RESIDENTIAL_117", "source": "OSM_VERIFIED_RESIDENTIAL", "cadastral_status": "UNREGISTERED_IN_TIER1_BUT_PHYSICALLY_REAL", "area_m2": 269.95 }, "geometry": { "type": "Polygon", "coordinates": [ [ [ 391334.342564783524722, 585578.083859152975492 ], [ 391337.611538966943044, 585575.067906473530456 ], [ 391334.822603600798175, 585572.072063887957484 ], [ 391347.229622245125938, 585560.620620246510953 ], [ 391350.719908084138297, 585564.382032015360892 ], [ 391354.627461810247041, 585560.76539749559015 ], [ 391359.192880351911299, 585565.685861274949275 ], [ 391339.616775984293781, 585583.758619332802482 ], [ 391334.342564783524722, 585578.083859152975492 ] ] ] } },
{ "type": "Feature", "properties": { "bldg_id": "GT_RESIDENTIAL_118", "source": "OSM_VERIFIED_RESIDENTIAL", "cadastral_status": "UNREGISTERED_IN_TIER1_BUT_PHYSICALLY_REAL", "area_m2": 129.23 }, "geometry": { "type": "Polygon", "coordinates": [ [ [ 391197.973004425992258, 585669.575900145689957 ], [ 391209.623105689592194, 585677.192272844375111 ], [ 391206.247001292416826, 585682.311335105681792 ], [ 391202.466601970838383, 585679.833684276905842 ], [ 391199.930860455788206, 585683.681387692107819 ], [ 391191.999268354615197, 585678.499323399038985 ], [ 391194.63148501777323, 585674.494240265339613 ], [ 391197.973004425992258, 585669.575900145689957 ] ] ] } },
{ "type": "Feature", "properties": { "bldg_id": "GT_RESIDENTIAL_119", "source": "OSM_VERIFIED_RESIDENTIAL", "cadastral_status": "UNREGISTERED_IN_TIER1_BUT_PHYSICALLY_REAL", "area_m2": 395.99 }, "geometry": { "type": "Polygon", "coordinates": [ [ [ 390886.339681640267372, 585764.28109975613188 ], [ 390897.37881965219276, 585735.54428550391458 ], [ 390907.680494185711723, 585739.971649314742535 ], [ 390903.406660000793636, 585751.199216993991286 ], [ 390907.060342030541506, 585752.578392629744485 ], [ 390902.981871366326232, 585763.202113744453527 ], [ 390900.458664257777855, 585762.236071180435829 ], [ 390897.970752519089729, 585768.717767498921603 ], [ 390886.339681640267372, 585764.28109975613188 ] ] ] } },
{ "type": "Feature", "properties": { "bldg_id": "GT_RESIDENTIAL_120", "source": "OSM_VERIFIED_RESIDENTIAL", "cadastral_status": "UNREGISTERED_IN_TIER1_BUT_PHYSICALLY_REAL", "area_m2": 682.89 }, "geometry": { "type": "Polygon", "coordinates": [ [ [ 390686.591179888928309, 585704.42812571732793 ], [ 390691.2806790554896, 585684.955182928824797 ], [ 390695.0853730016388, 585685.808999723638408 ], [ 390710.557166946353391, 585689.27529473695904 ], [ 390717.315205796912778, 585690.79826122475788 ], [ 390714.219802880077623, 585722.37095414462965 ], [ 390711.076162209094036, 585722.583505451213568 ], [ 390706.429233615694102, 585722.889977691113017 ], [ 390705.512903194583487, 585709.410546623403206 ], [ 390690.114297629450448, 585705.342623006785288 ], [ 390686.591179888928309, 585704.42812571732793 ] ] ] } },
{ "type": "Feature", "properties": { "bldg_id": "GT_RESIDENTIAL_121", "source": "OSM_VERIFIED_RESIDENTIAL", "cadastral_status": "UNREGISTERED_IN_TIER1_BUT_PHYSICALLY_REAL", "area_m2": 492.14 }, "geometry": { "type": "Polygon", "coordinates": [ [ [ 390850.357479117577896, 585755.393243414117023 ], [ 390858.049240031745285, 585726.172148760291748 ], [ 390877.200253134127706, 585731.173190030618571 ], [ 390875.055604567751288, 585739.316237194114365 ], [ 390869.12226009380538, 585737.767070401809178 ], [ 390866.713339506823104, 585746.926543822861277 ], [ 390868.885459897108376, 585747.487591466517188 ], [ 390865.747399578162003, 585759.417258579400368 ], [ 390850.357479117577896, 585755.393243414117023 ] ] ] } },
{ "type": "Feature", "properties": { "bldg_id": "GT_RESIDENTIAL_122", "source": "OSM_VERIFIED_RESIDENTIAL", "cadastral_status": "UNREGISTERED_IN_TIER1_BUT_PHYSICALLY_REAL", "area_m2": 111.54 }, "geometry": { "type": "Polygon", "coordinates": [ [ [ 390622.451656911405735, 585484.873283470282331 ], [ 390628.664146653667558, 585476.089480650844052 ], [ 390637.145406329596881, 585482.050170848844573 ], [ 390630.940548337181099, 585490.83382667414844 ], [ 390622.451656911405735, 585484.873283470282331 ] ] ] } },
{ "type": "Feature", "properties": { "bldg_id": "GT_RESIDENTIAL_123", "source": "OSM_VERIFIED_RESIDENTIAL", "cadastral_status": "UNREGISTERED_IN_TIER1_BUT_PHYSICALLY_REAL", "area_m2": 104.72 }, "geometry": { "type": "Polygon", "coordinates": [ [ [ 390611.789221892075147, 585458.88598062552046 ], [ 390616.764901132672094, 585450.991702058585361 ], [ 390626.277453234302811, 585456.944808890344575 ], [ 390621.301767030730844, 585464.839079684927128 ], [ 390611.789221892075147, 585458.88598062552046 ] ] ] } },
{ "type": "Feature", "properties": { "bldg_id": "GT_RESIDENTIAL_124", "source": "OSM_VERIFIED_RESIDENTIAL", "cadastral_status": "UNREGISTERED_IN_TIER1_BUT_PHYSICALLY_REAL", "area_m2": 156.26 }, "geometry": { "type": "Polygon", "coordinates": [ [ [ 390644.732407354633324, 585403.638066688552499 ], [ 390635.746342884202022, 585390.060260893078521 ], [ 390643.772152276884299, 585384.789946307893842 ], [ 390652.750366980966646, 585398.356788769480772 ], [ 390644.732407354633324, 585403.638066688552499 ] ] ] } },
{ "type": "Feature", "properties": { "bldg_id": "GT_RESIDENTIAL_125", "source": "OSM_VERIFIED_RESIDENTIAL", "cadastral_status": "UNREGISTERED_IN_TIER1_BUT_PHYSICALLY_REAL", "area_m2": 227.68 }, "geometry": { "type": "Polygon", "coordinates": [ [ [ 390592.649426761374343, 585481.544609306729399 ], [ 390600.752159465570003, 585468.301960421493277 ], [ 390613.282116751302965, 585475.923499343800358 ], [ 390605.179368015436921, 585489.166131552075967 ], [ 390592.649426761374343, 585481.544609306729399 ] ] ] } },
{ "type": "Feature", "properties": { "bldg_id": "GT_RESIDENTIAL_126", "source": "OSM_VERIFIED_RESIDENTIAL", "cadastral_status": "UNREGISTERED_IN_TIER1_BUT_PHYSICALLY_REAL", "area_m2": 127.24 }, "geometry": { "type": "Polygon", "coordinates": [ [ [ 390614.932756697118748, 585492.391194545314647 ], [ 390620.095705096086022, 585483.870973102282733 ], [ 390622.451656911405735, 585484.873283470282331 ], [ 390630.940548337181099, 585490.83382667414844 ], [ 390625.700197465717793, 585498.877410834887996 ], [ 390614.932756697118748, 585492.391194545314647 ] ] ] } },
{ "type": "Feature", "properties": { "bldg_id": "GT_RESIDENTIAL_127", "source": "OSM_VERIFIED_RESIDENTIAL", "cadastral_status": "UNREGISTERED_IN_TIER1_BUT_PHYSICALLY_REAL", "area_m2": 165.21 }, "geometry": { "type": "Polygon", "coordinates": [ [ [ 390930.643721781380009, 585794.874777267104946 ], [ 390936.587322233535815, 585779.236970107769594 ], [ 390945.825364215648733, 585782.727554035373032 ], [ 390939.88174395239912, 585798.365352086606435 ], [ 390930.643721781380009, 585794.874777267104946 ] ] ] } },
{ "type": "Feature", "properties": { "bldg_id": "GT_RESIDENTIAL_128", "source": "OSM_VERIFIED_RESIDENTIAL", "cadastral_status": "UNREGISTERED_IN_TIER1_BUT_PHYSICALLY_REAL", "area_m2": 301.27 }, "geometry": { "type": "Polygon", "coordinates": [ [ [ 390919.869540412793867, 585755.83764551312197 ], [ 390932.638096392329317, 585761.076481423806399 ], [ 390930.156789448170457, 585767.08001421415247 ], [ 390938.522833620198071, 585770.508524407166988 ], [ 390945.059154557005968, 585754.693264414439909 ], [ 390923.924520277418196, 585746.025900685926899 ], [ 390919.869540412793867, 585755.83764551312197 ] ] ] } },
{ "type": "Feature", "properties": { "bldg_id": "GT_RESIDENTIAL_129", "source": "OSM_VERIFIED_RESIDENTIAL", "cadastral_status": "UNREGISTERED_IN_TIER1_BUT_PHYSICALLY_REAL", "area_m2": 207.05 }, "geometry": { "type": "Polygon", "coordinates": [ [ [ 390907.060342030541506, 585752.578392629744485 ], [ 390919.475411973136943, 585757.278857595752925 ], [ 390919.869540412793867, 585755.83764551312197 ], [ 390923.924520277418196, 585746.025900685926899 ], [ 390907.680494185711723, 585739.971649314742535 ], [ 390903.406660000793636, 585751.199216993991286 ], [ 390907.060342030541506, 585752.578392629744485 ] ] ] } },
{ "type": "Feature", "properties": { "bldg_id": "GT_RESIDENTIAL_130", "source": "OSM_VERIFIED_RESIDENTIAL", "cadastral_status": "UNREGISTERED_IN_TIER1_BUT_PHYSICALLY_REAL", "area_m2": 205.33 }, "geometry": { "type": "Polygon", "coordinates": [ [ [ 390945.761533229495399, 585778.34861829073634 ], [ 390948.390570498711895, 585772.064498760271817 ], [ 390951.839034900302067, 585773.50299318949692 ], [ 390954.636704645992722, 585766.826736173825338 ], [ 390949.710494175786152, 585764.78126818628516 ], [ 390952.954949999693781, 585757.04082659247797 ], [ 390963.438628548523411, 585761.398293932201341 ], [ 390954.767442695097998, 585782.099099942948669 ], [ 390945.761533229495399, 585778.34861829073634 ] ] ] } },
{ "type": "Feature", "properties": { "bldg_id": "GT_RESIDENTIAL_131", "source": "OSM_VERIFIED_RESIDENTIAL", "cadastral_status": "UNREGISTERED_IN_TIER1_BUT_PHYSICALLY_REAL", "area_m2": 121.48 }, "geometry": { "type": "Polygon", "coordinates": [ [ [ 390905.932523499592207, 585766.261541231535375 ], [ 390907.999004823272116, 585759.709645777824335 ], [ 390910.864670864364598, 585760.602800784399733 ], [ 390911.803855572245084, 585757.617595088900998 ], [ 390922.67525532428408, 585761.023042713524774 ], [ 390920.515502682304941, 585767.910127529990859 ], [ 390916.005688542150892, 585766.501947113312781 ], [ 390915.175033033068758, 585769.151681634131819 ], [ 390905.932523499592207, 585766.261541231535375 ] ] ] } },
{ "type": "Feature", "properties": { "bldg_id": "GT_RESIDENTIAL_132", "source": "OSM_VERIFIED_RESIDENTIAL", "cadastral_status": "UNREGISTERED_IN_TIER1_BUT_PHYSICALLY_REAL", "area_m2": 188.06 }, "geometry": { "type": "Polygon", "coordinates": [ [ [ 391120.011210752883926, 585789.021527925156988 ], [ 391131.058159217413049, 585790.734400325804017 ], [ 391134.03006140794605, 585771.681903349468485 ], [ 391123.817914279410616, 585770.087371386005543 ], [ 391122.242216947721317, 585780.14329711953178 ], [ 391126.218224306881893, 585780.760835961438715 ], [ 391125.615525730536319, 585784.618177425465547 ], [ 391120.812525170040317, 585783.893268864136189 ], [ 391120.011210752883926, 585789.021527925156988 ] ] ] } },
{ "type": "Feature", "properties": { "bldg_id": "GT_RESIDENTIAL_133", "source": "OSM_VERIFIED_RESIDENTIAL", "cadastral_status": "UNREGISTERED_IN_TIER1_BUT_PHYSICALLY_REAL", "area_m2": 82.74 }, "geometry": { "type": "Polygon", "coordinates": [ [ [ 391265.655697208072525, 585711.345659797312692 ], [ 391269.301647154497914, 585713.14763635257259 ], [ 391260.54254723538179, 585730.725689855287783 ], [ 391256.634543861960992, 585728.795035891816951 ], [ 391265.655697208072525, 585711.345659797312692 ] ] ] } },
{ "type": "Feature", "properties": { "bldg_id": "GT_RESIDENTIAL_134", "source": "OSM_VERIFIED_RESIDENTIAL", "cadastral_status": "UNREGISTERED_IN_TIER1_BUT_PHYSICALLY_REAL", "area_m2": 86.66 }, "geometry": { "type": "Polygon", "coordinates": [ [ [ 391198.018827945983503, 585692.887343339505605 ], [ 391201.501750754949171, 585695.815031306818128 ], [ 391213.736678128305357, 585680.353175480500795 ], [ 391210.117460702604149, 585677.917083083419129 ], [ 391198.018827945983503, 585692.887343339505605 ] ] ] } },
{ "type": "Feature", "properties": { "bldg_id": "GT_RESIDENTIAL_135", "source": "OSM_VERIFIED_RESIDENTIAL", "cadastral_status": "UNREGISTERED_IN_TIER1_BUT_PHYSICALLY_REAL", "area_m2": 53.42 }, "geometry": { "type": "Polygon", "coordinates": [ [ [ 391194.63148501777323, 585674.494240265339613 ], [ 391188.423782205441967, 585670.437272655661218 ], [ 391187.155873866926413, 585669.604121250100434 ], [ 391190.427654684870504, 585664.631449211738072 ], [ 391197.973004425992258, 585669.575900145689957 ], [ 391194.63148501777323, 585674.494240265339613 ] ] ] } },
{ "type": "Feature", "properties": { "bldg_id": "GT_RESIDENTIAL_136", "source": "OSM_VERIFIED_RESIDENTIAL", "cadastral_status": "UNREGISTERED_IN_TIER1_BUT_PHYSICALLY_REAL", "area_m2": 373.5 }, "geometry": { "type": "Polygon", "coordinates": [ [ [ 390727.605970945907757, 585714.024342476855963 ], [ 390729.607216348405927, 585698.813432020950131 ], [ 390748.923246973427013, 585704.900549106881954 ], [ 390752.488360712188296, 585706.025545126758516 ], [ 390750.84480674326187, 585722.008162272628397 ], [ 390747.193280950828921, 585720.751327529083937 ], [ 390727.605970945907757, 585714.024342476855963 ] ] ] } },
{ "type": "Feature", "properties": { "bldg_id": "GT_RESIDENTIAL_137", "source": "OSM_VERIFIED_RESIDENTIAL", "cadastral_status": "UNREGISTERED_IN_TIER1_BUT_PHYSICALLY_REAL", "area_m2": 84.73 }, "geometry": { "type": "Polygon", "coordinates": [ [ [ 390718.303567420050967, 585699.396032163524069 ], [ 390724.789475213969126, 585701.079570964095183 ], [ 390727.798664218687918, 585688.796415413497016 ], [ 390721.312744329683483, 585687.112873342237435 ], [ 390718.303567420050967, 585699.396032163524069 ] ] ] } },
{ "type": "Feature", "properties": { "bldg_id": "GT_RESIDENTIAL_138", "source": "OSM_VERIFIED_RESIDENTIAL", "cadastral_status": "UNREGISTERED_IN_TIER1_BUT_PHYSICALLY_REAL", "area_m2": 49.39 }, "geometry": { "type": "Polygon", "coordinates": [ [ [ 390718.587645149847958, 585715.088073116960004 ], [ 390723.750285535177682, 585714.994614439550787 ], [ 390723.839949325076304, 585705.599138594698161 ], [ 390718.419854154344648, 585705.819544601836242 ], [ 390718.587645149847958, 585715.088073116960004 ] ] ] } },
{ "type": "Feature", "properties": { "bldg_id": "GT_RESIDENTIAL_139", "source": "OSM_VERIFIED_RESIDENTIAL", "cadastral_status": "UNREGISTERED_IN_TIER1_BUT_PHYSICALLY_REAL", "area_m2": 233.97 }, "geometry": { "type": "Polygon", "coordinates": [ [ [ 390657.120380917447619, 585607.565947912517004 ], [ 390647.882777515449561, 585633.224525583907962 ], [ 390653.308635578316171, 585635.427456710138358 ], [ 390656.01764387259027, 585636.523436589515768 ], [ 390660.319400818087161, 585623.4831132494146 ], [ 390665.173872012703214, 585610.588421093765646 ], [ 390657.120380917447619, 585607.565947912517004 ] ] ] } },
{ "type": "Feature", "properties": { "bldg_id": "GT_RESIDENTIAL_140", "source": "OSM_VERIFIED_RESIDENTIAL", "cadastral_status": "UNREGISTERED_IN_TIER1_BUT_PHYSICALLY_REAL", "area_m2": 403.65 }, "geometry": { "type": "Polygon", "coordinates": [ [ [ 390593.258216286369134, 585450.217031230102293 ], [ 390609.738024177029729, 585408.507632303517312 ], [ 390601.366069376526866, 585405.213073281920515 ], [ 390584.87867123511387, 585446.922633490990847 ], [ 390593.258216286369134, 585450.217031230102293 ] ] ] } },
{ "type": "Feature", "properties": { "bldg_id": "GT_RESIDENTIAL_141", "source": "OSM_VERIFIED_RESIDENTIAL", "cadastral_status": "UNREGISTERED_IN_TIER1_BUT_PHYSICALLY_REAL", "area_m2": 404.36 }, "geometry": { "type": "Polygon", "coordinates": [ [ [ 390688.878331419895403, 585499.545164353214204 ], [ 390705.519813518796582, 585508.09297136508394 ], [ 390715.44796382606728, 585488.903199722408317 ], [ 390698.806243683560751, 585480.344252155045979 ], [ 390688.878331419895403, 585499.545164353214204 ] ] ] } },
{ "type": "Feature", "properties": { "bldg_id": "GT_RESIDENTIAL_142", "source": "OSM_VERIFIED_RESIDENTIAL", "cadastral_status": "UNREGISTERED_IN_TIER1_BUT_PHYSICALLY_REAL", "area_m2": 161.6 }, "geometry": { "type": "Polygon", "coordinates": [ [ [ 391148.360698965087067, 585746.632634221576154 ], [ 391151.869015154312365, 585736.564102737000212 ], [ 391165.907521204673685, 585742.336375719169155 ], [ 391162.399185636255424, 585752.404899051529355 ], [ 391148.360698965087067, 585746.632634221576154 ] ] ] } },
{ "type": "Feature", "properties": { "bldg_id": "GT_RESIDENTIAL_143", "source": "OSM_VERIFIED_RESIDENTIAL", "cadastral_status": "UNREGISTERED_IN_TIER1_BUT_PHYSICALLY_REAL", "area_m2": 25.44 }, "geometry": { "type": "Polygon", "coordinates": [ [ [ 391078.989842913579196, 585747.661612467025407 ], [ 391079.885965153982397, 585743.131953453528695 ], [ 391085.291106264572591, 585744.201709098182619 ], [ 391084.394980192359071, 585748.731367299100384 ], [ 391078.989842913579196, 585747.661612467025407 ] ] ] } },
{ "type": "Feature", "properties": { "bldg_id": "GT_RESIDENTIAL_144", "source": "OSM_VERIFIED_RESIDENTIAL", "cadastral_status": "UNREGISTERED_IN_TIER1_BUT_PHYSICALLY_REAL", "area_m2": 183.07 }, "geometry": { "type": "Polygon", "coordinates": [ [ [ 391027.424136735731736, 585601.70375244144816 ], [ 391035.045486042858101, 585594.340150084579363 ], [ 391047.087878252670635, 585606.740548883914016 ], [ 391039.466330387862399, 585614.093022952554747 ], [ 391027.424136735731736, 585601.70375244144816 ] ] ] } },
{ "type": "Feature", "properties": { "bldg_id": "GT_RESIDENTIAL_145", "source": "OSM_VERIFIED_RESIDENTIAL", "cadastral_status": "UNREGISTERED_IN_TIER1_BUT_PHYSICALLY_REAL", "area_m2": 269.89 }, "geometry": { "type": "Polygon", "coordinates": [ [ [ 391133.262706976267509, 585826.135537440422922 ], [ 391135.24706245289417, 585822.642372110625729 ], [ 391135.772847490385175, 585821.7212982152123 ], [ 391142.932668856694363, 585809.107821115874685 ], [ 391146.271906219830271, 585803.222312543541193 ], [ 391150.102306285989471, 585805.510037582949735 ], [ 391147.725983896874823, 585810.144196476787329 ], [ 391149.802358709450345, 585811.329620619420893 ], [ 391147.731715837493539, 585815.969384487951174 ], [ 391151.047385184501763, 585818.944527086568996 ], [ 391141.622040603018831, 585835.134046613005921 ], [ 391133.262706976267509, 585826.135537440422922 ] ] ] } },
{ "type": "Feature", "properties": { "bldg_id": "GT_RESIDENTIAL_146", "source": "OSM_VERIFIED_RESIDENTIAL", "cadastral_status": "UNREGISTERED_IN_TIER1_BUT_PHYSICALLY_REAL", "area_m2": 255.63 }, "geometry": { "type": "Polygon", "coordinates": [ [ [ 390654.593923648586497, 585431.807740452815779 ], [ 390661.6582842337084, 585422.808440241613425 ], [ 390649.138835421646945, 585418.721810266841203 ], [ 390642.337411060696468, 585401.747095999540761 ], [ 390635.79903579223901, 585404.355742931598797 ], [ 390643.264175691176206, 585422.963740598526783 ], [ 390654.593923648586497, 585431.807740452815779 ] ] ] } },
{ "type": "Feature", "properties": { "bldg_id": "GT_RESIDENTIAL_147", "source": "OSM_VERIFIED_RESIDENTIAL", "cadastral_status": "UNREGISTERED_IN_TIER1_BUT_PHYSICALLY_REAL", "area_m2": 50.11 }, "geometry": { "type": "Polygon", "coordinates": [ [ [ 390993.663885756162927, 585741.708981726085767 ], [ 390996.121564033266623, 585735.238991120480932 ], [ 391002.89813374762889, 585737.795817588805221 ], [ 391000.432812453538645, 585744.265943330829032 ], [ 390993.663885756162927, 585741.708981726085767 ] ] ] } },
{ "type": "Feature", "properties": { "bldg_id": "GT_RESIDENTIAL_148", "source": "OSM_VERIFIED_RESIDENTIAL", "cadastral_status": "UNREGISTERED_IN_TIER1_BUT_PHYSICALLY_REAL", "area_m2": 325.99 }, "geometry": { "type": "Polygon", "coordinates": [ [ [ 391080.735271696001291, 585798.245684120687656 ], [ 391105.749025441531558, 585807.266052149701864 ], [ 391109.395937185618095, 585796.416803524945863 ], [ 391100.257260345621035, 585793.769069710746408 ], [ 391101.897381451330148, 585789.403863081010059 ], [ 391095.470025423564948, 585786.295896116760559 ], [ 391093.338501458754763, 585791.370339365676045 ], [ 391084.385536751884501, 585788.007792529650033 ], [ 391080.735271696001291, 585798.245684120687656 ] ] ] } },
{ "type": "Feature", "properties": { "bldg_id": "GT_RESIDENTIAL_149", "source": "OSM_VERIFIED_RESIDENTIAL", "cadastral_status": "UNREGISTERED_IN_TIER1_BUT_PHYSICALLY_REAL", "area_m2": 209.63 }, "geometry": { "type": "Polygon", "coordinates": [ [ [ 391105.749025441531558, 585807.266052149701864 ], [ 391116.340879663475789, 585810.43231281125918 ], [ 391122.888697016111109, 585793.961145748617128 ], [ 391111.998834235128015, 585789.521797264111228 ], [ 391109.395937185618095, 585796.416803524945863 ], [ 391105.749025441531558, 585807.266052149701864 ] ] ] } },
{ "type": "Feature", "properties": { "bldg_id": "GT_RESIDENTIAL_150", "source": "OSM_VERIFIED_RESIDENTIAL", "cadastral_status": "UNREGISTERED_IN_TIER1_BUT_PHYSICALLY_REAL", "area_m2": 60.48 }, "geometry": { "type": "Polygon", "coordinates": [ [ [ 390650.873427800252102, 585335.646558406297117 ], [ 390655.935214344062842, 585332.497708324925043 ], [ 390650.484238005883526, 585325.548275173758157 ], [ 390644.387758017983288, 585328.5157663236605 ], [ 390644.038529468351044, 585331.590378108317964 ], [ 390649.485317745595239, 585332.403309764922597 ], [ 390650.873427800252102, 585335.646558406297117 ] ] ] } }
]
}
