{
"type": "FeatureCollection",
"name": "tier1_teren",
"crs": { "type": "name", "properties": { "name": "urn:ogc:def:crs:EPSG::3844" } },
"features": [
{ "type": "Feature", "properties": { "id": "REF_TIER1_001", "survey_source": "ANCPI_CONSTRUCTII_STEREO70", "cadastral_type": "CORP_CLADIRE", "area_m2": 294.55, "perimeter_m": 94.72, "centroid_x": 390819.94, "centroid_y": 585397.689 }, "geometry": { "type": "Polygon", "coordinates": [ [ [ 390800.0479662741418, 585396.991373524302617 ], [ 390801.526449592784047, 585389.414146516239271 ], [ 390840.891067951568402, 585399.024288087384775 ], [ 390838.488532558782026, 585405.677463021245785 ], [ 390800.0479662741418, 585396.991373524302617 ], [ 390800.0479662741418, 585396.991373524302617 ] ] ] } },
{ "type": "Feature", "properties": { "id": "REF_TIER1_002", "survey_source": "ANCPI_CONSTRUCTII_STEREO70", "cadastral_type": "CORP_CLADIRE", "area_m2": 1257.26, "perimeter_m": 170.42, "centroid_x": 390833.603, "centroid_y": 585432.351 }, "geometry": { "type": "Polygon", "coordinates": [ [ [ 390800.972018348285928, 585431.366110682720318 ], [ 390808.857262714358512, 585412.145827540429309 ], [ 390868.85904406249756, 585435.431939808884636 ], [ 390862.329076071851887, 585451.079221597872674 ], [ 390838.426929087145254, 585441.961907799588516 ], [ 390836.08599716599565, 585446.027736925869249 ], [ 390800.972018348285928, 585431.366110682720318 ], [ 390800.972018348285928, 585431.366110682720318 ] ] ] } },
{ "type": "Feature", "properties": { "id": "REF_TIER1_003", "survey_source": "ANCPI_CONSTRUCTII_STEREO70", "cadastral_type": "CORP_CLADIRE", "area_m2": 1568.98, "perimeter_m": 252.5, "centroid_x": 390834.902, "centroid_y": 585507.682 }, "geometry": { "type": "Polygon", "coordinates": [ [ [ 390783.56903761846479, 585496.126760212820955 ], [ 390789.667781307827681, 585481.34192702639848 ], [ 390796.505766656599008, 585483.744462419184856 ], [ 390797.799439560389146, 585482.081168685806915 ], [ 390802.05007910146378, 585483.929272834095173 ], [ 390801.126027027319651, 585486.331808226881549 ], [ 390812.584272746811621, 585489.843206108664162 ], [ 390811.845031087519601, 585491.136879012454301 ], [ 390888.171732412418351, 585520.891355800093152 ], [ 390884.845144945487846, 585526.805289074662142 ], [ 390885.769197019631974, 585528.283772393362597 ], [ 390883.551472041639499, 585534.867643421632238 ], [ 390829.586830911226571, 585513.060014471644536 ], [ 390829.032399666728452, 585511.581531153060496 ], [ 390814.801997724804096, 585506.776460367487743 ], [ 390813.50832482095575, 585508.254943686071783 ], [ 390783.56903761846479, 585496.126760212820955 ], [ 390783.56903761846479, 585496.126760212820955 ] ] ] } },
{ "type": "Feature", "properties": { "id": "REF_TIER1_004", "survey_source": "ANCPI_CONSTRUCTII_STEREO70", "cadastral_type": "CORP_CLADIRE", "area_m2": 1790.82, "perimeter_m": 188.0, "centroid_x": 390844.287, "centroid_y": 585472.042 }, "geometry": { "type": "Polygon", "coordinates": [ [ [ 390818.313395606528502, 585489.589091788278893 ], [ 390817.276204762572888, 585493.254116207826883 ], [ 390835.633225091907661, 585500.410242776852101 ], [ 390841.229887045512442, 585487.925798054784536 ], [ 390846.034957831085194, 585489.034660543780774 ], [ 390845.295716171793174, 585490.697954277158715 ], [ 390857.123582720931154, 585494.394162573851645 ], [ 390871.908415907353628, 585458.171321267029271 ], [ 390856.569151476433035, 585453.366250481456518 ], [ 390857.631546297634486, 585449.287380343768746 ], [ 390838.426929087145254, 585441.961907799588516 ], [ 390818.313395606528502, 585489.589091788278893 ], [ 390818.313395606528502, 585489.589091788278893 ] ] ] } },
{ "type": "Feature", "properties": { "id": "REF_TIER1_005", "survey_source": "ANCPI_CONSTRUCTII_STEREO70", "cadastral_type": "CORP_CLADIRE", "area_m2": 1442.69, "perimeter_m": 196.96, "centroid_x": 390902.634, "centroid_y": 585570.429 }, "geometry": { "type": "Polygon", "coordinates": [ [ [ 390888.910974071768578, 585595.138939958182164 ], [ 390894.824907346337568, 585579.06043386796955 ], [ 390876.713486692926381, 585571.113586030201986 ], [ 390884.660334530635737, 585552.447734132409096 ], [ 390902.586944769194815, 585558.916098651476204 ], [ 390909.794550947553944, 585542.283161316649057 ], [ 390923.470521645038389, 585548.197094591218047 ], [ 390917.556588370469399, 585567.97180897812359 ], [ 390923.840142474684399, 585571.113586030201986 ], [ 390919.219882103905547, 585584.419935898040421 ], [ 390911.642655095900409, 585581.27815884584561 ], [ 390902.771755184046924, 585601.792114892043173 ], [ 390888.910974071768578, 585595.138939958182164 ], [ 390888.910974071768578, 585595.138939958182164 ] ] ] } },
{ "type": "Feature", "properties": { "id": "REF_TIER1_006", "survey_source": "ANCPI_CONSTRUCTII_STEREO70", "cadastral_type": "CORP_CLADIRE", "area_m2": 1126.79, "perimeter_m": 169.8, "centroid_x": 390979.423, "centroid_y": 585550.776 }, "geometry": { "type": "Polygon", "coordinates": [ [ [ 390948.134503574110568, 585548.400300683453679 ], [ 390954.787678508553654, 585531.21293210296426 ], [ 391010.508018584048841, 585552.5585350174224 ], [ 391003.300412405107636, 585570.577550464658998 ], [ 390994.271738808194641, 585566.947932938230224 ], [ 390948.358710655069444, 585548.490434183273464 ], [ 390954.312501848500688, 585550.883918080129661 ], [ 390948.134503574110568, 585548.400300683453679 ] ] ] } },
{ "type": "Feature", "properties": { "id": "REF_TIER1_007", "survey_source": "ANCPI_CONSTRUCTII_STEREO70", "cadastral_type": "CORP_CLADIRE", "area_m2": 818.34, "perimeter_m": 177.42, "centroid_x": 390766.255, "centroid_y": 585409.689 }, "geometry": { "type": "Polygon", "coordinates": [ [ [ 390735.197906149725895, 585405.334152007475495 ], [ 390736.950182675558608, 585400.515391561551951 ], [ 390738.921493767062202, 585401.172495258739218 ], [ 390742.535564101533964, 585392.192078064079396 ], [ 390752.446878200571518, 585396.244217529892921 ], [ 390752.063567710574716, 585397.503666282864287 ], [ 390777.088266844628379, 585407.853049513301812 ], [ 390778.950060653267428, 585404.184220537426881 ], [ 390782.837924194929656, 585405.717462497530505 ], [ 390782.235579139145557, 585408.181601361953653 ], [ 390798.882206134207081, 585415.00817866018042 ], [ 390794.528894140385091, 585427.147865250706673 ], [ 390780.154750764661003, 585421.89103567332495 ], [ 390781.222544272604864, 585419.591172733227722 ], [ 390766.109159237588756, 585413.020135761587881 ], [ 390764.384262032515835, 585416.962757944595069 ], [ 390744.260461306548677, 585409.200720521737821 ], [ 390741.96059836645145, 585413.882584364153445 ], [ 390738.921493767003994, 585412.814790856209584 ], [ 390740.482115047809202, 585407.804375165258534 ], [ 390735.197906149725895, 585405.334152007475495 ], [ 390735.197906149725895, 585405.334152007475495 ] ] ] } },
{ "type": "Feature", "properties": { "id": "REF_TIER1_008", "survey_source": "ANCPI_CONSTRUCTII_STEREO70", "cadastral_type": "CORP_CLADIRE", "area_m2": 448.55, "perimeter_m": 107.97, "centroid_x": 390692.409, "centroid_y": 585427.251 }, "geometry": { "type": "Polygon", "coordinates": [ [ [ 390672.872304955730215, 585424.026622689212672 ], [ 390674.432926236535423, 585420.166138468310237 ], [ 390677.143478987389244, 585421.233931976254098 ], [ 390678.704100268136244, 585416.305654247407801 ], [ 390682.56458448903868, 585417.701999603887089 ], [ 390682.810998375469353, 585417.044895906699821 ], [ 390702.11341947998153, 585424.68372638639994 ], [ 390703.181212987867184, 585424.68372638639994 ], [ 390702.934799101436511, 585425.42296804569196 ], [ 390703.427626874356065, 585425.58724397001788 ], [ 390704.906110192998312, 585422.055311597650871 ], [ 390709.998663846054114, 585423.369518992025405 ], [ 390707.94521479238756, 585428.626348569407128 ], [ 390710.902181429672055, 585430.022693925886415 ], [ 390707.534524981689174, 585437.825800329796039 ], [ 390699.567142653453629, 585435.279523503268138 ], [ 390698.663625069835689, 585436.593730897642672 ], [ 390674.679340122966096, 585428.215658758650534 ], [ 390675.418581782258116, 585425.176554159261286 ], [ 390672.872304955730215, 585424.026622689212672 ], [ 390672.872304955730215, 585424.026622689212672 ] ] ] } },
{ "type": "Feature", "properties": { "id": "REF_TIER1_009", "survey_source": "ANCPI_CONSTRUCTII_STEREO70", "cadastral_type": "CORP_CLADIRE", "area_m2": 148.54, "perimeter_m": 49.24, "centroid_x": 391229.441, "centroid_y": 585605.473 }, "geometry": { "type": "Polygon", "coordinates": [ [ [ 391221.527237676666118, 585606.151481475331821 ], [ 391224.885767684609164, 585602.09934200916905 ], [ 391224.411192792234942, 585601.113686463329941 ], [ 391229.631516608933453, 585596.769500909605995 ], [ 391234.377265533199534, 585601.296215268201195 ], [ 391233.939196401741356, 585601.734284399659373 ], [ 391237.918324345955625, 585606.260998758138157 ], [ 391228.353814975474961, 585614.132553464383818 ], [ 391221.527237676666118, 585606.151481475331821 ], [ 391221.527237676666118, 585606.151481475331821 ] ] ] } },
{ "type": "Feature", "properties": { "id": "REF_TIER1_010", "survey_source": "ANCPI_CONSTRUCTII_STEREO70", "cadastral_type": "CORP_CLADIRE", "area_m2": 114.69, "perimeter_m": 43.98, "centroid_x": 391244.506, "centroid_y": 585594.704 }, "geometry": { "type": "Polygon", "coordinates": [ [ [ 391237.188209126878064, 585594.474201189586893 ], [ 391245.80356871249387, 585586.734979866887443 ], [ 391250.330283071030863, 585592.356867054128088 ], [ 391248.870052632759325, 585593.853603253257461 ], [ 391250.914375246327836, 585596.518523803097196 ], [ 391243.941774903738406, 585602.541974360821769 ], [ 391237.188209126878064, 585594.474201189586893 ], [ 391237.188209126878064, 585594.474201189586893 ] ] ] } },
{ "type": "Feature", "properties": { "id": "REF_TIER1_011", "survey_source": "ANCPI_CONSTRUCTII_STEREO70", "cadastral_type": "CORP_CLADIRE", "area_m2": 143.12, "perimeter_m": 47.85, "centroid_x": 391258.458, "centroid_y": 585583.314 }, "geometry": { "type": "Polygon", "coordinates": [ [ [ 391249.989562635484617, 585582.591575998230837 ], [ 391257.728783958184067, 585591.718016237253323 ], [ 391266.928235719096847, 585583.978794914553873 ], [ 391259.189014396397397, 585574.939055857830681 ], [ 391249.989562635484617, 585582.591575998230837 ], [ 391249.989562635484617, 585582.591575998230837 ] ] ] } },
{ "type": "Feature", "properties": { "id": "REF_TIER1_012", "survey_source": "ANCPI_CONSTRUCTII_STEREO70", "cadastral_type": "CORP_CLADIRE", "area_m2": 192.82, "perimeter_m": 58.64, "centroid_x": 391283.687, "centroid_y": 585554.92 }, "geometry": { "type": "Polygon", "coordinates": [ [ [ 391272.98819203779567, 585553.920863987295888 ], [ 391281.311505535733886, 585545.488033206551336 ], [ 391294.179786272754427, 585556.549278776161373 ], [ 391288.211094356433023, 585564.105971294105984 ], [ 391282.242402440111618, 585559.232452206430025 ], [ 391280.654401838546619, 585560.765694166650064 ], [ 391272.98819203779567, 585553.920863987295888 ], [ 391272.98819203779567, 585553.920863987295888 ] ] ] } },
{ "type": "Feature", "properties": { "id": "REF_TIER1_013", "survey_source": "ANCPI_CONSTRUCTII_STEREO70", "cadastral_type": "CORP_CLADIRE", "area_m2": 92.18, "perimeter_m": 42.06, "centroid_x": 391299.683, "centroid_y": 585534.597 }, "geometry": { "type": "Polygon", "coordinates": [ [ [ 391292.299739583395422, 585531.278165754512884 ], [ 391295.503120107285213, 585527.417681533494033 ], [ 391307.248848694958724, 585536.370719407917932 ], [ 391302.48484689014731, 585541.791824909858406 ], [ 391296.160223804530688, 585536.124305521487258 ], [ 391296.406637690961361, 585535.467201824299991 ], [ 391292.299739583395422, 585531.278165754512884 ], [ 391292.299739583395422, 585531.278165754512884 ] ] ] } },
{ "type": "Feature", "properties": { "id": "REF_TIER1_014", "survey_source": "ANCPI_CONSTRUCTII_STEREO70", "cadastral_type": "CORP_CLADIRE", "area_m2": 443.91, "perimeter_m": 96.54, "centroid_x": 390765.564, "centroid_y": 585431.982 }, "geometry": { "type": "Polygon", "coordinates": [ [ [ 390753.382873059774283, 585446.786152423592284 ], [ 390764.225084063888062, 585451.139464417705312 ], [ 390778.084888982819393, 585418.22697478113696 ], [ 390766.109159237588756, 585413.020135761587881 ], [ 390753.382873059774283, 585446.786152423592284 ], [ 390753.382873059774283, 585446.786152423592284 ] ] ] } },
{ "type": "Feature", "properties": { "id": "REF_TIER1_015", "survey_source": "ANCPI_CONSTRUCTII_STEREO70", "cadastral_type": "CORP_CLADIRE", "area_m2": 37.15, "perimeter_m": 26.28, "centroid_x": 391150.999, "centroid_y": 585770.577 }, "geometry": { "type": "Polygon", "coordinates": [ [ [ 391147.38396004459355, 585767.405253513948992 ], [ 391155.171855721040629, 585769.092630910570733 ], [ 391154.490414849366061, 585773.651794837787747 ], [ 391147.351510479289573, 585772.597183964913711 ], [ 391147.838253959082067, 585769.465800911653787 ], [ 391146.572720911644865, 585768.897933518630452 ], [ 391146.945890912844334, 585767.45392786199227 ], [ 391147.38396004459355, 585767.405253513948992 ] ] ] } },
{ "type": "Feature", "properties": { "id": "REF_TIER1_016", "survey_source": "ANCPI_CONSTRUCTII_STEREO70", "cadastral_type": "CORP_CLADIRE", "area_m2": 30.94, "perimeter_m": 28.99, "centroid_x": 391113.438, "centroid_y": 585793.345 }, "geometry": { "type": "Polygon", "coordinates": [ [ [ 391112.838859139650594, 585797.060411898535676 ], [ 391114.035243183781859, 585797.529886348405853 ], [ 391114.872962218825705, 585796.072983678779565 ], [ 391115.604990906198509, 585796.288690474815667 ], [ 391117.279200107266661, 585792.47149349632673 ], [ 391111.567724154097959, 585789.763792722951621 ], [ 391109.362505777389742, 585793.692218224750832 ], [ 391113.414566677354742, 585795.428815753431991 ], [ 391112.838859139650594, 585797.060411898535676 ] ], [ [ 391113.547147638804745, 585795.053071870468557 ], [ 391113.414918774389662, 585795.428966652136296 ], [ 391113.414566677354742, 585795.428815753431991 ], [ 391113.547147638804745, 585795.053071870468557 ] ], [ [ 391113.451151007902808, 585795.444494752213359 ], [ 391112.869077712821309, 585796.980661189649254 ], [ 391113.414918774389662, 585795.428966652136296 ], [ 391113.451151007902808, 585795.444494752213359 ] ] ] } },
{ "type": "Feature", "properties": { "id": "REF_TIER1_017", "survey_source": "ANCPI_CONSTRUCTII_STEREO70", "cadastral_type": "CORP_CLADIRE", "area_m2": 1484.51, "perimeter_m": 211.75, "centroid_x": 390626.371, "centroid_y": 585525.11 }, "geometry": { "type": "Polygon", "coordinates": [ [ [ 390600.127593945304397, 585513.091997528565116 ], [ 390608.074441790347919, 585497.383112253504805 ], [ 390624.892189555568621, 585508.286926738568582 ], [ 390624.522568725515157, 585509.950220473576337 ], [ 390631.914985325594898, 585514.940101678599603 ], [ 390626.925104120571632, 585519.92998288362287 ], [ 390634.132710305624641, 585522.702139108674601 ], [ 390638.752970680652652, 585513.276807943591848 ], [ 390640.231454000691883, 585513.646428773645312 ], [ 390643.742851885734126, 585506.623633003560826 ], [ 390655.20109761581989, 585511.059082963620313 ], [ 390634.871951965615153, 585552.641426338930614 ], [ 390613.433943825424649, 585543.400905588874593 ], [ 390614.91242714546388, 585540.443938948912546 ], [ 390606.411148055340163, 585533.975574423791841 ], [ 390610.107356355409138, 585523.626191183691844 ], [ 390614.727616730437148, 585520.669224543729797 ], [ 390600.127593945304397, 585513.091997528565116 ], [ 390600.127593945304397, 585513.091997528565116 ] ] ] } },
{ "type": "Feature", "properties": { "id": "REF_TIER1_018", "survey_source": "ANCPI_CONSTRUCTII_STEREO70", "cadastral_type": "CORP_CLADIRE", "area_m2": 286.05, "perimeter_m": 80.21, "centroid_x": 390669.283, "centroid_y": 585480.363 }, "geometry": { "type": "Polygon", "coordinates": [ [ [ 390656.125149690895341, 585485.093219655798748 ], [ 390662.778324630926363, 585470.185179512365721 ], [ 390684.709160544502083, 585480.164941922412254 ], [ 390680.643331414437853, 585488.050186295877211 ], [ 390668.692257911025081, 585482.382666902500205 ], [ 390665.119256554287858, 585489.282255729194731 ], [ 390656.125149690895341, 585485.093219655798748 ] ] ] } },
{ "type": "Feature", "properties": { "id": "REF_TIER1_019", "survey_source": "ANCPI_CONSTRUCTII_STEREO70", "cadastral_type": "CORP_CLADIRE", "area_m2": 172.33, "perimeter_m": 69.37, "centroid_x": 390764.437, "centroid_y": 585625.481 }, "geometry": { "type": "Polygon", "coordinates": [ [ [ 390755.646532602841035, 585630.405381648568437 ], [ 390757.80037250125315, 585624.381931085255928 ], [ 390762.217569581058342, 585626.170713373692706 ], [ 390766.433984975446947, 585614.794605604954995 ], [ 390773.908539538213518, 585617.340882434044033 ], [ 390769.144537728978321, 585628.758059183834121 ], [ 390767.583916446601506, 585628.347369372611865 ], [ 390765.366191466455348, 585632.70068137079943 ], [ 390761.177155392826535, 585630.893646201700903 ], [ 390759.123706337122712, 585635.493372086551972 ], [ 390753.949014716723468, 585634.507716539781541 ], [ 390755.646532602841035, 585630.405381648568437 ], [ 390755.646532602841035, 585630.405381648568437 ] ] ] } },
{ "type": "Feature", "properties": { "id": "REF_TIER1_020", "survey_source": "ANCPI_CONSTRUCTII_STEREO70", "cadastral_type": "CORP_CLADIRE", "area_m2": 1450.3, "perimeter_m": 155.29, "centroid_x": 390733.009, "centroid_y": 585583.471 }, "geometry": { "type": "Polygon", "coordinates": [ [ [ 390708.906806477694772, 585593.922740788431838 ], [ 390722.952398005058058, 585558.623951555113308 ], [ 390757.327135164116044, 585571.375870178686455 ], [ 390743.096733221958857, 585607.229090656386688 ], [ 390736.073937458277214, 585605.565796922892332 ], [ 390735.334695798926987, 585608.153142730589025 ], [ 390727.387847961043008, 585605.011365678394213 ], [ 390728.127089620393235, 585602.608830285607837 ], [ 390708.906806477694772, 585593.922740788431838 ], [ 390708.906806477694772, 585593.922740788431838 ] ] ] } },
{ "type": "Feature", "properties": { "id": "REF_TIER1_021", "survey_source": "ANCPI_CONSTRUCTII_STEREO70", "cadastral_type": "CORP_CLADIRE", "area_m2": 307.59, "perimeter_m": 95.29, "centroid_x": 390771.881, "centroid_y": 585606.48 }, "geometry": { "type": "Polygon", "coordinates": [ [ [ 390752.106240944936872, 585602.388084512203932 ], [ 390755.186414525494911, 585595.118874862091616 ], [ 390791.902083605993539, 585610.88936359458603 ], [ 390788.945116968650836, 585617.788952415110543 ], [ 390752.106240944936872, 585602.388084512203932 ], [ 390752.106240944936872, 585602.388084512203932 ] ] ] } },
{ "type": "Feature", "properties": { "id": "REF_TIER1_022", "survey_source": "ANCPI_CONSTRUCTII_STEREO70", "cadastral_type": "CORP_CLADIRE", "area_m2": 104.57, "perimeter_m": 51.98, "centroid_x": 390830.865, "centroid_y": 585630.201 }, "geometry": { "type": "Polygon", "coordinates": [ [ [ 390819.664714812242892, 585628.733835871331394 ], [ 390822.293129600991961, 585624.462661839555949 ], [ 390841.75982663029572, 585631.444388622301631 ], [ 390839.542101652245037, 585636.044114502612501 ], [ 390819.664714812242892, 585628.733835871331394 ], [ 390819.664714812242892, 585628.733835871331394 ] ] ] } },
{ "type": "Feature", "properties": { "id": "REF_TIER1_023", "survey_source": "ANCPI_CONSTRUCTII_STEREO70", "cadastral_type": "CORP_CLADIRE", "area_m2": 819.82, "perimeter_m": 131.05, "centroid_x": 390703.199, "centroid_y": 585514.144 }, "geometry": { "type": "Polygon", "coordinates": [ [ [ 390677.593419614073355, 585510.284049621783197 ], [ 390685.601870923652314, 585495.499216434895061 ], [ 390728.72430105204694, 585517.922880101599731 ], [ 390720.839056685683317, 585532.830920231761411 ], [ 390677.593419614073355, 585510.284049621783197 ], [ 390677.593419614073355, 585510.284049621783197 ] ] ] } },
{ "type": "Feature", "properties": { "id": "REF_TIER1_024", "survey_source": "ANCPI_CONSTRUCTII_STEREO70", "cadastral_type": "CORP_CLADIRE", "area_m2": 2992.55, "perimeter_m": 310.47, "centroid_x": 390981.689, "centroid_y": 585258.79 }, "geometry": { "type": "Polygon", "coordinates": [ [ [ 390960.458213309699204, 585281.605355834588408 ], [ 390964.33923202130245, 585272.549645507475361 ], [ 390933.66070315806428, 585261.461020617047325 ], [ 390939.389826018072199, 585250.742016556439921 ], [ 390952.880986301286612, 585253.883793608751148 ], [ 390970.807596540660597, 585210.453346121590585 ], [ 390975.98228815611219, 585210.453346121590585 ], [ 390970.43797571095638, 585225.422989723505452 ], [ 390980.787358941975981, 585229.488818850019015 ], [ 390981.3417901864741, 585238.729339591925964 ], [ 391013.129181538766716, 585250.187585311941803 ], [ 391010.726646145863924, 585261.830641446751542 ], [ 391026.805152236833237, 585267.559764306759462 ], [ 391018.673493983922526, 585288.443341183592565 ], [ 390980.048117282567546, 585274.952180900378153 ], [ 390973.210131933563389, 585286.780047449981794 ], [ 390960.458213309699204, 585281.605355834588408 ], [ 390960.458213309699204, 585281.605355834588408 ] ] ] } },
{ "type": "Feature", "properties": { "id": "REF_TIER1_025", "survey_source": "ANCPI_CONSTRUCTII_STEREO70", "cadastral_type": "CORP_CLADIRE", "area_m2": 1460.09, "perimeter_m": 251.44, "centroid_x": 390596.706, "centroid_y": 585575.533 }, "geometry": { "type": "Polygon", "coordinates": [ [ [ 390567.600019965029787, 585578.084404063411057 ], [ 390576.101299047935754, 585555.907154281972907 ], [ 390580.90636983391596, 585543.34004607249517 ], [ 390588.298786427709274, 585535.578008649055846 ], [ 390601.789946711389348, 585541.861562753794715 ], [ 390595.32158219179837, 585552.765377229661681 ], [ 390591.440563480020501, 585552.395756399957463 ], [ 390587.37473435344873, 585560.527414653101005 ], [ 390582.939284397172742, 585568.843883321154863 ], [ 390587.559544768300839, 585572.170470788376406 ], [ 390597.724117584759369, 585578.454024892998859 ], [ 390603.453240444941912, 585581.965422775130719 ], [ 390623.227954833360855, 585590.466701857978478 ], [ 390626.18492147087818, 585586.031251901644282 ], [ 390635.979873457690701, 585587.509735220461152 ], [ 390632.838096405321267, 585604.697103801066987 ], [ 390587.37473435344873, 585592.499616421293467 ], [ 390588.853217672207393, 585588.618597709573805 ], [ 390567.600019965029787, 585578.084404063411057 ], [ 390567.600019965029787, 585578.084404063411057 ] ] ] } },
{ "type": "Feature", "properties": { "id": "REF_TIER1_026", "survey_source": "ANCPI_CONSTRUCTII_STEREO70", "cadastral_type": "CORP_CLADIRE", "area_m2": 2841.1, "perimeter_m": 307.25, "centroid_x": 390606.093, "centroid_y": 585608.282 }, "geometry": { "type": "Polygon", "coordinates": [ [ [ 390554.453995891206432, 585594.881846040021628 ], [ 390549.024407525488641, 585601.819547889521345 ], [ 390647.538555206672754, 585642.485969128436409 ], [ 390640.856904537242372, 585612.615060253301635 ], [ 390659.761636151408311, 585596.677377492305823 ], [ 390635.783412157092243, 585588.584494100185111 ], [ 390632.838096405321267, 585604.697103801066987 ], [ 390587.37473435344873, 585592.499616421293467 ], [ 390588.853217672207393, 585588.618597709573805 ], [ 390566.440349877695553, 585579.566182196140289 ], [ 390554.453995891206432, 585594.881846040021628 ], [ 390554.453995891206432, 585594.881846040021628 ] ] ] } },
{ "type": "Feature", "properties": { "id": "REF_TIER1_027", "survey_source": "ANCPI_CONSTRUCTII_STEREO70", "cadastral_type": "CORP_CLADIRE", "area_m2": 2669.74, "perimeter_m": 359.9, "centroid_x": 390809.611, "centroid_y": 585724.59 }, "geometry": { "type": "Polygon", "coordinates": [ [ [ 390744.062923767662141, 585718.328076136182062 ], [ 390746.750375216885004, 585723.39881189330481 ], [ 390765.354623644670937, 585726.232571587665007 ], [ 390767.202727793133818, 585727.957468792796135 ], [ 390776.689662421878893, 585725.585735135595314 ], [ 390795.170703906449489, 585732.793341314652935 ], [ 390797.942860129114706, 585729.466753847431391 ], [ 390809.21629543468589, 585735.935118366964161 ], [ 390805.704897552612238, 585740.370568323298357 ], [ 390814.575797465222422, 585746.099691183539107 ], [ 390824.185939037182834, 585738.892085004481487 ], [ 390860.778401176561601, 585770.494665943086147 ], [ 390867.431576111004688, 585774.375684654805809 ], [ 390869.649301089171786, 585769.200993039179593 ], [ 390868.265719141054433, 585763.156372192781419 ], [ 390855.902101376559585, 585761.807613891200162 ], [ 390835.318841423140839, 585723.447902159765363 ], [ 390837.070249599637464, 585711.504033788805827 ], [ 390774.903161744994577, 585693.378670132020488 ], [ 390770.259800072060898, 585723.317957337014377 ], [ 390744.062923767662141, 585718.328076136182062 ], [ 390744.062923767662141, 585718.328076136182062 ] ] ] } },
{ "type": "Feature", "properties": { "id": "REF_TIER1_028", "survey_source": "ANCPI_CONSTRUCTII_STEREO70", "cadastral_type": "CORP_CLADIRE", "area_m2": 820.85, "perimeter_m": 178.4, "centroid_x": 390929.63, "centroid_y": 585796.352 }, "geometry": { "type": "Polygon", "coordinates": [ [ [ 390900.168647191778291, 585766.636691616498865 ], [ 390902.591757535526995, 585784.135984688880853 ], [ 390943.134542292275, 585813.65944846032653 ], [ 390963.925713962409645, 585823.3619952397421 ], [ 390963.496414769499097, 585816.072571950266138 ], [ 390963.022185792098753, 585815.661573503166437 ], [ 390900.168647191778291, 585766.636691616498865 ] ] ] } },
{ "type": "Feature", "properties": { "id": "REF_TIER1_029", "survey_source": "ANCPI_CONSTRUCTII_STEREO70", "cadastral_type": "CORP_CLADIRE", "area_m2": 974.21, "perimeter_m": 217.46, "centroid_x": 391044.689, "centroid_y": 585755.823 }, "geometry": { "type": "Polygon", "coordinates": [ [ [ 391047.828171731147449, 585781.088163621956483 ], [ 391066.100846961664502, 585784.807847551186569 ], [ 391067.972052411991172, 585759.234706396935508 ], [ 391039.903970657323953, 585746.760003394796513 ], [ 391021.631295427039731, 585714.348502561450005 ], [ 391026.475525274057873, 585757.145488738897257 ], [ 391064.045285633706953, 585771.73213637038134 ], [ 391046.048597240122035, 585780.309599782107398 ], [ 391046.048597240122035, 585780.309599782107398 ], [ 391047.828171731147449, 585781.088163621956483 ] ] ] } }
]
}
