{
  "type": "FeatureCollection",
  "name": "tier2_osm_cluj_usamv",
  "crs": {
    "type": "name",
    "properties": {
      "name": "urn:ogc:def:crs:EPSG::3844"
    }
  },
  "features": [
    {
      "type": "Feature",
      "properties": {
        "id": "REF_OSM_107904350",
        "survey_source": "INDEPENDENT_OSM_VECTOR",
        "name": "Biblioteca de Fiziologie Animală",
        "building_type": "yes",
        "area_m2": 439.9
      },
      "geometry": {
        "type": "Polygon",
        "coordinates": [
          [
            [
              391640.99053195916,
              585932.9607743203
            ],
            [
              391647.7372616205,
              585917.287053124
            ],
            [
              391671.44037245715,
              585927.4227169601
            ],
            [
              391664.69359453284,
              585943.0964117082
            ],
            [
              391640.99053195916,
              585932.9607743203
            ]
          ]
        ]
      }
    },
    {
      "type": "Feature",
      "properties": {
        "id": "REF_OSM_107904351",
        "survey_source": "INDEPENDENT_OSM_VECTOR",
        "name": "UBB Facultatea de Geografie",
        "building_type": "yes",
        "area_m2": 864.69
      },
      "geometry": {
        "type": "Polygon",
        "coordinates": [
          [
            [
              391612.70948926546,
              585966.1078978819
            ],
            [
              391620.124600727,
              585949.7995907238
            ],
            [
              391664.1007665718,
              585969.6543234978
            ],
            [
              391656.6857641371,
              585985.9736901633
            ],
            [
              391612.70948926546,
              585966.1078978819
            ]
          ]
        ]
      }
    },
    {
      "type": "Feature",
      "properties": {
        "id": "REF_OSM_107904353",
        "survey_source": "INDEPENDENT_OSM_VECTOR",
        "name": "Cantina Studențească Hașdeu",
        "building_type": "yes",
        "area_m2": 2869.54
      },
      "geometry": {
        "type": "Polygon",
        "coordinates": [
          [
            [
              391544.68504030677,
              585711.9845320486
            ],
            [
              391577.2359630333,
              585717.4585242949
            ],
            [
              391613.2028575196,
              585723.84964542
            ],
            [
              391621.03208947316,
              585682.932129141
            ],
            [
              391550.9607549371,
              585672.2176375941
            ],
            [
              391544.68504030677,
              585711.9845320486
            ]
          ]
        ]
      }
    },
    {
      "type": "Feature",
      "properties": {
        "id": "REF_OSM_107904360",
        "survey_source": "INDEPENDENT_OSM_VECTOR",
        "name": "Centrul de plasament nr. 10",
        "building_type": "yes",
        "area_m2": 456.47
      },
      "geometry": {
        "type": "Polygon",
        "coordinates": [
          [
            [
              391619.89795190777,
              585810.3860179223
            ],
            [
              391625.45038338215,
              585797.968753389
            ],
            [
              391656.1304275514,
              585811.6032331036
            ],
            [
              391650.5777481058,
              585824.0093561262
            ],
            [
              391619.89795190777,
              585810.3860179223
            ]
          ]
        ]
      }
    },
    {
      "type": "Feature",
      "properties": {
        "id": "REF_OSM_108461080",
        "survey_source": "INDEPENDENT_OSM_VECTOR",
        "name": "Cladire",
        "building_type": "house",
        "area_m2": 110.01
      },
      "geometry": {
        "type": "Polygon",
        "coordinates": [
          [
            [
              391643.50093989866,
              585777.4674540072
            ],
            [
              391658.47774174646,
              585783.6242235433
            ],
            [
              391661.0769610115,
              585777.3409680902
            ],
            [
              391646.1003461896,
              585771.1953054712
            ],
            [
              391643.50093989866,
              585777.4674540072
            ]
          ]
        ]
      }
    },
    {
      "type": "Feature",
      "properties": {
        "id": "REF_OSM_108461671",
        "survey_source": "INDEPENDENT_OSM_VECTOR",
        "name": "Old Friends Pub",
        "building_type": "yes",
        "area_m2": 278.87
      },
      "geometry": {
        "type": "Polygon",
        "coordinates": [
          [
            [
              391495.64665764134,
              585754.8878538865
            ],
            [
              391514.0188068451,
              585756.547577639
            ],
            [
              391515.3907296194,
              585741.4928069405
            ],
            [
              391497.0185353559,
              585739.8330787189
            ],
            [
              391495.64665764134,
              585754.8878538865
            ]
          ]
        ]
      }
    },
    {
      "type": "Feature",
      "properties": {
        "id": "REF_OSM_108500854",
        "survey_source": "INDEPENDENT_OSM_VECTOR",
        "name": "Biblioteca Valeriu Bologa, sediu Hașdeu",
        "building_type": "yes",
        "area_m2": 297.89
      },
      "geometry": {
        "type": "Polygon",
        "coordinates": [
          [
            [
              391525.0181689285,
              585792.6022793626
            ],
            [
              391549.9011587216,
              585803.7390379888
            ],
            [
              391559.73339225515,
              585784.1966749487
            ],
            [
              391525.0181689285,
              585792.6022793626
            ]
          ]
        ]
      }
    },
    {
      "type": "Feature",
      "properties": {
        "id": "REF_OSM_111716697",
        "survey_source": "INDEPENDENT_OSM_VECTOR",
        "name": "Biserica Adormirea Maicii Domnului",
        "building_type": "yes",
        "area_m2": 382.97
      },
      "geometry": {
        "type": "Polygon",
        "coordinates": [
          [
            [
              390691.5515904033,
              585340.4350345215
            ],
            [
              390692.2668483753,
              585337.7428928331
            ],
            [
              390685.40369099495,
              585335.9216903829
            ],
            [
              390687.1635959735,
              585329.3196910581
            ],
            [
              390692.360764373,
              585330.6930298316
            ],
            [
              390692.96870486997,
              585328.4030425376
            ],
            [
              390719.54562557756,
              585335.4258605323
            ],
            [
              390721.02333558095,
              585338.5563326653
            ],
            [
              390720.53260449506,
              585343.5233861635
            ],
            [
              390718.19274452,
              585345.5223288377
            ],
            [
              390714.9351638231,
              585346.6262933187
            ],
            [
              390691.5515904033,
              585340.4350345215
            ]
          ]
        ]
      }
    },
    {
      "type": "Feature",
      "properties": {
        "id": "REF_OSM_202403505",
        "survey_source": "INDEPENDENT_OSM_VECTOR",
        "name": "Biserica Sf. Familie",
        "building_type": "yes",
        "area_m2": 472.15
      },
      "geometry": {
        "type": "Polygon",
        "coordinates": [
          [
            [
              391373.80959566607,
              585219.7525440505
            ],
            [
              391367.91894429224,
              585241.825609954
            ],
            [
              391366.01501247316,
              585241.3151391989
            ],
            [
              391365.47134792054,
              585243.3704390922
            ],
            [
              391352.22883391945,
              585239.8512165061
            ],
            [
              391353.6452869898,
              585234.5007107897
            ],
            [
              391350.8893731102,
              585233.7721214179
            ],
            [
              391355.8094840409,
              585215.0849363961
            ],
            [
              391358.4500407386,
              585215.771136302
            ],
            [
              391359.1073091036,
              585213.2357631847
            ],
            [
              391363.4671030415,
              585214.357939045
            ],
            [
              391363.71702333505,
              585213.3862680923
            ],
            [
              391368.3684473849,
              585214.5810183334
            ],
            [
              391367.4153448876,
              585216.8104392169
            ],
            [
              391370.7592084091,
              585219.2182319151
            ],
            [
              391373.80959566607,
              585219.7525440505
            ]
          ]
        ]
      }
    },
    {
      "type": "Feature",
      "properties": {
        "id": "REF_OSM_216267071",
        "survey_source": "INDEPENDENT_OSM_VECTOR",
        "name": "Betel",
        "building_type": "yes",
        "area_m2": 591.22
      },
      "geometry": {
        "type": "Polygon",
        "coordinates": [
          [
            [
              391608.97937342,
              585263.5286653473
            ],
            [
              391608.3405762024,
              585247.0981955952
            ],
            [
              391629.65664387133,
              585246.2597285793
            ],
            [
              391629.81156221544,
              585242.1214504314
            ],
            [
              391636.2611706729,
              585241.7722245924
            ],
            [
              391637.59458655014,
              585270.9413440643
            ],
            [
              391626.30895955476,
              585271.7220046076
            ],
            [
              391626.03978446533,
              585263.111216615
            ],
            [
              391608.97937342,
              585263.5286653473
            ]
          ]
        ]
      }
    },
    {
      "type": "Feature",
      "properties": {
        "id": "REF_OSM_260081500",
        "survey_source": "INDEPENDENT_OSM_VECTOR",
        "name": "Biblioteca",
        "building_type": "yes",
        "area_m2": 1287.73
      },
      "geometry": {
        "type": "Polygon",
        "coordinates": [
          [
            [
              390935.7970104579,
              585711.3932254266
            ],
            [
              390955.3624691556,
              585673.3643366131
            ],
            [
              390996.8366359878,
              585727.4553146188
            ],
            [
              390960.14525222493,
              585713.9882999845
            ],
            [
              390957.22716365114,
              585720.7667806952
            ],
            [
              390935.7970104579,
              585711.3932254266
            ]
          ]
        ]
      }
    },
    {
      "type": "Feature",
      "properties": {
        "id": "REF_OSM_275159814",
        "survey_source": "INDEPENDENT_OSM_VECTOR",
        "name": "Lukoil",
        "building_type": "retail",
        "area_m2": 123.82
      },
      "geometry": {
        "type": "Polygon",
        "coordinates": [
          [
            [
              390657.12038091745,
              585607.5659479125
            ],
            [
              390665.1738720127,
              585610.5884210938
            ],
            [
              390670.5181385247,
              585612.5038040405
            ],
            [
              390672.9499504798,
              585603.7773972903
            ],
            [
              390659.458137983,
              585599.5527260627
            ],
            [
              390657.12038091745,
              585607.5659479125
            ]
          ]
        ]
      }
    },
    {
      "type": "Feature",
      "properties": {
        "id": "REF_OSM_275159820",
        "survey_source": "INDEPENDENT_OSM_VECTOR",
        "name": "Clinica Iris",
        "building_type": "yes",
        "area_m2": 170.96
      },
      "geometry": {
        "type": "Polygon",
        "coordinates": [
          [
            [
              390793.03693337715,
              585681.4125702507
            ],
            [
              390804.1664456171,
              585653.463255327
            ],
            [
              390809.4527469651,
              585655.5576793398
            ],
            [
              390798.32301380136,
              585683.49587117
            ],
            [
              390793.03693337715,
              585681.4125702507
            ]
          ]
        ]
      }
    },
    {
      "type": "Feature",
      "properties": {
        "id": "REF_OSM_276735474",
        "survey_source": "INDEPENDENT_OSM_VECTOR",
        "name": "Centrul de cercetări pentru biodiversitate",
        "building_type": "yes",
        "area_m2": 586.74
      },
      "geometry": {
        "type": "Polygon",
        "coordinates": [
          [
            [
              391115.6277786618,
              585507.0298456672
            ],
            [
              391132.2359081208,
              585486.6530834592
            ],
            [
              391138.26773026783,
              585491.5358238511
            ],
            [
              391129.9337004824,
              585501.758081794
            ],
            [
              391152.6345804058,
              585520.1475067928
            ],
            [
              391144.352826954,
              585530.3021017103
            ],
            [
              391115.6277786618,
              585507.0298456672
            ]
          ]
        ]
      }
    },
    {
      "type": "Feature",
      "properties": {
        "id": "REF_OSM_276841293",
        "survey_source": "INDEPENDENT_OSM_VECTOR",
        "name": "Biserica Creștină Baptistă Mănăștur",
        "building_type": "yes",
        "area_m2": 553.95
      },
      "geometry": {
        "type": "Polygon",
        "coordinates": [
          [
            [
              390580.30315871426,
              585765.6073567495
            ],
            [
              390598.9442038417,
              585764.8025765892
            ],
            [
              390597.74450079177,
              585736.96513553
            ],
            [
              390595.34004938666,
              585737.0754147944
            ],
            [
              390595.2318219085,
              585734.4760000703
            ],
            [
              390581.69743104954,
              585735.0548196584
            ],
            [
              390581.82115755964,
              585738.0875160947
            ],
            [
              390579.1188631706,
              585738.203200552
            ],
            [
              390580.30315871426,
              585765.6073567495
            ]
          ]
        ]
      }
    },
    {
      "type": "Feature",
      "properties": {
        "id": "REF_OSM_282984108",
        "survey_source": "INDEPENDENT_OSM_VECTOR",
        "name": "Elim",
        "building_type": "yes",
        "area_m2": 573.71
      },
      "geometry": {
        "type": "Polygon",
        "coordinates": [
          [
            [
              390742.9152808456,
              584821.1211489408
            ],
            [
              390748.02425792115,
              584800.7069043252
            ],
            [
              390774.4807848498,
              584807.2875127112
            ],
            [
              390769.37172564096,
              584827.7017346448
            ],
            [
              390742.9152808456,
              584821.1211489408
            ]
          ]
        ]
      }
    },
    {
      "type": "Feature",
      "properties": {
        "id": "REF_OSM_282984116",
        "survey_source": "INDEPENDENT_OSM_VECTOR",
        "name": "Cladire",
        "building_type": "yes",
        "area_m2": 118.3
      },
      "geometry": {
        "type": "Polygon",
        "coordinates": [
          [
            [
              390684.6300593425,
              584911.7343694071
            ],
            [
              390687.0853339101,
              584903.0186849259
            ],
            [
              390699.6719270048,
              584906.537234329
            ],
            [
              390697.21663609357,
              584915.2529136479
            ],
            [
              390694.3597885267,
              584914.448626708
            ],
            [
              390684.6300593425,
              584911.7343694071
            ]
          ]
        ]
      }
    },
    {
      "type": "Feature",
      "properties": {
        "id": "REF_OSM_297540956",
        "survey_source": "INDEPENDENT_OSM_VECTOR",
        "name": "Biserica Catolică Sf. Maria",
        "building_type": "church",
        "area_m2": 395.99
      },
      "geometry": {
        "type": "Polygon",
        "coordinates": [
          [
            [
              390886.33968164027,
              585764.2810997561
            ],
            [
              390897.3788196522,
              585735.5442855039
            ],
            [
              390907.6804941857,
              585739.9716493147
            ],
            [
              390903.4066600008,
              585751.199216994
            ],
            [
              390907.06034203054,
              585752.5783926297
            ],
            [
              390902.9818713663,
              585763.2021137445
            ],
            [
              390900.4586642578,
              585762.2360711804
            ],
            [
              390897.9707525191,
              585768.7177674989
            ],
            [
              390886.33968164027,
              585764.2810997561
            ]
          ]
        ]
      }
    },
    {
      "type": "Feature",
      "properties": {
        "id": "REF_OSM_376498891",
        "survey_source": "INDEPENDENT_OSM_VECTOR",
        "name": "Piața Zorilor",
        "building_type": "yes",
        "area_m2": 575.39
      },
      "geometry": {
        "type": "Polygon",
        "coordinates": [
          [
            [
              391492.4913390093,
              584878.8076569955
            ],
            [
              391520.887304565,
              584885.3899976935
            ],
            [
              391525.370750775,
              584866.1661054998
            ],
            [
              391496.97470134485,
              584859.5837433935
            ],
            [
              391492.4913390093,
              584878.8076569955
            ]
          ]
        ]
      }
    },
    {
      "type": "Feature",
      "properties": {
        "id": "REF_OSM_386459158",
        "survey_source": "INDEPENDENT_OSM_VECTOR",
        "name": "Lukoil",
        "building_type": "yes",
        "area_m2": 522.16
      },
      "geometry": {
        "type": "Polygon",
        "coordinates": [
          [
            [
              390447.3645881072,
              585903.0456306478
            ],
            [
              390454.82232601475,
              585887.1463731558
            ],
            [
              390477.5539907062,
              585894.1378122957
            ],
            [
              390472.26024023554,
              585910.1534130117
            ],
            [
              390469.89930018416,
              585917.2889009432
            ],
            [
              390458.8715216989,
              585910.3185459835
            ],
            [
              390447.3645881072,
              585903.0456306478
            ]
          ]
        ]
      }
    },
    {
      "type": "Feature",
      "properties": {
        "id": "REF_OSM_409043798",
        "survey_source": "INDEPENDENT_OSM_VECTOR",
        "name": "Cladire",
        "building_type": "yes",
        "area_m2": 27.07
      },
      "geometry": {
        "type": "Polygon",
        "coordinates": [
          [
            [
              391440.03127604414,
              585902.2758534129
            ],
            [
              391445.3810109871,
              585906.6486586906
            ],
            [
              391447.8705011859,
              585903.6245440505
            ],
            [
              391442.5284023238,
              585899.2515992561
            ],
            [
              391440.03127604414,
              585902.2758534129
            ]
          ]
        ]
      }
    },
    {
      "type": "Feature",
      "properties": {
        "id": "REF_OSM_863499033",
        "survey_source": "INDEPENDENT_OSM_VECTOR",
        "name": "Parking Hașdeu",
        "building_type": "parking",
        "area_m2": 1693.08
      },
      "geometry": {
        "type": "Polygon",
        "coordinates": [
          [
            [
              391505.13478846184,
              585714.9297528269
            ],
            [
              391539.2454873946,
              585720.4755596861
            ],
            [
              391547.1778010253,
              585672.141080844
            ],
            [
              391543.0556699678,
              585671.4703053175
            ],
            [
              391513.0590031007,
              585666.5842517065
            ],
            [
              391505.8577793591,
              585710.5255638927
            ],
            [
              391505.13478846184,
              585714.9297528269
            ]
          ]
        ]
      }
    },
    {
      "type": "Feature",
      "properties": {
        "id": "REF_OSM_942818037",
        "survey_source": "INDEPENDENT_OSM_VECTOR",
        "name": "Institutul de Cercetări Horticole Avansate al Transilvaniei",
        "building_type": "yes",
        "area_m2": 3393.59
      },
      "geometry": {
        "type": "Polygon",
        "coordinates": [
          [
            [
              390946.9441974967,
              585277.1186926079
            ],
            [
              390956.3960477068,
              585254.3360667665
            ],
            [
              390959.9250335158,
              585245.8345545194
            ],
            [
              390970.50056716724,
              585213.7712334602
            ],
            [
              390975.5677218253,
              585215.136047096
            ],
            [
              390971.8512766902,
              585227.220594648
            ],
            [
              390985.0021966472,
              585231.1519721171
            ],
            [
              390981.69481176307,
              585241.3503613696
            ],
            [
              391013.34440631804,
              585252.1626892881
            ],
            [
              391008.67503055104,
              585263.9420251924
            ],
            [
              391030.1579651754,
              585270.657960097
            ],
            [
              391026.73062318645,
              585278.4461097158
            ],
            [
              391016.22051486,
              585302.2927192488
            ],
            [
              390946.9441974967,
              585277.1186926079
            ]
          ]
        ]
      }
    },
    {
      "type": "Feature",
      "properties": {
        "id": "REF_OSM_951910496",
        "survey_source": "INDEPENDENT_OSM_VECTOR",
        "name": "Urgențe medical veterinare",
        "building_type": "yes",
        "area_m2": 267.19
      },
      "geometry": {
        "type": "Polygon",
        "coordinates": [
          [
            [
              390799.92754168325,
              585400.1173424692
            ],
            [
              390801.6461454086,
              585393.3382536055
            ],
            [
              390838.69296334434,
              585402.6735316004
            ],
            [
              390836.9743214993,
              585409.4526097842
            ],
            [
              390799.92754168325,
              585400.1173424692
            ]
          ]
        ]
      }
    },
    {
      "type": "Feature",
      "properties": {
        "id": "REF_OSM_993271908",
        "survey_source": "INDEPENDENT_OSM_VECTOR",
        "name": "Stomestet",
        "building_type": "yes",
        "area_m2": 192.82
      },
      "geometry": {
        "type": "Polygon",
        "coordinates": [
          [
            [
              390510.88177726197,
              585668.6585741745
            ],
            [
              390515.5935180245,
              585658.023089615
            ],
            [
              390529.1243873043,
              585663.9809824679
            ],
            [
              390527.70087529975,
              585676.0576183395
            ],
            [
              390510.88177726197,
              585668.6585741745
            ]
          ]
        ]
      }
    },
    {
      "type": "Feature",
      "properties": {
        "id": "REF_OSM_1138270879",
        "survey_source": "INDEPENDENT_OSM_VECTOR",
        "name": "Cladire",
        "building_type": "commercial",
        "area_m2": 291.08
      },
      "geometry": {
        "type": "Polygon",
        "coordinates": [
          [
            [
              390533.97570007533,
              584975.49608231
            ],
            [
              390532.71178318234,
              584952.1400055777
            ],
            [
              390545.1384014872,
              584951.4700358543
            ],
            [
              390546.4022703605,
              584974.8261147627
            ],
            [
              390533.97570007533,
              584975.49608231
            ]
          ]
        ]
      }
    },
    {
      "type": "Feature",
      "properties": {
        "id": "REF_OSM_1138270880",
        "survey_source": "INDEPENDENT_OSM_VECTOR",
        "name": "Cladire",
        "building_type": "commercial",
        "area_m2": 240.33
      },
      "geometry": {
        "type": "Polygon",
        "coordinates": [
          [
            [
              390552.9880215361,
              584974.806780884
            ],
            [
              390551.97120296134,
              584956.2265203495
            ],
            [
              390564.86312784237,
              584955.5148052154
            ],
            [
              390565.88010821934,
              584974.1061808851
            ],
            [
              390552.9880215361,
              584974.806780884
            ]
          ]
        ]
      }
    },
    {
      "type": "Feature",
      "properties": {
        "id": "REF_OSM_1138270882",
        "survey_source": "INDEPENDENT_OSM_VECTOR",
        "name": "Focco",
        "building_type": "commercial",
        "area_m2": 24.94
      },
      "geometry": {
        "type": "Polygon",
        "coordinates": [
          [
            [
              390519.32988218684,
              584980.1861932001
            ],
            [
              390519.176040392,
              584974.2302851814
            ],
            [
              390523.3610490194,
              584974.1210486791
            ],
            [
              390523.51488668966,
              584980.0769567671
            ],
            [
              390519.32988218684,
              584980.1861932001
            ]
          ]
        ]
      }
    },
    {
      "type": "Feature",
      "properties": {
        "id": "REF_OSM_1227377021",
        "survey_source": "INDEPENDENT_OSM_VECTOR",
        "name": "Ambulatoriu Clinic de Psihiatrie Pedriatică",
        "building_type": "yes",
        "area_m2": 1203.06
      },
      "geometry": {
        "type": "Polygon",
        "coordinates": [
          [
            [
              390598.99829142436,
              585801.0874635644
            ],
            [
              390613.07652434806,
              585772.3505972779
            ],
            [
              390618.30311956257,
              585752.6010463018
            ],
            [
              390638.12835047365,
              585758.122732542
            ],
            [
              390630.5727175387,
              585804.0727455359
            ],
            [
              390613.7313166039,
              585800.053395424
            ],
            [
              390612.10744142014,
              585804.8742461703
            ],
            [
              390598.99829142436,
              585801.0874635644
            ]
          ]
        ]
      }
    }
  ]
}