{
"type": "FeatureCollection",
"name": "coregistration_points",
"crs": { "type": "name", "properties": { "name": "urn:ogc:def:crs:EPSG::3844" } },
"features": [
{ "type": "Feature", "properties": { "id": "REF_TIER1_001", "area_m2": 294.55176644136151, "roof_pts": 1131, "dx": 2.4839733543922193, "dy": 1.2720978707075119, "err2d": 2.7907627305074003, "z_min": 370.806, "z_max": 373.593, "cx": 390819.94048729981, "cy": 585397.68881282781 }, "geometry": { "type": "Point", "coordinates": [ 390819.940487299812958, 585397.688812827807851 ] } },
{ "type": "Feature", "properties": { "id": "REF_TIER1_002", "area_m2": 1257.2642498306425, "roof_pts": 6272, "dx": 2.5726892625680193, "dy": 2.0276146928081289, "err2d": 3.2756604500808968, "z_min": 362.371, "z_max": 370.131, "cx": 390833.60259023355, "cy": 585432.351017482 }, "geometry": { "type": "Point", "coordinates": [ 390833.602590233553201, 585432.351017481996678 ] } },
{ "type": "Feature", "properties": { "id": "REF_TIER1_003", "area_m2": 1568.9816944551173, "roof_pts": 9616, "dx": 1.411381209094543, "dy": -4.7376033583423123, "err2d": 4.9433675261264485, "z_min": 361.824, "z_max": 374.085, "cx": 390834.90189832496, "cy": 585507.68198095821 }, "geometry": { "type": "Point", "coordinates": [ 390834.901898324955255, 585507.681980958208442 ] } },
{ "type": "Feature", "properties": { "id": "REF_TIER1_004", "area_m2": 1790.8217509758026, "roof_pts": 9191, "dx": -0.13203307538060471, "dy": -1.9889284730888903, "err2d": 1.99330609893668, "z_min": 361.995, "z_max": 373.115, "cx": 390844.28731052065, "cy": 585472.04188038269 }, "geometry": { "type": "Point", "coordinates": [ 390844.287310520652682, 585472.041880382690579 ] } },
{ "type": "Feature", "properties": { "id": "REF_TIER1_005", "area_m2": 1442.6854520682416, "roof_pts": 5556, "dx": -1.5207590780337341, "dy": 0.049875475466251373, "err2d": 1.5215767271074427, "z_min": 357.426, "z_max": 380.244, "cx": 390902.63400547835, "cy": 585570.42861192557 }, "geometry": { "type": "Point", "coordinates": [ 390902.634005478350446, 585570.428611925570294 ] } },
{ "type": "Feature", "properties": { "id": "REF_TIER1_006", "area_m2": 1126.7911492575822, "roof_pts": 5377, "dx": -4.4648813373059966, "dy": -1.1408933911006898, "err2d": 4.608340600051239, "z_min": 359.489, "z_max": 374.76, "cx": 390979.42323766986, "cy": 585550.77575260634 }, "geometry": { "type": "Point", "coordinates": [ 390979.423237669863738, 585550.775752606336027 ] } },
{ "type": "Feature", "properties": { "id": "REF_TIER1_007", "area_m2": 818.34173874130727, "roof_pts": 5112, "dx": -1.5048377277562395, "dy": 2.1271800515241921, "err2d": 2.6056537679594016, "z_min": 365.039, "z_max": 375.779, "cx": 390766.25490110804, "cy": 585409.6886493694 }, "geometry": { "type": "Point", "coordinates": [ 390766.25490110804094, 585409.68864936940372 ] } },
{ "type": "Feature", "properties": { "id": "REF_TIER1_008", "area_m2": 448.55068123009295, "roof_pts": 1572, "dx": 3.3216084453742951, "dy": 0.4789972041035071, "err2d": 3.3559679655683277, "z_min": 364.492, "z_max": 378.005, "cx": 390692.40865936631, "cy": 585427.2508800223 }, "geometry": { "type": "Point", "coordinates": [ 390692.408659366308711, 585427.250880022300407 ] } },
{ "type": "Feature", "properties": { "id": "REF_TIER1_009", "area_m2": 148.54121230961709, "roof_pts": 493, "dx": -0.052684527414385229, "dy": -0.27357956976629794, "err2d": 0.27860624620131869, "z_min": 373.079, "z_max": 382.643, "cx": 391229.44124030828, "cy": 585605.47257348453 }, "geometry": { "type": "Point", "coordinates": [ 391229.441240308282431, 585605.472573484526947 ] } },
{ "type": "Feature", "properties": { "id": "REF_TIER1_010", "area_m2": 114.68963037070797, "roof_pts": 450, "dx": -0.68141575565095991, "dy": 0.91999752062838525, "err2d": 1.1448680579052526, "z_min": 376.685, "z_max": 380.518, "cx": 391244.50646464457, "cy": 585594.70414025709 }, "geometry": { "type": "Point", "coordinates": [ 391244.506464644568041, 585594.70414025709033 ] } },
{ "type": "Feature", "properties": { "id": "REF_TIER1_011", "area_m2": 143.11949191800124, "roof_pts": 552, "dx": 0.021992603084072471, "dy": 0.13310880225617439, "err2d": 0.13491340863119164, "z_min": 377.937, "z_max": 384.945, "cx": 391258.45765051281, "cy": 585583.31398358906 }, "geometry": { "type": "Point", "coordinates": [ 391258.45765051280614, 585583.313983589061536 ] } },
{ "type": "Feature", "properties": { "id": "REF_TIER1_012", "area_m2": 192.81760988186471, "roof_pts": 1072, "dx": 1.8213565731421113, "dy": -1.344768998795189, "err2d": 2.2640104740589408, "z_min": 384.116, "z_max": 391.739, "cx": 391283.68714342685, "cy": 585554.92017105117 }, "geometry": { "type": "Point", "coordinates": [ 391283.687143426854163, 585554.920171051169746 ] } },
{ "type": "Feature", "properties": { "id": "REF_TIER1_013", "area_m2": 92.182781584562051, "roof_pts": 604, "dx": -0.2133733507944271, "dy": 0.28748491103760898, "err2d": 0.358016425466128, "z_min": 386.887, "z_max": 398.156, "cx": 391299.68336838385, "cy": 585534.59687767178 }, "geometry": { "type": "Point", "coordinates": [ 391299.683368383848574, 585534.596877671778202 ] } },
{ "type": "Feature", "properties": { "id": "REF_TIER1_014", "area_m2": 443.90831293087223, "roof_pts": 2890, "dx": -0.78837303927866742, "dy": -2.7994526511756703, "err2d": 2.9083444079468945, "z_min": 365.063, "z_max": 375.771, "cx": 390765.56386819499, "cy": 585431.98177618068 }, "geometry": { "type": "Point", "coordinates": [ 390765.56386819499312, 585431.981776180677116 ] } },
{ "type": "Feature", "properties": { "id": "REF_TIER1_015", "area_m2": 37.146826979840441, "roof_pts": 245, "dx": 0.56315247964812443, "dy": 0.20752502523828298, "err2d": 0.60017276798766972, "z_min": 353.481, "z_max": 359.579, "cx": 391150.99924343871, "cy": 585770.57684232178 }, "geometry": { "type": "Point", "coordinates": [ 391150.999243438709527, 585770.576842321781442 ] } },
{ "type": "Feature", "properties": { "id": "REF_TIER1_016", "area_m2": 30.941207328847021, "roof_pts": 368, "dx": -0.2538847645628266, "dy": 1.446256291703321, "err2d": 1.4683714567399366, "z_min": 351.455, "z_max": 359.365, "cx": 391113.43770813418, "cy": 585793.3450670779 }, "geometry": { "type": "Point", "coordinates": [ 391113.437708134180866, 585793.34506707789842 ] } },
{ "type": "Feature", "properties": { "id": "REF_TIER1_017", "area_m2": 1484.5081169274758, "roof_pts": 5660, "dx": 0.11590236792108044, "dy": 0.71261164196766913, "err2d": 0.72197556132986318, "z_min": 362.623, "z_max": 387.588, "cx": 390626.37100028223, "cy": 585525.10981521313 }, "geometry": { "type": "Point", "coordinates": [ 390626.371000282233581, 585525.109815213130787 ] } },
{ "type": "Feature", "properties": { "id": "REF_TIER1_018", "area_m2": 286.05099449312581, "roof_pts": 1104, "dx": 0.20490129158133641, "dy": 0.70485161943361163, "err2d": 0.73403020694647481, "z_min": 361.439, "z_max": 366.261, "cx": 390669.28309417941, "cy": 585480.36274167767 }, "geometry": { "type": "Point", "coordinates": [ 390669.28309417940909, 585480.362741677672602 ] } },
{ "type": "Feature", "properties": { "id": "REF_TIER1_019", "area_m2": 172.32900772447942, "roof_pts": 773, "dx": 1.1590365318697877, "dy": 1.2802636350970715, "err2d": 1.7269744229607782, "z_min": 362.797, "z_max": 368.195, "cx": 390764.4367124979, "cy": 585625.48113739991 }, "geometry": { "type": "Point", "coordinates": [ 390764.4367124979035, 585625.481137399910949 ] } },
{ "type": "Feature", "properties": { "id": "REF_TIER1_020", "area_m2": 1450.3019924652772, "roof_pts": 2060, "dx": 1.6745971693308093, "dy": 3.4778221672168002, "err2d": 3.8599899878516939, "z_min": 360.927, "z_max": 363.72, "cx": 390733.0088047724, "cy": 585583.47068268724 }, "geometry": { "type": "Point", "coordinates": [ 390733.008804772398435, 585583.470682687242515 ] } },
{ "type": "Feature", "properties": { "id": "REF_TIER1_021", "area_m2": 307.59134424276544, "roof_pts": 80, "dx": -3.2980104417656548, "dy": 11.011754906037822, "err2d": 11.495025836623567, "z_min": 364.945, "z_max": 366.295, "cx": 390771.88058544177, "cy": 585606.48034509399 }, "geometry": { "type": "Point", "coordinates": [ 390771.880585441773292, 585606.480345093994401 ] } },
{ "type": "Feature", "properties": { "id": "REF_TIER1_025", "area_m2": 1460.0873684656253, "roof_pts": 6972, "dx": 6.3056323316995986, "dy": -10.101069829426706, "err2d": 11.907670250789185, "z_min": 363.429, "z_max": 392.744, "cx": 390596.70618106471, "cy": 585575.53313279559 }, "geometry": { "type": "Point", "coordinates": [ 390596.706181064713746, 585575.533132795593701 ] } },
{ "type": "Feature", "properties": { "id": "REF_TIER1_026", "area_m2": 2841.0964548587613, "roof_pts": 4966, "dx": -3.2725646963808686, "dy": 2.06098411756102, "err2d": 3.8674714252127553, "z_min": 364.405, "z_max": 392.414, "cx": 390606.09315410437, "cy": 585608.28209018765 }, "geometry": { "type": "Point", "coordinates": [ 390606.093154104368296, 585608.282090187654831 ] } },
{ "type": "Feature", "properties": { "id": "REF_TIER1_027", "area_m2": 2669.7443490887445, "roof_pts": 9108, "dx": 4.7964971601613797, "dy": 2.985539601999335, "err2d": 5.6497638643170323, "z_min": 359.745, "z_max": 375.328, "cx": 390809.61050865887, "cy": 585724.59026233049 }, "geometry": { "type": "Point", "coordinates": [ 390809.610508658865001, 585724.590262330486439 ] } },
{ "type": "Feature", "properties": { "id": "REF_TIER1_028", "area_m2": 820.84743613527939, "roof_pts": 3110, "dx": 7.1572322104475461, "dy": -7.6727873523486778, "err2d": 10.492742190134555, "z_min": 349.984, "z_max": 360.391, "cx": 390929.62952663191, "cy": 585796.35155809193 }, "geometry": { "type": "Point", "coordinates": [ 390929.629526631906629, 585796.351558091933839 ] } },
{ "type": "Feature", "properties": { "id": "REF_TIER1_029", "area_m2": 974.20974750557446, "roof_pts": 1398, "dx": -6.5575499616097659, "dy": -16.000500305788592, "err2d": 17.292121660876351, "z_min": 351.778, "z_max": 364.946, "cx": 391044.68905425339, "cy": 585755.82271418266 }, "geometry": { "type": "Point", "coordinates": [ 391044.689054253394715, 585755.82271418266464 ] } }
]
}
