{
  "type": "FeatureCollection",
  "name": "FUSED_BUILDINGS_STEREO70",
  "crs": {
    "type": "name",
    "properties": {
      "name": "urn:ogc:def:crs:EPSG::3844"
    }
  },
  "features": [
    {
      "type": "Feature",
      "properties": {
        "id": 1,
        "height_m": 3.2,
        "status": "CONFIRMED_HYBRID"
      },
      "geometry": {
        "type": "Polygon",
        "coordinates": [
          [
            [
              391105.9901520001,
              585551.799998
            ],
            [
              391105.9901520001,
              585550.999998
            ],
            [
              391105.79015200015,
              585550.999998
            ],
            [
              391105.79015200015,
              585550.5999980001
            ],
            [
              391105.59015200014,
              585550.5999980001
            ],
            [
              391105.59015200014,
              585550.199998
            ],
            [
              391105.3901520001,
              585550.199998
            ],
            [
              391105.3901520001,
              585549.5999980001
            ],
            [
              391105.1901520001,
              585549.5999980001
            ],
            [
              391105.1901520001,
              585549.199998
            ],
            [
              391104.9901520001,
              585549.199998
            ],
            [
              391104.9901520001,
              585548.799998
            ],
            [
              391104.79015200015,
              585548.799998
            ],
            [
              391104.79015200015,
              585548.399998
            ],
            [
              391104.59015200014,
              585548.399998
            ],
            [
              391104.59015200014,
              585548.199998
            ],
            [
              391104.3901520001,
              585548.199998
            ],
            [
              391104.3901520001,
              585547.999998
            ],
            [
              391104.1901520001,
              585547.999998
            ],
            [
              391104.1901520001,
              585547.799998
            ],
            [
              391103.9901520001,
              585547.799998
            ],
            [
              391103.9901520001,
              585545.999998
            ],
            [
              391103.79015200015,
              585545.999998
            ],
            [
              391103.79015200015,
              585545.5999980001
            ],
            [
              391103.59015200014,
              585545.5999980001
            ],
            [
              391103.59015200014,
              585545.199998
            ],
            [
              391103.3901520001,
              585545.199998
            ],
            [
              391103.3901520001,
              585544.5999980001
            ],
            [
              391103.1901520001,
              585544.5999980001
            ],
            [
              391103.1901520001,
              585543.799998
            ],
            [
              391102.9901520001,
              585543.799998
            ],
            [
              391102.9901520001,
              585543.199998
            ],
            [
              391102.79015200015,
              585543.199998
            ],
            [
              391102.79015200015,
              585541.999998
            ],
            [
              391102.59015200014,
              585541.999998
            ],
            [
              391102.59015200014,
              585540.999998
            ],
            [
              391102.3901520001,
              585540.999998
            ],
            [
              391102.3901520001,
              585540.399998
            ],
            [
              391102.1901520001,
              585540.399998
            ],
            [
              391102.1901520001,
              585538.799998
            ],
            [
              391101.9901520001,
              585538.799998
            ],
            [
              391101.9901520001,
              585538.199998
            ],
            [
              391102.1901520001,
              585538.199998
            ],
            [
              391102.1901520001,
              585537.5999980001
            ],
            [
              391102.3901520001,
              585537.5999980001
            ],
            [
              391102.3901520001,
              585537.199998
            ],
            [
              391102.79015200015,
              585537.199998
            ],
            [
              391102.79015200015,
              585536.999998
            ],
            [
              391103.9901520001,
              585536.999998
            ],
            [
              391103.9901520001,
              585536.799998
            ],
            [
              391112.3901520001,
              585536.799998
            ],
            [
              391112.3901520001,
              585536.5999980001
            ],
            [
              391118.79015200015,
              585536.5999980001
            ],
            [
              391118.79015200015,
              585536.799998
            ],
            [
              391120.59015200014,
              585536.799998
            ],
            [
              391120.59015200014,
              585536.5999980001
            ],
            [
              391126.59015200014,
              585536.5999980001
            ],
            [
              391126.59015200014,
              585536.799998
            ],
            [
              391129.3901520001,
              585536.799998
            ],
            [
              391129.3901520001,
              585536.5999980001
            ],
            [
              391133.9901520001,
              585536.5999980001
            ],
            [
              391133.9901520001,
              585536.799998
            ],
            [
              391133.79015200015,
              585536.799998
            ],
            [
              391133.79015200015,
              585537.199998
            ],
            [
              391133.59015200014,
              585537.199998
            ],
            [
              391133.59015200014,
              585537.399998
            ],
            [
              391133.3901520001,
              585537.399998
            ],
            [
              391133.3901520001,
              585537.5999980001
            ],
            [
              391133.1901520001,
              585537.5999980001
            ],
            [
              391133.1901520001,
              585538.5999980001
            ],
            [
              391133.3901520001,
              585538.5999980001
            ],
            [
              391133.3901520001,
              585538.999998
            ],
            [
              391133.59015200014,
              585538.999998
            ],
            [
              391133.59015200014,
              585539.5999980001
            ],
            [
              391133.79015200015,
              585539.5999980001
            ],
            [
              391133.79015200015,
              585539.999998
            ],
            [
              391133.59015200014,
              585539.999998
            ],
            [
              391133.59015200014,
              585540.199998
            ],
            [
              391133.3901520001,
              585540.199998
            ],
            [
              391133.3901520001,
              585540.399998
            ],
            [
              391133.1901520001,
              585540.399998
            ],
            [
              391133.1901520001,
              585540.199998
            ],
            [
              391132.79015200015,
              585540.199998
            ],
            [
              391132.79015200015,
              585539.999998
            ],
            [
              391132.59015200014,
              585539.999998
            ],
            [
              391132.59015200014,
              585539.799998
            ],
            [
              391132.3901520001,
              585539.799998
            ],
            [
              391132.3901520001,
              585539.399998
            ],
            [
              391131.79015200015,
              585539.399998
            ],
            [
              391131.79015200015,
              585539.199998
            ],
            [
              391131.3901520001,
              585539.199998
            ],
            [
              391131.3901520001,
              585539.399998
            ],
            [
              391131.1901520001,
              585539.399998
            ],
            [
              391131.1901520001,
              585539.5999980001
            ],
            [
              391130.9901520001,
              585539.5999980001
            ],
            [
              391130.9901520001,
              585539.799998
            ],
            [
              391130.79015200015,
              585539.799998
            ],
            [
              391130.79015200015,
              585541.5999980001
            ],
            [
              391130.59015200014,
              585541.5999980001
            ],
            [
              391130.59015200014,
              585542.199998
            ],
            [
              391130.3901520001,
              585542.199998
            ],
            [
              391130.3901520001,
              585543.199998
            ],
            [
              391130.1901520001,
              585543.199998
            ],
            [
              391130.1901520001,
              585543.5999980001
            ],
            [
              391129.9901520001,
              585543.5999980001
            ],
            [
              391129.9901520001,
              585543.799998
            ],
            [
              391129.79015200015,
              585543.799998
            ],
            [
              391129.79015200015,
              585543.999998
            ],
            [
              391129.3901520001,
              585543.999998
            ],
            [
              391129.3901520001,
              585544.399998
            ],
            [
              391129.1901520001,
              585544.399998
            ],
            [
              391129.1901520001,
              585545.199998
            ],
            [
              391129.3901520001,
              585545.199998
            ],
            [
              391129.3901520001,
              585546.399998
            ],
            [
              391129.1901520001,
              585546.399998
            ],
            [
              391129.1901520001,
              585546.999998
            ],
            [
              391128.9901520001,
              585546.999998
            ],
            [
              391128.9901520001,
              585547.5999980001
            ],
            [
              391128.79015200015,
              585547.5999980001
            ],
            [
              391128.79015200015,
              585548.199998
            ],
            [
              391128.59015200014,
              585548.199998
            ],
            [
              391128.59015200014,
              585548.399998
            ],
            [
              391128.3901520001,
              585548.399998
            ],
            [
              391128.3901520001,
              585548.5999980001
            ],
            [
              391128.1901520001,
              585548.5999980001
            ],
            [
              391128.1901520001,
              585548.999998
            ],
            [
              391127.79015200015,
              585548.999998
            ],
            [
              391127.79015200015,
              585549.199998
            ],
            [
              391127.59015200014,
              585549.199998
            ],
            [
              391127.59015200014,
              585550.199998
            ],
            [
              391127.3901520001,
              585550.199998
            ],
            [
              391127.3901520001,
              585550.799998
            ],
            [
              391127.1901520001,
              585550.799998
            ],
            [
              391127.1901520001,
              585550.999998
            ],
            [
              391126.9901520001,
              585550.999998
            ],
            [
              391126.9901520001,
              585551.199998
            ],
            [
              391126.79015200015,
              585551.199998
            ],
            [
              391126.79015200015,
              585551.399998
            ],
            [
              391126.59015200014,
              585551.399998
            ],
            [
              391126.59015200014,
              585551.5999980001
            ],
            [
              391126.3901520001,
              585551.5999980001
            ],
            [
              391126.3901520001,
              585551.799998
            ],
            [
              391105.9901520001,
              585551.799998
            ]
          ]
        ]
      }
    }
  ]
}