{
  "type": "FeatureCollection",
  "name": "case_07_sf_maria_calcan_merge",
  "crs": {
    "type": "name",
    "properties": {
      "name": "urn:ogc:def:crs:EPSG::3844"
    }
  },
  "features": [
    {
      "type": "Feature",
      "properties": {
        "role": "GROUND_TRUTH_REFERENCE",
        "id": "REF_OSM_297540956",
        "name": "Biserica Catolica Sf. Maria",
        "morphology": "CHURCH_WITH_PARISH_HOUSE",
        "expected_behavior": "Corp biserica separat de anexa parohiala, arie ~396 mp",
        "failure_mode": "SUB_SEGMENTARE_MERGED"
      },
      "geometry": {
        "type": "Polygon",
        "coordinates": [
          [
            [
              390886.33968164027,
              585764.2810997561
            ],
            [
              390897.3788196522,
              585735.5442855039
            ],
            [
              390907.6804941857,
              585739.9716493147
            ],
            [
              390903.4066600008,
              585751.199216994
            ],
            [
              390907.06034203054,
              585752.5783926297
            ],
            [
              390902.9818713663,
              585763.2021137445
            ],
            [
              390900.4586642578,
              585762.2360711804
            ],
            [
              390897.9707525191,
              585768.7177674989
            ],
            [
              390886.33968164027,
              585764.2810997561
            ]
          ]
        ]
      }
    },
    {
      "type": "Feature",
      "properties": {
        "role": "CURRENT_PIPELINE_PREDICTION",
        "id": "PRED_32",
        "area_m2": 955.4,
        "failure_mode": "CONTOPIT_CU_CLADIREA_ADIACENTA"
      },
      "geometry": {
        "type": "Polygon",
        "coordinates": [
          [
            [
              390904.9540677846,
              585736.7352789036
            ],
            [
              390902.0375423116,
              585735.7975555529
            ],
            [
              390901.7407650555,
              585736.7109420277
            ],
            [
              390899.7039132115,
              585736.0491287453
            ],
            [
              390899.3135776406,
              585737.2504581063
            ],
            [
              390898.0169479397,
              585736.8291561833
            ],
            [
              390896.93792670657,
              585740.1500241907
            ],
            [
              390895.31301148457,
              585739.6220507219
            ],
            [
              390894.247715209,
              585742.900560702
            ],
            [
              390893.25201437436,
              585742.5770314656
            ],
            [
              390888.92902767425,
              585755.8816579605
            ],
            [
              390903.1548926344,
              585760.5038713026
            ],
            [
              390906.2298319925,
              585751.0400952616
            ],
            [
              390912.0257285874,
              585752.923256121
            ],
            [
              390910.94002483005,
              585756.2645023839
            ],
            [
              390909.1336931183,
              585755.6776000173
            ],
            [
              390906.80388673453,
              585762.8479443752
            ],
            [
              390916.6228984754,
              585766.0383140552
            ],
            [
              390917.48036466027,
              585763.3993044941
            ],
            [
              390920.6756099158,
              585764.4374995098
            ],
            [
              390923.09306245827,
              585756.9968814715
            ],
            [
              390930.9863883461,
              585759.5614740086
            ],
            [
              390930.50679692207,
              585761.0375046389
            ],
            [
              390932.83611376816,
              585761.7943550113
            ],
            [
              390932.0078030887,
              585764.343539971
            ],
            [
              390934.09983449377,
              585765.0232821797
            ],
            [
              390930.39513596706,
              585776.4249749007
            ],
            [
              390931.4073381678,
              585776.7538593322
            ],
            [
              390930.72842662217,
              585778.8433750976
            ],
            [
              390933.29343713954,
              585779.6767975357
            ],
            [
              390935.873840579,
              585771.7349686496
            ],
            [
              390936.8825627952,
              585772.0627223658
            ],
            [
              390943.1675637969,
              585752.7194316505
            ],
            [
              390943.002608273,
              585752.6658343518
            ],
            [
              390943.1669670898,
              585752.159989927
            ],
            [
              390941.21846204525,
              585751.5269765243
            ],
            [
              390941.2262227481,
              585751.5030915369
            ],
            [
              390939.26846511866,
              585750.8669775227
            ],
            [
              390939.27622582135,
              585750.8430925355
            ],
            [
              390937.31845433847,
              585750.2069740201
            ],
            [
              390937.32621504134,
              585750.1830890329
            ],
            [
              390935.36846458365,
              585749.5469773489
            ],
            [
              390935.4464770478,
              585749.3068796722
            ],
            [
              390933.54675783723,
              585748.6896250821
            ],
            [
              390934.0616536702,
              585747.1049386534
            ],
            [
              390932.0571041829,
              585746.4536215554
            ],
            [
              390931.45438063436,
              585748.3086138985
            ],
            [
              390929.4362391339,
              585747.6528774393
            ],
            [
              390929.85676088254,
              585746.3586445765
            ],
            [
              390927.9879009296,
              585745.7514151684
            ],
            [
              390928.3762157912,
              585744.5563049114
            ],
            [
              390926.57630103326,
              585743.9714747608
            ],
            [
              390926.26282830077,
              585744.9362446287
            ],
            [
              390924.5318577959,
              585744.3738182181
            ],
            [
              390924.46283550997,
              585744.5862469713
            ],
            [
              390922.7318489003,
              585744.0238153278
            ],
            [
              390922.3636199201,
              585745.1571075985
            ],
            [
              390920.34831356397,
              585744.5023007004
            ],
            [
              390920.6971677406,
              585743.4286379444
            ],
            [
              390918.39751669625,
              585742.6814360257
            ],
            [
              390918.4471641785,
              585742.5286367871
            ],
            [
              390916.1475131341,
              585741.7814348682
            ],
            [
              390916.19716061634,
              585741.6286356297
            ],
            [
              390913.89752154885,
              585740.8814376023
            ],
            [
              390914.1995531893,
              585739.951879795
            ],
            [
              390912.3255420688,
              585739.3429677708
            ],
            [
              390911.87151303695,
              585740.7403254475
            ],
            [
              390910.4231643777,
              585740.2697284409
            ],
            [
              390910.0446981788,
              585741.4345276307
            ],
            [
              390908.6107809415,
              585740.9686162525
            ],
            [
              390908.85706626065,
              585740.2106279804
            ],
            [
              390907.43758425984,
              585739.74941032
            ],
            [
              390907.57648224896,
              585739.3219262654
            ],
            [
              390906.4190796311,
              585738.9458580097
            ],
            [
              390907.0699608386,
              585736.9425491975
            ],
            [
              390905.09520252433,
              585736.3009108389
            ],
            [
              390904.9540677846,
              585736.7352789036
            ]
          ]
        ]
      }
    },
    {
      "type": "Feature",
      "properties": {
        "role": "CURRENT_PIPELINE_PREDICTION",
        "id": "PRED_103",
        "area_m2": 447.9,
        "failure_mode": "CONTOPIT_CU_CLADIREA_ADIACENTA"
      },
      "geometry": {
        "type": "Polygon",
        "coordinates": [
          [
            [
              390881.8032865934,
              585789.9299862885
            ],
            [
              390881.80330659857,
              585789.7800430319
            ],
            [
              390883.81942415,
              585789.7800430319
            ],
            [
              390883.81940589735,
              585789.7050073084
            ],
            [
              390884.8748355463,
              585789.7050073084
            ],
            [
              390884.8748494995,
              585789.8550275812
            ],
            [
              390886.4510502349,
              585789.8550275812
            ],
            [
              390886.4510537927,
              585790.1175280035
            ],
            [
              390890.4116798128,
              585790.1175149234
            ],
            [
              390890.4116751309,
              585789.930030669
            ],
            [
              390891.9740909794,
              585789.930030669
            ],
            [
              390891.97409307724,
              585790.0550229745
            ],
            [
              390896.6723451616,
              585790.0550090903
            ],
            [
              390896.6723297871,
              585787.8631119495
            ],
            [
              390895.3973384265,
              585787.8631090191
            ],
            [
              390895.3973384265,
              585787.5300210299
            ],
            [
              390893.89732018905,
              585787.5300210299
            ],
            [
              390893.89733751887,
              585787.2800328782
            ],
            [
              390898.09735303756,
              585787.2799785993
            ],
            [
              390898.0972901136,
              585767.5800186995
            ],
            [
              390897.08483735763,
              585767.5800186994
            ],
            [
              390897.08483735763,
              585766.6748897639
            ],
            [
              390895.6317091655,
              585766.6749015582
            ],
            [
              390895.6317091655,
              585766.1550352339
            ],
            [
              390880.0129733908,
              585766.1550352339
            ],
            [
              390880.0129733908,
              585765.5972227339
            ],
            [
              390878.8973424998,
              585765.5972232646
            ],
            [
              390878.8972897338,
              585786.930035439
            ],
            [
              390879.57233865256,
              585786.930035439
            ],
            [
              390879.5723296703,
              585789.1800676313
            ],
            [
              390880.54735288164,
              585789.1800676313
            ],
            [
              390880.54735288164,
              585789.9300289691
            ],
            [
              390881.8032865934,
              585789.9299862885
            ]
          ]
        ]
      }
    }
  ]
}