{
  "type": "FeatureCollection",
  "name": "case_06_usamv_library_split",
  "crs": {
    "type": "name",
    "properties": {
      "name": "urn:ogc:def:crs:EPSG::3844"
    }
  },
  "features": [
    {
      "type": "Feature",
      "properties": {
        "role": "GROUND_TRUTH_REFERENCE",
        "id": "REF_OSM_260081500",
        "name": "Complex Biblioteca USAMV",
        "morphology": "COMPLEX_ROOF_WINGED",
        "expected_behavior": "Corp unitar continuu, arie ~1288 mp",
        "failure_mode": "SUPRA_SEGMENTARE_SPLIT"
      },
      "geometry": {
        "type": "Polygon",
        "coordinates": [
          [
            [
              390935.7970104579,
              585711.3932254266
            ],
            [
              390955.3624691556,
              585673.3643366131
            ],
            [
              390996.8366359878,
              585727.4553146188
            ],
            [
              390960.14525222493,
              585713.9882999845
            ],
            [
              390957.22716365114,
              585720.7667806952
            ],
            [
              390935.7970104579,
              585711.3932254266
            ]
          ]
        ]
      }
    },
    {
      "type": "Feature",
      "properties": {
        "role": "CURRENT_PIPELINE_PREDICTION",
        "id": "PRED_62",
        "area_m2": 606.4,
        "failure_mode": "FRAGMENTARE_COAME_DIFERITE"
      },
      "geometry": {
        "type": "Polygon",
        "coordinates": [
          [
            [
              390963.04985674756,
              585719.424073102
            ],
            [
              390963.0448017061,
              585719.4359820334
            ],
            [
              390961.24985774286,
              585718.6740735243
            ],
            [
              390961.1403940234,
              585718.9319538868
            ],
            [
              390959.6392038975,
              585718.2947268514
            ],
            [
              390959.5260566645,
              585718.5612850281
            ],
            [
              390958.3186093019,
              585718.0487540307
            ],
            [
              390955.601996871,
              585724.4486073675
            ],
            [
              390954.11373215844,
              585723.8168757323
            ],
            [
              390952.32721763005,
              585728.0254790452
            ],
            [
              390951.3699417818,
              585727.6191482841
            ],
            [
              390949.20983449236,
              585732.7079802855
            ],
            [
              390983.5064071694,
              585747.2659285973
            ],
            [
              390987.6272432736,
              585737.5575875652
            ],
            [
              390986.5948508885,
              585737.1193629969
            ],
            [
              390988.10484181915,
              585733.5620366973
            ],
            [
              390987.0148435351,
              585733.0993598755
            ],
            [
              390987.5510797983,
              585731.8360664066
            ],
            [
              390986.14163379784,
              585731.2377954974
            ],
            [
              390986.4176096408,
              585730.5876371546
            ],
            [
              390984.14373611676,
              585729.6224351085
            ],
            [
              390984.2009527009,
              585729.4876412833
            ],
            [
              390981.9270678249,
              585728.5224344186
            ],
            [
              390981.984284409,
              585728.3876405936
            ],
            [
              390979.7103995329,
              585727.4224337287
            ],
            [
              390979.7676161171,
              585727.2876399036
            ],
            [
              390977.4937399325,
              585726.3224367282
            ],
            [
              390977.5509565166,
              585726.1876429032
            ],
            [
              390975.277074301,
              585725.2224371677
            ],
            [
              390975.334290885,
              585725.0876433426
            ],
            [
              390973.0604060091,
              585724.1224364777
            ],
            [
              390973.11762259324,
              585723.9876426527
            ],
            [
              390970.84373771725,
              585723.022435788
            ],
            [
              390970.9009543014,
              585722.8876419629
            ],
            [
              390968.62706942536,
              585721.922435098
            ],
            [
              390969.1009246686,
              585720.8061021019
            ],
            [
              390967.066500248,
              585719.9425359854
            ],
            [
              390966.6448065471,
              585720.9359840882
            ],
            [
              390963.04985674756,
              585719.424073102
            ]
          ]
        ]
      }
    },
    {
      "type": "Feature",
      "properties": {
        "role": "CURRENT_PIPELINE_PREDICTION",
        "id": "PRED_89",
        "area_m2": 492.7,
        "failure_mode": "FRAGMENTARE_COAME_DIFERITE"
      },
      "geometry": {
        "type": "Polygon",
        "coordinates": [
          [
            [
              390959.5178816134,
              585677.8490889292
            ],
            [
              390958.17679002945,
              585677.3609715112
            ],
            [
              390958.61787949706,
              585676.1490881591
            ],
            [
              390957.27679114754,
              585675.6609719183
            ],
            [
              390958.3955318333,
              585672.5872401397
            ],
            [
              390957.05322464654,
              585672.0986769492
            ],
            [
              390956.7436061075,
              585672.9493468938
            ],
            [
              390955.4010541755,
              585672.4606979525
            ],
            [
              390945.7873640279,
              585698.8736355184
            ],
            [
              390944.04614561965,
              585698.2398735023
            ],
            [
              390940.3776214427,
              585708.3189408014
            ],
            [
              390953.9103276589,
              585713.244388254
            ],
            [
              390954.6118591601,
              585711.3168272018
            ],
            [
              390955.6317008075,
              585711.6880192051
            ],
            [
              390962.9926761773,
              585691.4636278137
            ],
            [
              390964.0354074278,
              585691.8431509513
            ],
            [
              390966.04069568426,
              585686.3336110282
            ],
            [
              390964.48470711877,
              585685.7672810568
            ],
            [
              390964.9166471486,
              585684.5805355784
            ],
            [
              390963.1280270498,
              585683.9295311021
            ],
            [
              390963.4916334935,
              585682.9305306085
            ],
            [
              390961.7030345525,
              585682.2795338328
            ],
            [
              390962.0666409962,
              585681.2805333392
            ],
            [
              390960.2780392007,
              585680.6295355248
            ],
            [
              390960.6829593758,
              585679.517026487
            ],
            [
              390959.11810587713,
              585678.9474637375
            ],
            [
              390959.5178816134,
              585677.8490889292
            ]
          ]
        ]
      }
    },
    {
      "type": "Feature",
      "properties": {
        "role": "CURRENT_PIPELINE_PREDICTION",
        "id": "PRED_142",
        "area_m2": 351.0,
        "failure_mode": "FRAGMENTARE_COAME_DIFERITE"
      },
      "geometry": {
        "type": "Polygon",
        "coordinates": [
          [
            [
              390966.18597249786,
              585691.8215273464
            ],
            [
              390966.67340078123,
              585691.4407066344
            ],
            [
              390965.8949549435,
              585690.4443402956
            ],
            [
              390962.57154457504,
              585693.0408470167
            ],
            [
              390963.4350138219,
              585694.1460372539
            ],
            [
              390961.4526789517,
              585695.6947935312
            ],
            [
              390961.0287199714,
              585696.8596272551
            ],
            [
              390961.81501345383,
              585697.8660370186
            ],
            [
              390960.20443931344,
              585699.1243508556
            ],
            [
              390959.343469014,
              585701.4898798023
            ],
            [
              390960.379446151,
              585702.8158688656
            ],
            [
              390959.41522454435,
              585703.5692013477
            ],
            [
              390960.37945592223,
              585704.8033612313
            ],
            [
              390959.41521768755,
              585705.5567067045
            ],
            [
              390960.3794490654,
              585706.7908665881
            ],
            [
              390959.41523050197,
              585707.5441966929
            ],
            [
              390962.7628010131,
              585711.8289080011
            ],
            [
              390963.80150001135,
              585711.0173874036
            ],
            [
              390965.35480066686,
              585713.005523544
            ],
            [
              390967.1376053908,
              585711.6126438383
            ],
            [
              390970.0591681323,
              585715.3520723385
            ],
            [
              390971.4904949708,
              585714.2337972526
            ],
            [
              390972.75419551024,
              585715.8512601837
            ],
            [
              390973.6404928266,
              585715.1588088297
            ],
            [
              390974.9041885622,
              585716.7762656122
            ],
            [
              390975.7904987949,
              585716.0838041668
            ],
            [
              390977.05419453053,
              585717.7012609493
            ],
            [
              390977.9404971305,
              585717.0088054672
            ],
            [
              390979.204192866,
              585718.6262622495
            ],
            [
              390980.0904901822,
              585717.9338108957
            ],
            [
              390981.68585182127,
              585719.9757822327
            ],
            [
              390983.2156766584,
              585718.7805229768
            ],
            [
              390983.8789964987,
              585719.6295336557
            ],
            [
              390984.96567815734,
              585718.7805248953
            ],
            [
              390985.6289979976,
              585719.6295355746
            ],
            [
              390987.5443052276,
              585718.13310947
            ],
            [
              390986.40801691764,
              585716.6787267555
            ],
            [
              390987.23665303993,
              585716.0313252636
            ],
            [
              390986.25802756613,
              585714.7787417773
            ],
            [
              390987.4005318286,
              585713.8861196187
            ],
            [
              390986.62348846346,
              585712.8915425695
            ],
            [
              390983.27407556475,
              585715.5083358187
            ],
            [
              390981.780450537,
              585713.5965835705
            ],
            [
              390982.55870840343,
              585712.9885418857
            ],
            [
              390981.06097203225,
              585711.0715267502
            ],
            [
              390981.0712022588,
              585711.0635340214
            ],
            [
              390979.57347784634,
              585709.1465341921
            ],
            [
              390979.5837080732,
              585709.1385414631
            ],
            [
              390978.0859794249,
              585707.2215362124
            ],
            [
              390978.0962096513,
              585707.2135434833
            ],
            [
              390976.59847751586,
              585705.2965337692
            ],
            [
              390976.6087077427,
              585705.2885410402
            ],
            [
              390970.6484824597,
              585697.5965400969
            ],
            [
              390970.65871268633,
              585697.5885473681
            ],
            [
              390967.67347440595,
              585693.7465297887
            ],
            [
              390967.6837046325,
              585693.7385370596
            ],
            [
              390966.18597249786,
              585691.8215273464
            ]
          ]
        ]
      }
    }
  ]
}